{
"type": "FeatureCollection",
"name": "Abia",
"crs": { "type": "name", "properties": { "name": "urn:ogc:def:crs:OGC:1.3:CRS84" } },
"features": [
{ "type": "Feature", "properties": { "fid": 41.0, "OBJECTID": 41.0, "lganame": "Aba South", "statecode": "AB", "LGA_UID": "01_02" }, "geometry": { "type": "MultiPolygon", "coordinates": [ [ [ [ 7.385290623159278, 5.060147762333941 ], [ 7.382534027286283, 5.059136867647112 ], [ 7.376250267016758, 5.057483195523503 ], [ 7.367981911398829, 5.055498600175042 ], [ 7.361036776679896, 5.055498600175042 ], [ 7.349461554815093, 5.052191733928225 ], [ 7.337224959500873, 5.052191733928225 ], [ 7.325318813411229, 5.053183555602118 ], [ 7.314074515771267, 5.055168151950568 ], [ 7.308782578175624, 5.062444209894295 ], [ 7.30712938305237, 5.069058418388352 ], [ 7.30712938305237, 5.074680805208459 ], [ 7.30668115574781, 5.077480316110609 ], [ 7.308918953268289, 5.080358028065859 ], [ 7.311372279935199, 5.085754870732785 ], [ 7.313825606602165, 5.09409523039966 ], [ 7.317869186349583, 5.099694729204259 ], [ 7.3202033039355, 5.10292673140026 ], [ 7.32796478320904, 5.09948492106173 ], [ 7.334578990703108, 5.099153995836843 ], [ 7.344501019444635, 5.100477218735932 ], [ 7.349131106590562, 5.10378408398276 ], [ 7.35640668853398, 5.110729217701703 ], [ 7.363021374028335, 5.116351603521821 ], [ 7.369305134297861, 5.120320320218354 ], [ 7.376911640466119, 5.118997574319621 ], [ 7.382534027286283, 5.115359782847918 ], [ 7.384849071859264, 5.110729217701703 ], [ 7.386502742982827, 5.099153995836843 ], [ 7.38749456365673, 5.089563370320491 ], [ 7.38749456365673, 5.081956387151877 ], [ 7.386171817757997, 5.073688506534268 ], [ 7.385510445308626, 5.064759254467276 ], [ 7.385290623159278, 5.060147762333941 ] ] ] ] } },
{ "type": "Feature", "properties": { "fid": 47.0, "OBJECTID": 47.0, "lganame": "Ukwa East", "statecode": "AB", "LGA_UID": "01_13" }, "geometry": { "type": "MultiPolygon", "coordinates": [ [ [ [ 7.491546154354921, 4.946785927309918 ], [ 7.491569042370429, 4.944478034741792 ], [ 7.490445136606809, 4.942160130166883 ], [ 7.488173962063627, 4.939833163585831 ], [ 7.487044811296471, 4.938093185403602 ], [ 7.484200954364155, 4.935760974819004 ], [ 7.482491970203, 4.934593201025507 ], [ 7.4807901380467, 4.932847976839753 ], [ 7.478721141640904, 4.91953992779753 ], [ 7.478095055215533, 4.915512085060811 ], [ 7.477023125487165, 4.907999991956672 ], [ 7.47819805128546, 4.905124187002741 ], [ 7.478795051691122, 4.902820110437233 ], [ 7.479963779485217, 4.900520801874961 ], [ 7.480559825890225, 4.898217201309762 ], [ 7.481163025300077, 4.895337105352837 ], [ 7.481759070705039, 4.89303302778734 ], [ 7.481207848330484, 4.890719891215667 ], [ 7.480680942972469, 4.886097908075271 ], [ 7.480714797995518, 4.882636069723105 ], [ 7.481891154794766, 4.879758834768154 ], [ 7.484212875372293, 4.876893043820985 ], [ 7.485383034167342, 4.874592781258059 ], [ 7.486546039957545, 4.872870922088168 ], [ 7.487716197752604, 4.870572089526206 ], [ 7.488884925546699, 4.868272780963935 ], [ 7.490055084341805, 4.865973949401962 ], [ 7.491219044132663, 4.864252090232071 ], [ 7.493529796702717, 4.862538815067978 ], [ 7.495840073272404, 4.860826014904205 ], [ 7.498723984231901, 4.859117984743648 ], [ 7.499338149649191, 4.855082989002085 ], [ 7.498798847282785, 4.851615905646383 ], [ 7.497669219515217, 4.8498749734635 ], [ 7.497136116153001, 4.845830916715727 ], [ 7.49888992334462, 4.842381954372343 ], [ 7.500638961533014, 4.839510918421581 ], [ 7.500668048552768, 4.836625099460832 ], [ 7.500690936568333, 4.834317206892706 ], [ 7.499560832800512, 4.832575797709524 ], [ 7.497859000644155, 4.830831050524012 ], [ 7.496728896876334, 4.829091072341782 ], [ 7.494447231326035, 4.82791805254476 ], [ 7.493318080558822, 4.826177120361876 ], [ 7.491614819401548, 4.824431896176122 ], [ 7.488712311429424, 4.821804523390938 ], [ 7.487277985454853, 4.824673653340369 ], [ 7.486754894099477, 4.82763671935362 ], [ 7.478563308533637, 4.833039761024736 ], [ 7.474380015691338, 4.836699962511659 ], [ 7.471591472796604, 4.84227705030105 ], [ 7.466188431125488, 4.845414639432875 ], [ 7.460362911167351, 4.845418930435812 ], [ 7.455207824664683, 4.845066071196072 ], [ 7.446667670862098, 4.845414639432875 ], [ 7.436501025954328, 4.85400009226629 ], [ 7.429212093001809, 4.86244916900705 ], [ 7.416359901269345, 4.866746901927172 ], [ 7.406683921694992, 4.865890980345625 ], [ 7.392834187284734, 4.861804961569362 ], [ 7.373507023152854, 4.86289119730742 ], [ 7.362020016347969, 4.865313052952956 ], [ 7.360141277071477, 4.866603850829961 ], [ 7.352412223819954, 4.871914864438565 ], [ 7.340910912005313, 4.872939110134496 ], [ 7.334217072457193, 4.87331342738878 ], [ 7.330787182126755, 4.873486041506112 ], [ 7.326064586917937, 4.876126766300331 ], [ 7.328053474269325, 4.880673409389544 ], [ 7.3290348049361, 4.886560917389829 ], [ 7.328053474269325, 4.898826598723815 ], [ 7.330016135602818, 4.90912961972424 ], [ 7.329525471269449, 4.919432639724619 ], [ 7.32707214360255, 4.925320147724904 ], [ 7.321675300935624, 4.933660984392134 ], [ 7.314806461268574, 4.946907520392529 ], [ 7.310390949268424, 4.961135864059997 ], [ 7.310042381031622, 4.970205307222272 ], [ 7.3202033039355, 4.968986034393822 ], [ 7.334431647602969, 4.971929550393838 ], [ 7.344244003270035, 4.973892211727389 ], [ 7.354056834937353, 4.974873543394153 ], [ 7.368284701604523, 4.977326393060707 ], [ 7.375644206604989, 4.980761051394438 ], [ 7.393306731605833, 4.982723235727633 ], [ 7.407044410939932, 4.988610743727918 ], [ 7.414403438940042, 4.993516922061417 ], [ 7.420185565868735, 5.002353668065609 ], [ 7.434028625274436, 5.010198593395842 ], [ 7.444331646274861, 5.015104770729351 ], [ 7.45610666327542, 5.019520282729502 ], [ 7.473769188276265, 5.029332638396511 ], [ 7.48848819727715, 5.037673473063762 ], [ 7.512528895611695, 5.044542312730812 ], [ 7.52283191661212, 5.048957824730905 ], [ 7.525102139154626, 5.050471305759288 ], [ 7.534115791278964, 5.048130989169124 ], [ 7.534151077302965, 5.044668197816293 ], [ 7.533027171539288, 5.042349815241096 ], [ 7.531323910382014, 5.04060506805564 ], [ 7.527913094064502, 5.037692070076389 ], [ 7.525625228510023, 5.037096976672046 ], [ 7.522722243537601, 5.036539078292947 ], [ 7.520499706027465, 5.036615372344784 ], [ 7.517972469310337, 5.037302016811338 ], [ 7.515445708593518, 5.038217545433383 ], [ 7.51227474243899, 5.036597252332513 ], [ 7.50967025766937, 5.034508704913435 ], [ 7.511932850206676, 5.030059813890603 ], [ 7.511973858234569, 5.026020050145803 ], [ 7.509726047707261, 5.021385192996604 ], [ 7.508607863947532, 5.018489838029382 ], [ 7.507490158188091, 5.015594959062412 ], [ 7.506365776424161, 5.013278008488157 ], [ 7.504658222263913, 5.012110232694738 ], [ 7.491909026601434, 5.007781028753243 ], [ 7.490524768660919, 5.006178855664643 ], [ 7.489138602719095, 5.003661632954277 ], [ 7.48775291377757, 5.001602172554954 ], [ 7.485214233052659, 4.998169422222588 ], [ 7.483599662955612, 4.996338366978478 ], [ 7.480381488769012, 4.996567249133989 ], [ 7.477856159053204, 4.997940540067077 ], [ 7.47463512386463, 4.997253894600533 ], [ 7.47114324649209, 4.995911120688163 ], [ 7.460275173107732, 4.977698803313785 ], [ 7.461451053906671, 4.974822998359798 ], [ 7.46319294009021, 4.972528933801073 ], [ 7.466083050053896, 4.970242977247892 ], [ 7.469545841406728, 4.967963218698912 ], [ 7.473587990153192, 4.965109824760134 ], [ 7.47704601250274, 4.963407039603169 ], [ 7.481081963244947, 4.961130142056163 ], [ 7.483953953196362, 4.960577010680311 ], [ 7.486248015755052, 4.960595130692639 ], [ 7.489113807702211, 4.960618018708146 ], [ 7.49141883926842, 4.959482192936434 ], [ 7.492043971693136, 4.954292774410476 ], [ 7.491506100327683, 4.950826168055073 ], [ 7.491546154354921, 4.946785927309918 ] ] ] ] } },
{ "type": "Feature", "properties": { "fid": 48.0, "OBJECTID": 48.0, "lganame": "Aba North", "statecode": "AB", "LGA_UID": "01_01" }, "geometry": { "type": "MultiPolygon", "coordinates": [ [ [ [ 7.385290623159278, 5.060147762333941 ], [ 7.385510445308626, 5.064759254467276 ], [ 7.386171817757997, 5.073688506534268 ], [ 7.38749456365673, 5.081956387151877 ], [ 7.38749456365673, 5.089563370320491 ], [ 7.386502742982827, 5.099153995836843 ], [ 7.384849071859264, 5.110729217701703 ], [ 7.382534027286283, 5.115359782847918 ], [ 7.376911640466119, 5.118997574319621 ], [ 7.369305134297861, 5.120320320218354 ], [ 7.363021374028335, 5.116351603521821 ], [ 7.35640668853398, 5.110729217701703 ], [ 7.349131106590562, 5.10378408398276 ], [ 7.344501019444635, 5.100477218735932 ], [ 7.334578990703108, 5.099153995836843 ], [ 7.32796478320904, 5.09948492106173 ], [ 7.3202033039355, 5.10292673140026 ], [ 7.332468987269465, 5.114701748400819 ], [ 7.343263148603569, 5.12107992173452 ], [ 7.351112842937084, 5.125495433734613 ], [ 7.357000350937369, 5.130892277401529 ], [ 7.361540318022037, 5.132310867365391 ], [ 7.36530828458217, 5.13410854258683 ], [ 7.369635581522402, 5.134541511881025 ], [ 7.382203102061453, 5.133549213206777 ], [ 7.388486862330979, 5.126935004712777 ], [ 7.392455578027523, 5.121312617892613 ], [ 7.3977470396228, 5.113044739274983 ], [ 7.401715755319344, 5.104776381657018 ], [ 7.402377128768762, 5.098162174162951 ], [ 7.402708053993592, 5.088571071646243 ], [ 7.400393009420611, 5.078979969129534 ], [ 7.39807796484763, 5.070712089511915 ], [ 7.392455578027523, 5.062774658118826 ], [ 7.385290623159278, 5.060147762333941 ] ] ] ] } },
{ "type": "Feature", "properties": { "fid": 51.0, "OBJECTID": 51.0, "lganame": "Bende", "statecode": "AB", "LGA_UID": "01_04" }, "geometry": { "type": "MultiPolygon", "coordinates": [ [ [ [ 7.683955193087797, 5.822346210212004 ], [ 7.704230308863771, 5.819192410069149 ], [ 7.713078975876044, 5.8180007932595 ], [ 7.714596271906942, 5.810415745105786 ], [ 7.714940548140873, 5.803184032192178 ], [ 7.71373510432187, 5.789064883598883 ], [ 7.713390827087949, 5.779766560281132 ], [ 7.709602832514179, 5.768057823325591 ], [ 7.709258556280247, 5.757382393072135 ], [ 7.705125809472236, 5.748428821988568 ], [ 7.700649261430613, 5.741541386308882 ], [ 7.692728519048842, 5.734998225863137 ], [ 7.683430671731401, 5.722256184205492 ], [ 7.674821376881823, 5.708826065080359 ], [ 7.664145469628011, 5.692640305082932 ], [ 7.656913756714403, 5.680243014659538 ], [ 7.656798362635982, 5.678161621245351 ], [ 7.656225204246596, 5.66784572623618 ], [ 7.661735057990256, 5.662680148726395 ], [ 7.669311047137796, 5.655103682578556 ], [ 7.676543236051714, 5.650282383302681 ], [ 7.679642200157332, 5.643394946623005 ], [ 7.6792979239234, 5.630309104731793 ], [ 7.673788071179729, 5.623076915817876 ], [ 7.664834499096173, 5.621355056647928 ], [ 7.656913756714403, 5.620666504180122 ], [ 7.648648739098746, 5.616878509606352 ], [ 7.639350890781259, 5.609646319692388 ], [ 7.634185314271519, 5.60138177907703 ], [ 7.636251449675342, 5.592772484227396 ], [ 7.641417027185128, 5.578652858633802 ], [ 7.647271156162731, 5.5703878400181 ], [ 7.652092457438584, 5.563500404338413 ], [ 7.661046027522104, 5.552824974084956 ], [ 7.669655323371728, 5.543527125767525 ], [ 7.676198482817483, 5.535606384385744 ], [ 7.682053088795385, 5.529752254408152 ], [ 7.691350937112873, 5.524586677898355 ], [ 7.695939064230288, 5.518277644611658 ], [ 7.694026946931103, 5.516333103290435 ], [ 7.69290399616807, 5.514016150716202 ], [ 7.69178009040445, 5.511697769140937 ], [ 7.691235065034107, 5.508808136177606 ], [ 7.690116882274367, 5.505912781210327 ], [ 7.691304207081089, 5.5018830304723 ], [ 7.693047047265281, 5.499588012912966 ], [ 7.694784164445593, 5.497869967745601 ], [ 7.697673798408971, 5.495584965193075 ], [ 7.69998979598256, 5.493295192637277 ], [ 7.702318191564586, 5.489850998297129 ], [ 7.704071998756206, 5.486402987954364 ], [ 7.704679966169294, 5.482944964604769 ], [ 7.70471477519294, 5.479482174251984 ], [ 7.703614235445173, 5.474855900108651 ], [ 7.703653812472055, 5.470816135363805 ], [ 7.703114986105959, 5.467349052008103 ], [ 7.703144073125713, 5.464464188047941 ], [ 7.70316600814067, 5.462154865478908 ], [ 7.703195095160424, 5.459269999518767 ], [ 7.702679156809836, 5.453494071594264 ], [ 7.701567173054286, 5.450022221235315 ], [ 7.701015948679753, 5.447709083663653 ], [ 7.699899196921024, 5.444815158697395 ], [ 7.699938773947906, 5.44077491795224 ], [ 7.700534821352846, 5.438470840386685 ], [ 7.700563908372658, 5.435585022425926 ], [ 7.700029850009798, 5.431540965678209 ], [ 7.697731018447826, 5.432099819057896 ], [ 7.69541501987419, 5.434390067614004 ], [ 7.693109989308027, 5.435524940385108 ], [ 7.691372871127783, 5.437242984552427 ], [ 7.689074038565821, 5.437800883931516 ], [ 7.685627937224353, 5.438351154305394 ], [ 7.682176112879006, 5.439476967070334 ], [ 7.678156853148096, 5.44002199244062 ], [ 7.675851821581944, 5.441156864211735 ], [ 7.674120903405878, 5.442296981986374 ], [ 7.671810149835835, 5.444009781150157 ], [ 7.669498920265426, 5.44572305731424 ], [ 7.66776180308517, 5.447441101481559 ], [ 7.663176059969373, 5.44740295445564 ], [ 7.660308838021194, 5.44738102044073 ], [ 7.656886100695601, 5.445621014244921 ], [ 7.655248164582702, 5.444222927294959 ], [ 7.653473854377182, 5.44270801526568 ], [ 7.651240825859929, 5.440418719710181 ], [ 7.64802885067752, 5.445036410847706 ], [ 7.642794609121097, 5.452474593901627 ], [ 7.63287639638213, 5.471208571630484 ], [ 7.628192902199942, 5.480299949807602 ], [ 7.625438213328266, 5.491595745482584 ], [ 7.623537540036864, 5.496211051618445 ], [ 7.619371414206171, 5.500503539535032 ], [ 7.606794356660657, 5.507577896341729 ], [ 7.605257033616112, 5.505528449949225 ], [ 7.594217777115432, 5.506711482753019 ], [ 7.57764720885649, 5.511944294308478 ], [ 7.580971241115037, 5.527317523753879 ], [ 7.579989910448262, 5.539583206087798 ], [ 7.581952094781457, 5.553320885421897 ], [ 7.579989910448262, 5.566567898422647 ], [ 7.571649074781078, 5.578833579756576 ], [ 7.550061703113442, 5.588645935423642 ], [ 7.527002335445729, 5.603364468424161 ], [ 7.514736652111765, 5.61268663375813 ], [ 7.502470969777789, 5.634764670759125 ], [ 7.49265861511077, 5.647521019426506 ], [ 7.479411602110019, 5.66812706042731 ], [ 7.475635051544032, 5.681345463408604 ], [ 7.473524094109735, 5.688733578428469 ], [ 7.466164589109326, 5.699527263762263 ], [ 7.48578977644371, 5.703452110429055 ], [ 7.508358478778064, 5.711302279762833 ], [ 7.528473854445508, 5.714246272763148 ], [ 7.545646191113349, 5.713264942096373 ], [ 7.560364723113878, 5.712774276763014 ], [ 7.564289569780613, 5.716208458096389 ], [ 7.564289569780613, 5.725039959096932 ], [ 7.568705558781062, 5.738777161430733 ], [ 7.569196224114478, 5.748589993098108 ], [ 7.568214893447703, 5.761345862765097 ], [ 7.564289569780613, 5.775083542099196 ], [ 7.558402060780338, 5.783915043099796 ], [ 7.551533699113634, 5.789311885766722 ], [ 7.549080372446667, 5.794218063100232 ], [ 7.548589706113319, 5.80157756810064 ], [ 7.545646191113349, 5.812371254434481 ], [ 7.546136379446409, 5.821692943768142 ], [ 7.549080372446667, 5.830524444768685 ], [ 7.551944733392872, 5.843462943559814 ], [ 7.566697598416795, 5.843938827883164 ], [ 7.570980549326862, 5.841083049942768 ], [ 7.584781169703717, 5.837275982356061 ], [ 7.597154617110903, 5.833944798092659 ], [ 7.604768753284304, 5.830613612829268 ], [ 7.61761808401485, 5.827282428565923 ], [ 7.631418705391695, 5.825854777595907 ], [ 7.657116889852432, 5.823951244302521 ], [ 7.683955193087797, 5.822346210212004 ] ] ] ] } },
{ "type": "Feature", "properties": { "fid": 63.0, "OBJECTID": 63.0, "lganame": "Osisioma Ngwa", "statecode": "AB", "LGA_UID": "01_11" }, "geometry": { "type": "MultiPolygon", "coordinates": [ [ [ [ 7.384800433826172, 5.200843810930337 ], [ 7.385456562271997, 5.193201541737722 ], [ 7.383985043272162, 5.185842513737612 ], [ 7.382513046272038, 5.180445671070743 ], [ 7.376625538271753, 5.177011012737069 ], [ 7.372210026271603, 5.174067496737052 ], [ 7.365831851937912, 5.167689323403408 ], [ 7.366813182604687, 5.157385826402674 ], [ 7.364359855937778, 5.146101474735474 ], [ 7.366231918209735, 5.13627243005709 ], [ 7.36530828458217, 5.13410854258683 ], [ 7.361540318022037, 5.132310867365391 ], [ 7.357000350937369, 5.130892277401529 ], [ 7.351112842937084, 5.125495433734613 ], [ 7.343263148603569, 5.12107992173452 ], [ 7.332468987269465, 5.114701748400819 ], [ 7.3202033039355, 5.10292673140026 ], [ 7.317869186349583, 5.099694729204259 ], [ 7.313825606602165, 5.09409523039966 ], [ 7.311372279935199, 5.085754870732785 ], [ 7.308918953268289, 5.080358028065859 ], [ 7.30668115574781, 5.077480316110609 ], [ 7.298615932267865, 5.07299852406544 ], [ 7.295181750934489, 5.076923369732185 ], [ 7.290766238934395, 5.089679718399509 ], [ 7.284878730934111, 5.09851074239981 ], [ 7.276047229933511, 5.101945399733495 ], [ 7.271354197744813, 5.103509902796475 ], [ 7.278698920735224, 5.116788863818897 ], [ 7.278979300925698, 5.119540690688666 ], [ 7.28021812376744, 5.131694793946792 ], [ 7.287724971867988, 5.147019863359446 ], [ 7.291069031140125, 5.160048008211504 ], [ 7.292564869156479, 5.172623157755709 ], [ 7.290813922966777, 5.18242692941692 ], [ 7.286756992210314, 5.19178295077387 ], [ 7.281322001517481, 5.201615810454825 ], [ 7.274950027188027, 5.209591865874188 ], [ 7.263917445691902, 5.215610503963603 ], [ 7.264590740149345, 5.219205379406105 ], [ 7.26525497360069, 5.222081661360448 ], [ 7.266242504271645, 5.226107597095847 ], [ 7.266306400315045, 5.228129387469551 ], [ 7.266388416370773, 5.230728626235646 ], [ 7.266766547627697, 5.233611107194122 ], [ 7.266848563683425, 5.236210345960217 ], [ 7.266949653752135, 5.239419460140653 ], [ 7.27850055660042, 5.234414100739741 ], [ 7.29469108560113, 5.234414100739741 ], [ 7.30143785518527, 5.238306522384448 ], [ 7.307447433268464, 5.24177360474016 ], [ 7.326090812935774, 5.261398792074601 ], [ 7.33884715960312, 5.274645329074986 ], [ 7.350622176603679, 5.293779850075964 ], [ 7.365831851937912, 5.308498859076849 ], [ 7.374662875938213, 5.311442375076865 ], [ 7.383494376938813, 5.307517529410063 ], [ 7.387909888938907, 5.295742512409504 ], [ 7.388891219605682, 5.28102350240863 ], [ 7.388400555272312, 5.272192478408385 ], [ 7.388400555272312, 5.261398792074601 ], [ 7.388891219605682, 5.252567291074001 ], [ 7.386437892938773, 5.239320278073251 ], [ 7.383494376938813, 5.224601746072722 ], [ 7.383494376938813, 5.208411217072012 ], [ 7.384800433826172, 5.200843810930337 ] ] ] ] } },
{ "type": "Feature", "properties": { "fid": 228.0, "OBJECTID": 228.0, "lganame": "Ohafia", "statecode": "AB", "LGA_UID": "01_10" }, "geometry": { "type": "MultiPolygon", "coordinates": [ [ [ [ 7.890100002153531, 5.684799670755581 ], [ 7.893288612320021, 5.682270527037133 ], [ 7.897024154858116, 5.677111148531594 ], [ 7.901621818982051, 5.670236110860344 ], [ 7.906208992098811, 5.665658950750355 ], [ 7.910796165215572, 5.661083220641387 ], [ 7.915388107335559, 5.655356883750585 ], [ 7.91769695290435, 5.649620055852665 ], [ 7.91658687615012, 5.642717838162923 ], [ 7.914336204620895, 5.635811806470599 ], [ 7.914361953638377, 5.630064010565263 ], [ 7.914371966645149, 5.627766132003956 ], [ 7.913272857898392, 5.618565082752298 ], [ 7.913289069909411, 5.615117073409522 ], [ 7.912174225151887, 5.609364985501259 ], [ 7.911064148397656, 5.602462768811506 ], [ 7.909954070643437, 5.595561981122785 ], [ 7.909989833667737, 5.587515830655775 ], [ 7.907749176145273, 5.578310013400881 ], [ 7.906092167019438, 5.570636749187258 ], [ 7.904579162991411, 5.568675517854672 ], [ 7.899524211556809, 5.562123299402742 ], [ 7.895391940749107, 5.551447392148987 ], [ 7.88678264589953, 5.545937538405269 ], [ 7.874385357476172, 5.543871403001447 ], [ 7.856822013542683, 5.539738655193446 ], [ 7.842014313481513, 5.532506943279827 ], [ 7.82410669331415, 5.519765376622502 ], [ 7.814119815528557, 5.510467052304762 ], [ 7.808265685550907, 5.507023334964913 ], [ 7.805510520678922, 5.510467052304762 ], [ 7.803100109041168, 5.522520065494234 ], [ 7.803788661509031, 5.535262108151812 ], [ 7.801033973637345, 5.548003673809148 ], [ 7.795523642893329, 5.558334826828627 ], [ 7.791047095851695, 5.575209141293954 ], [ 7.788980484447563, 5.583818436143588 ], [ 7.783814906937778, 5.595182895865207 ], [ 7.779338359896201, 5.608957767224581 ], [ 7.772795200450389, 5.624798774987767 ], [ 7.768318176408457, 5.63478565177337 ], [ 7.764185904600822, 5.644083977091157 ], [ 7.759364605324947, 5.655103682578556 ], [ 7.755232333517256, 5.664746284130217 ], [ 7.749377727539354, 5.672666549511689 ], [ 7.737324715349871, 5.678865432723512 ], [ 7.72010612465067, 5.682653427297282 ], [ 7.709774970631145, 5.682997703531214 ], [ 7.70116567578151, 5.677143573553622 ], [ 7.688423634123865, 5.671289443576029 ], [ 7.676026343700528, 5.669911860640013 ], [ 7.664317607744977, 5.672666549511689 ], [ 7.656798362635982, 5.678161621245351 ], [ 7.656913756714403, 5.680243014659538 ], [ 7.664145469628011, 5.692640305082932 ], [ 7.674821376881823, 5.708826065080359 ], [ 7.683430671731401, 5.722256184205492 ], [ 7.692728519048842, 5.734998225863137 ], [ 7.700649261430613, 5.741541386308882 ], [ 7.705125809472236, 5.748428821988568 ], [ 7.709258556280247, 5.757382393072135 ], [ 7.709602832514179, 5.768057823325591 ], [ 7.713390827087949, 5.779766560281132 ], [ 7.71373510432187, 5.789064883598883 ], [ 7.714940548140873, 5.803184032192178 ], [ 7.714596271906942, 5.810415745105786 ], [ 7.713078975876044, 5.8180007932595 ], [ 7.728976726677786, 5.815860747805402 ], [ 7.756578445431899, 5.813005446865361 ], [ 7.764192580605311, 5.813957213512026 ], [ 7.780373095599202, 5.806818961661975 ], [ 7.78632163964096, 5.804915428368588 ], [ 7.792984009167753, 5.791590691315037 ], [ 7.793935775814418, 5.777313708614486 ], [ 7.796791076754459, 5.761609076943955 ], [ 7.803929805604923, 5.744953155627059 ], [ 7.815351009365088, 5.735910892483219 ], [ 7.820585727921809, 5.727820872986456 ], [ 7.830579757712314, 5.723062037753039 ], [ 7.840573310502464, 5.7106885913459 ], [ 7.861988544053077, 5.697363853292359 ], [ 7.8705544468732, 5.693556785705596 ], [ 7.886259078543787, 5.687846183825513 ], [ 7.890100002153531, 5.684799670755581 ] ] ] ] } },
{ "type": "Feature", "properties": { "fid": 250.0, "OBJECTID": 250.0, "lganame": "Isiala-Ngwa North", "statecode": "AB", "LGA_UID": "01_06" }, "geometry": { "type": "MultiPolygon", "coordinates": [ [ [ [ 7.502546309828972, 5.297855853845419 ], [ 7.496337890610675, 5.285439491409079 ], [ 7.495357036944199, 5.275135994408345 ], [ 7.491952895631243, 5.258603096175023 ], [ 7.486580848981191, 5.252425193977444 ], [ 7.45994663188452, 5.221225261778557 ], [ 7.446587562807622, 5.215139388643479 ], [ 7.441388130274902, 5.209392547738787 ], [ 7.431085110274466, 5.203995705071861 ], [ 7.424706935940776, 5.199089049738006 ], [ 7.407712936394148, 5.19781446487201 ], [ 7.405081748606392, 5.197617530738228 ], [ 7.384800433826172, 5.200843810930337 ], [ 7.383494376938813, 5.208411217072012 ], [ 7.383494376938813, 5.224601746072722 ], [ 7.386437892938773, 5.239320278073251 ], [ 7.388891219605682, 5.252567291074001 ], [ 7.388400555272312, 5.261398792074601 ], [ 7.388400555272312, 5.272192478408385 ], [ 7.388891219605682, 5.28102350240863 ], [ 7.387909888938907, 5.295742512409504 ], [ 7.383494376938813, 5.307517529410063 ], [ 7.374662875938213, 5.311442375076865 ], [ 7.365831851937912, 5.308498859076849 ], [ 7.350622176603679, 5.293779850075964 ], [ 7.33884715960312, 5.274645329074986 ], [ 7.326090812935774, 5.261398792074601 ], [ 7.307447433268464, 5.24177360474016 ], [ 7.30143785518527, 5.238306522384448 ], [ 7.29469108560113, 5.234414100739741 ], [ 7.27850055660042, 5.234414100739741 ], [ 7.266949653752135, 5.239419460140653 ], [ 7.267606735198569, 5.242113589971211 ], [ 7.269765853665604, 5.246843338184817 ], [ 7.27156782188996, 5.249406814926601 ], [ 7.273684025327839, 5.252830982253158 ], [ 7.276068210947756, 5.255671501183144 ], [ 7.276797295443146, 5.260026455142111 ], [ 7.277812004132613, 5.272914409898874 ], [ 7.278711795743959, 5.27606582604011 ], [ 7.279310226150585, 5.278070927402496 ], [ 7.280786991153946, 5.281504630735526 ], [ 7.28227472316479, 5.28579997965403 ], [ 7.283740997161033, 5.288372993402277 ], [ 7.284923552964528, 5.291235447347162 ], [ 7.286687374162966, 5.29466724367893 ], [ 7.287859439959334, 5.296668530038687 ], [ 7.289038657760557, 5.299243449788264 ], [ 7.290210723556925, 5.301244736148021 ], [ 7.291099548160844, 5.303534984704129 ], [ 7.291723727584952, 5.307549000431493 ], [ 7.292039393799428, 5.309843062990183 ], [ 7.292351246011322, 5.311850071353831 ], [ 7.291588783493239, 5.319604873622893 ], [ 7.291628837520477, 5.32276201176802 ], [ 7.291661262542505, 5.325345038523039 ], [ 7.292263507951702, 5.327637196080445 ], [ 7.293152808555931, 5.329926967636254 ], [ 7.294328213354561, 5.332215309191042 ], [ 7.296073913540681, 5.33421230254794 ], [ 7.297532557531781, 5.336211680906388 ], [ 7.298704624328138, 5.338212490265846 ], [ 7.299880028126779, 5.340500831820691 ], [ 7.301066398932846, 5.343649863960309 ], [ 7.301665306339771, 5.345654964322705 ], [ 7.303522109601374, 5.348239422078677 ], [ 7.32216596626904, 5.344805240745359 ], [ 7.347678660603719, 5.344314575411943 ], [ 7.364850521271194, 5.345295429078419 ], [ 7.372210026271603, 5.349220752745453 ], [ 7.380795956105317, 5.350692271745288 ], [ 7.387664317772078, 5.353145599412244 ], [ 7.400911330772772, 5.353145599412244 ], [ 7.411214351773197, 5.353636264745603 ], [ 7.420045852773796, 5.357561111412338 ], [ 7.440651893774657, 5.358051776745754 ], [ 7.464692593109191, 5.359033108412518 ], [ 7.48578977644371, 5.357561111412338 ], [ 7.496754168893517, 5.354903220606445 ], [ 7.50198030544442, 5.353636264745603 ], [ 7.50688648177794, 5.346276759745137 ], [ 7.503942965777924, 5.333520412077803 ], [ 7.499526977777464, 5.324689388077559 ], [ 7.497192860191547, 5.311550617150374 ], [ 7.498055457777639, 5.301630020409789 ], [ 7.502546309828972, 5.297855853845419 ] ] ] ] } },
{ "type": "Feature", "properties": { "fid": 310.0, "OBJECTID": 310.0, "lganame": "Umuahia South", "statecode": "AB", "LGA_UID": "01_16" }, "geometry": { "type": "MultiPolygon", "coordinates": [ [ [ [ 7.542587280034923, 5.503124714315959 ], [ 7.534852027779209, 5.482670784418474 ], [ 7.530927181112474, 5.460592747417479 ], [ 7.52503967311219, 5.447836398750155 ], [ 7.515809535840731, 5.438166618179991 ], [ 7.507867813444705, 5.434589385749462 ], [ 7.495111464777381, 5.442930222416635 ], [ 7.477939606109885, 5.451761246416936 ], [ 7.455370902775542, 5.456667422750456 ], [ 7.433783531107906, 5.45813941975058 ], [ 7.421517848773931, 5.459611415750715 ], [ 7.414158343773522, 5.461574078084254 ], [ 7.403364658439727, 5.461574078084254 ], [ 7.391589642439158, 5.463536263417495 ], [ 7.382758141438558, 5.468933105084375 ], [ 7.373539925175237, 5.475182533330553 ], [ 7.374995232163997, 5.476894855494038 ], [ 7.376170634962648, 5.479182720048527 ], [ 7.377647399966065, 5.482616901381903 ], [ 7.378540038572567, 5.485194206133031 ], [ 7.379142283981764, 5.487485885690148 ], [ 7.379763126403589, 5.491213322222734 ], [ 7.381228924399522, 5.493786334970991 ], [ 7.382408142200745, 5.496361255720501 ], [ 7.383598328009441, 5.499797344055196 ], [ 7.38476657880318, 5.501511574219933 ], [ 7.385655880407455, 5.50380182277604 ], [ 7.387132645410816, 5.507236004109416 ], [ 7.388032436022172, 5.510386944250342 ], [ 7.390909671977113, 5.511228084821823 ], [ 7.392644405155806, 5.512364387593891 ], [ 7.393820285954746, 5.51465225214838 ], [ 7.396153449540066, 5.517793655282844 ], [ 7.398192405925386, 5.520362854028463 ], [ 7.400220871303645, 5.522070885189009 ], [ 7.401679516294735, 5.524070262547468 ], [ 7.402851582091103, 5.526071071906927 ], [ 7.404317856087346, 5.52864456165554 ], [ 7.406669139684936, 5.533220767764817 ], [ 7.407274723096407, 5.535799502516966 ], [ 7.40758705130861, 5.537806510880614 ], [ 7.408795357129634, 5.542677879190478 ], [ 7.40853357295174, 5.544688701556765 ], [ 7.407996654586952, 5.547562598509444 ], [ 7.408312320801429, 5.549856663068113 ], [ 7.409498691607496, 5.553005695207787 ], [ 7.411530971988327, 5.555001258563664 ], [ 7.414143561763467, 5.557566166306401 ], [ 7.415888785949278, 5.559563636663597 ], [ 7.417355060945511, 5.562136650411787 ], [ 7.424952030107306, 5.560189724088957 ], [ 7.439180373774832, 5.561661720089148 ], [ 7.447030067108301, 5.562642573755568 ], [ 7.456352234442306, 5.557736397422048 ], [ 7.45880508410886, 5.549396037755173 ], [ 7.457333565109025, 5.539092540754439 ], [ 7.458314418775501, 5.521920681086954 ], [ 7.468127251442866, 5.517995834420219 ], [ 7.484317780443575, 5.512598990753304 ], [ 7.50001764311088, 5.509164333419619 ], [ 7.515227318445113, 5.505239486752885 ], [ 7.532399178112598, 5.505239486752885 ], [ 7.542587280034923, 5.503124714315959 ] ] ] ] } },
{ "type": "Feature", "properties": { "fid": 311.0, "OBJECTID": 311.0, "lganame": "Umuahia North", "statecode": "AB", "LGA_UID": "01_15" }, "geometry": { "type": "MultiPolygon", "coordinates": [ [ [ [ 7.466164589109326, 5.699527263762263 ], [ 7.473524094109735, 5.688733578428469 ], [ 7.475635051544032, 5.681345463408604 ], [ 7.479411602110019, 5.66812706042731 ], [ 7.49265861511077, 5.647521019426506 ], [ 7.502470969777789, 5.634764670759125 ], [ 7.514736652111765, 5.61268663375813 ], [ 7.527002335445729, 5.603364468424161 ], [ 7.550061703113442, 5.588645935423642 ], [ 7.571649074781078, 5.578833579756576 ], [ 7.579989910448262, 5.566567898422647 ], [ 7.581952094781457, 5.553320885421897 ], [ 7.579989910448262, 5.539583206087798 ], [ 7.580971241115037, 5.527317523753879 ], [ 7.57764720885649, 5.511944294308478 ], [ 7.575573921447813, 5.512598990753304 ], [ 7.561346053780653, 5.512108326419934 ], [ 7.552023888446683, 5.509164333419619 ], [ 7.542587280034923, 5.503124714315959 ], [ 7.532399178112598, 5.505239486752885 ], [ 7.515227318445113, 5.505239486752885 ], [ 7.50001764311088, 5.509164333419619 ], [ 7.484317780443575, 5.512598990753304 ], [ 7.468127251442866, 5.517995834420219 ], [ 7.458314418775501, 5.521920681086954 ], [ 7.457333565109025, 5.539092540754439 ], [ 7.45880508410886, 5.549396037755173 ], [ 7.456352234442306, 5.557736397422048 ], [ 7.447030067108301, 5.562642573755568 ], [ 7.439180373774832, 5.561661720089148 ], [ 7.424952030107306, 5.560189724088957 ], [ 7.417355060945511, 5.562136650411787 ], [ 7.417093276767673, 5.564147471778085 ], [ 7.41627311721038, 5.567310332927093 ], [ 7.415173531463267, 5.571049690467817 ], [ 7.414919853290939, 5.573634624224155 ], [ 7.41523504250506, 5.575928687782834 ], [ 7.417270659888175, 5.578210831333479 ], [ 7.419865607651332, 5.5793409351013 ], [ 7.422467232419024, 5.581045151259275 ], [ 7.422786235635783, 5.583626270012985 ], [ 7.42596530879581, 5.585613251363043 ], [ 7.426280975010286, 5.587907313921789 ], [ 7.426621914241935, 5.592210769845792 ], [ 7.427235125658569, 5.595363616987981 ], [ 7.427851677077513, 5.598803520325248 ], [ 7.428457737489282, 5.601382732077695 ], [ 7.429063796901062, 5.603961944830132 ], [ 7.430239200699702, 5.606249809384622 ], [ 7.43228578609029, 5.609393119520348 ], [ 7.429513454206585, 5.616874694603723 ], [ 7.428983211846344, 5.620322703946499 ], [ 7.428460598491199, 5.624344825679373 ], [ 7.427633285929119, 5.626933575438272 ], [ 7.426508427164833, 5.628663539613683 ], [ 7.42568445160498, 5.631539821568026 ], [ 7.422574520491935, 5.635005473922774 ], [ 7.421467780739931, 5.638170242073045 ], [ 7.42063283917264, 5.640185356442259 ], [ 7.419798373605659, 5.642199992811072 ], [ 7.418691634853701, 5.645364760961399 ], [ 7.417584419101388, 5.648530006112026 ], [ 7.417903900318436, 5.651111125865782 ], [ 7.41793298733819, 5.65340709742577 ], [ 7.417678833165496, 5.655992031182109 ], [ 7.416575432415812, 5.659443854527467 ], [ 7.416314125238273, 5.661454677893744 ], [ 7.415196419478832, 5.663758755459241 ], [ 7.413795470526964, 5.66635179522109 ], [ 7.412394999575383, 5.668944358982628 ], [ 7.41099405262355, 5.671537398744476 ], [ 7.410162926058831, 5.673839092308356 ], [ 7.408195971722364, 5.677010059462873 ], [ 7.405075072601846, 5.679615021232848 ], [ 7.402800083056093, 5.681065559218439 ], [ 7.400804042699917, 5.681940555812957 ], [ 7.39825296396657, 5.684254169384928 ], [ 7.39569854723095, 5.686281203762178 ], [ 7.393147469497592, 5.688594818334195 ], [ 7.39144182233872, 5.689754486122126 ], [ 7.389743328184636, 5.691488743300511 ], [ 7.387203217458762, 5.694663525457599 ], [ 7.385791779499755, 5.69639539663433 ], [ 7.384001255283181, 5.698827744286973 ], [ 7.382978915588581, 5.700719832572588 ], [ 7.382155418029015, 5.703596114526874 ], [ 7.381607532656744, 5.705608844894414 ], [ 7.383066176647844, 5.707608223252919 ], [ 7.386509894987682, 5.707871437431777 ], [ 7.389659405127645, 5.70756244722179 ], [ 7.391956328688309, 5.707833767406157 ], [ 7.393963337051957, 5.707819939396757 ], [ 7.396841049007207, 5.708661078968305 ], [ 7.399729251969632, 5.710363388124904 ], [ 7.400300980358111, 5.712711810720577 ], [ 7.402873993106311, 5.711792946096239 ], [ 7.411214351773197, 5.708358764762863 ], [ 7.422499180440695, 5.705414771762548 ], [ 7.439180373774832, 5.701489925095814 ], [ 7.448502064108482, 5.703452110429055 ], [ 7.466164589109326, 5.699527263762263 ] ] ] ] } },
{ "type": "Feature", "properties": { "fid": 334.0, "OBJECTID": 334.0, "lganame": "Ukwa West", "statecode": "AB", "LGA_UID": "01_14" }, "geometry": { "type": "MultiPolygon", "coordinates": [ [ [ [ 7.298615932267865, 5.07299852406544 ], [ 7.29665374793467, 5.06662034973175 ], [ 7.298615932267865, 5.05484533273119 ], [ 7.300087929268045, 5.04601383173059 ], [ 7.30155992526818, 5.034729481063437 ], [ 7.300087929268045, 5.026389122396552 ], [ 7.295181750934489, 5.010688781728902 ], [ 7.29223775893422, 5.004311085395557 ], [ 7.290766238934395, 4.994498252728192 ], [ 7.291747092600815, 4.985176563394532 ], [ 7.29665374793467, 4.977326393060707 ], [ 7.30106925993482, 4.972420215727198 ], [ 7.30793809860188, 4.970457554393704 ], [ 7.310042381031622, 4.970205307222272 ], [ 7.310390949268424, 4.961135864059997 ], [ 7.314806461268574, 4.946907520392529 ], [ 7.321675300935624, 4.933660984392134 ], [ 7.32707214360255, 4.925320147724904 ], [ 7.329525471269449, 4.919432639724619 ], [ 7.330016135602818, 4.90912961972424 ], [ 7.328053474269325, 4.898826598723815 ], [ 7.3290348049361, 4.886560917389829 ], [ 7.328053474269325, 4.880673409389544 ], [ 7.326064586917937, 4.876126766300331 ], [ 7.319794177657514, 4.879632949682616 ], [ 7.307785988498495, 4.875533103896998 ], [ 7.294890880736887, 4.87516879964943 ], [ 7.281527995657427, 4.873876094771106 ], [ 7.271389960769113, 4.873023987192141 ], [ 7.257046223023224, 4.865211963884235 ], [ 7.240856171022813, 4.856948853269841 ], [ 7.230735779146528, 4.857962131958345 ], [ 7.215075015505761, 4.857152939408536 ], [ 7.205420016945652, 4.858627796410588 ], [ 7.191195965281054, 4.863869189971865 ], [ 7.185287952266833, 4.872307776705497 ], [ 7.173842907490496, 4.879391192518369 ], [ 7.164652824246218, 4.881329059835025 ], [ 7.15592813531822, 4.883728981465708 ], [ 7.147241116415785, 4.890325068947391 ], [ 7.143746853041591, 4.895613193540441 ], [ 7.140429019787291, 4.900634765952361 ], [ 7.143767834055893, 4.913196087487222 ], [ 7.150316237505194, 4.924333096054283 ], [ 7.159626006830763, 4.935448169606445 ], [ 7.168517112871825, 4.944752215928133 ], [ 7.181393146620508, 4.949262141992392 ], [ 7.199394225851393, 4.954246998379347 ], [ 7.209084034435136, 4.956501006910855 ], [ 7.217877865410173, 4.961559772348039 ], [ 7.228350162525601, 4.970958232733835 ], [ 7.235092163106458, 4.981004237559659 ], [ 7.241197109254472, 4.994009018395786 ], [ 7.245464802154174, 5.007494925558831 ], [ 7.248316765091943, 5.017261982195066 ], [ 7.251686096381263, 5.0330867769473 ], [ 7.251376152170678, 5.049406052035465 ], [ 7.252893925201931, 5.064311981163371 ], [ 7.255775928160119, 5.077342987017289 ], [ 7.256930827944814, 5.079692363613617 ], [ 7.264222144898895, 5.094525813692201 ], [ 7.271354197744813, 5.103509902796475 ], [ 7.276047229933511, 5.101945399733495 ], [ 7.284878730934111, 5.09851074239981 ], [ 7.290766238934395, 5.089679718399509 ], [ 7.295181750934489, 5.076923369732185 ], [ 7.298615932267865, 5.07299852406544 ] ] ] ] } },
{ "type": "Feature", "properties": { "fid": 347.0, "OBJECTID": 347.0, "lganame": "Ugwunagbo", "statecode": "AB", "LGA_UID": "01_12" }, "geometry": { "type": "MultiPolygon", "coordinates": [ [ [ [ 7.385290623159278, 5.060147762333941 ], [ 7.385179520083796, 5.057813643748034 ], [ 7.384849071859264, 5.049545765130404 ], [ 7.386833191207359, 5.040285586838536 ], [ 7.38947916000518, 5.036647797366811 ], [ 7.397416592398258, 5.033340454119639 ], [ 7.406345844465307, 5.029702662647935 ], [ 7.410645485386681, 5.024410725052348 ], [ 7.416267395206546, 5.016473769659513 ], [ 7.418582438779481, 5.012505053962968 ], [ 7.420185565868735, 5.002353668065609 ], [ 7.414403438940042, 4.993516922061417 ], [ 7.407044410939932, 4.988610743727918 ], [ 7.393306731605833, 4.982723235727633 ], [ 7.375644206604989, 4.980761051394438 ], [ 7.368284701604523, 4.977326393060707 ], [ 7.354056834937353, 4.974873543394153 ], [ 7.344244003270035, 4.973892211727389 ], [ 7.334431647602969, 4.971929550393838 ], [ 7.3202033039355, 4.968986034393822 ], [ 7.310042381031622, 4.970205307222272 ], [ 7.30793809860188, 4.970457554393704 ], [ 7.30106925993482, 4.972420215727198 ], [ 7.29665374793467, 4.977326393060707 ], [ 7.291747092600815, 4.985176563394532 ], [ 7.290766238934395, 4.994498252728192 ], [ 7.29223775893422, 5.004311085395557 ], [ 7.295181750934489, 5.010688781728902 ], [ 7.300087929268045, 5.026389122396552 ], [ 7.30155992526818, 5.034729481063437 ], [ 7.300087929268045, 5.04601383173059 ], [ 7.298615932267865, 5.05484533273119 ], [ 7.29665374793467, 5.06662034973175 ], [ 7.298615932267865, 5.07299852406544 ], [ 7.30668115574781, 5.077480316110609 ], [ 7.30712938305237, 5.074680805208459 ], [ 7.30712938305237, 5.069058418388352 ], [ 7.308782578175624, 5.062444209894295 ], [ 7.314074515771267, 5.055168151950568 ], [ 7.325318813411229, 5.053183555602118 ], [ 7.337224959500873, 5.052191733928225 ], [ 7.349461554815093, 5.052191733928225 ], [ 7.361036776679896, 5.055498600175042 ], [ 7.367981911398829, 5.055498600175042 ], [ 7.376250267016758, 5.057483195523503 ], [ 7.382534027286283, 5.059136867647112 ], [ 7.385290623159278, 5.060147762333941 ] ] ] ] } },
{ "type": "Feature", "properties": { "fid": 349.0, "OBJECTID": 349.0, "lganame": "Obi Nwga", "statecode": "AB", "LGA_UID": "01_09" }, "geometry": { "type": "MultiPolygon", "coordinates": [ [ [ [ 7.535016059890665, 5.303812980893042 ], [ 7.534471034520323, 5.300922870929355 ], [ 7.53563499531117, 5.299201011759408 ], [ 7.538529873278151, 5.296339034814821 ], [ 7.540278912466533, 5.293467044863462 ], [ 7.54316902243022, 5.29118204131089 ], [ 7.545491219008056, 5.288314819362768 ], [ 7.547227859188013, 5.286598206196402 ], [ 7.549555778769729, 5.283154010856208 ], [ 7.551299094954231, 5.280858994296864 ], [ 7.551895142359172, 5.278554915731377 ], [ 7.553071022158178, 5.275679110777389 ], [ 7.553099155177279, 5.272792815816274 ], [ 7.551987171421729, 5.269320965457325 ], [ 7.549722194882804, 5.266417980484903 ], [ 7.548030852733575, 5.263517856514397 ], [ 7.54576587719464, 5.260613917541264 ], [ 7.543496131652489, 5.258286952960248 ], [ 7.542372226888801, 5.255970001385947 ], [ 7.541839122526596, 5.251924991637566 ], [ 7.541872977549588, 5.248463154285389 ], [ 7.541902064569399, 5.245576859324331 ], [ 7.541930198588489, 5.242691994364179 ], [ 7.541390896222083, 5.239223957007823 ], [ 7.541413784237591, 5.236916065439686 ], [ 7.54202794965488, 5.232881068698134 ], [ 7.541489124288773, 5.229413986342422 ], [ 7.541518211308585, 5.226528168381606 ], [ 7.541552067331565, 5.223065853029141 ], [ 7.541029929976787, 5.217866898496709 ], [ 7.540509223623019, 5.212667941964241 ], [ 7.54054307864601, 5.209206103612075 ], [ 7.540572165665765, 5.206319808651017 ], [ 7.540032864299349, 5.202853203295604 ], [ 7.54007291832653, 5.198812961550459 ], [ 7.539523124953007, 5.196500777979395 ], [ 7.540123940361241, 5.193620205022228 ], [ 7.539574145987672, 5.191307068450556 ], [ 7.539041041625467, 5.187263011702782 ], [ 7.533421992807575, 5.175673961828579 ], [ 7.528978824788624, 5.161210060001054 ], [ 7.527884007044747, 5.15600585946504 ], [ 7.529047011834962, 5.154284000295092 ], [ 7.530807018030828, 5.150259017560302 ], [ 7.531414986443906, 5.146800995210754 ], [ 7.532590866242856, 5.143924236256112 ], [ 7.533771992045388, 5.1404709819098 ], [ 7.533233165679235, 5.137003898554099 ], [ 7.533285140714554, 5.131810188025213 ], [ 7.533312797733345, 5.128923893064098 ], [ 7.53393316315487, 5.124311923930463 ], [ 7.533967018177862, 5.120850085578354 ], [ 7.53344488082314, 5.115651131045865 ], [ 7.534063816243645, 5.111039161912288 ], [ 7.534660815649261, 5.10873508534678 ], [ 7.536415099841236, 5.105287075004014 ], [ 7.538169861033509, 5.101838111660584 ], [ 7.539913177218011, 5.099544048101905 ], [ 7.54107713700887, 5.097821235931292 ], [ 7.542825222196598, 5.094950198980598 ], [ 7.544569016381445, 5.092655182421197 ], [ 7.546310901564993, 5.090361117862528 ], [ 7.546906947969944, 5.08805704129702 ], [ 7.545794964214394, 5.084585189938025 ], [ 7.544672012451429, 5.082266808362817 ], [ 7.542996883313265, 5.077637196217211 ], [ 7.541884898557726, 5.074164866857927 ], [ 7.541335106184135, 5.071852207286554 ], [ 7.540215969423741, 5.068956852319332 ], [ 7.537951945885425, 5.066052914346244 ], [ 7.535682201343263, 5.063725947765192 ], [ 7.532269955024788, 5.060812949785941 ], [ 7.529426098092529, 5.058481216201642 ], [ 7.5259981157634, 5.057299137398445 ], [ 7.524289130602199, 5.056130885604659 ], [ 7.520287036882962, 5.054944991798948 ], [ 7.518901824941793, 5.053178786598892 ], [ 7.525102139154626, 5.050471305759288 ], [ 7.52283191661212, 5.048957824730905 ], [ 7.512528895611695, 5.044542312730812 ], [ 7.48848819727715, 5.037673473063762 ], [ 7.473769188276265, 5.029332638396511 ], [ 7.45610666327542, 5.019520282729502 ], [ 7.444331646274861, 5.015104770729351 ], [ 7.434028625274436, 5.010198593395842 ], [ 7.420185565868735, 5.002353668065609 ], [ 7.418582438779481, 5.012505053962968 ], [ 7.416267395206546, 5.016473769659513 ], [ 7.410645485386681, 5.024410725052348 ], [ 7.406345844465307, 5.029702662647935 ], [ 7.397416592398258, 5.033340454119639 ], [ 7.38947916000518, 5.036647797366811 ], [ 7.386833191207359, 5.040285586838536 ], [ 7.384849071859264, 5.049545765130404 ], [ 7.385179520083796, 5.057813643748034 ], [ 7.385290623159278, 5.060147762333941 ], [ 7.392455578027523, 5.062774658118826 ], [ 7.39807796484763, 5.070712089511915 ], [ 7.400393009420611, 5.078979969129534 ], [ 7.402708053993592, 5.088571071646243 ], [ 7.402377128768762, 5.098162174162951 ], [ 7.401715755319344, 5.104776381657018 ], [ 7.3977470396228, 5.113044739274983 ], [ 7.392455578027523, 5.121312617892613 ], [ 7.388486862330979, 5.126935004712777 ], [ 7.382203102061453, 5.133549213206777 ], [ 7.369635581522402, 5.134541511881025 ], [ 7.36530828458217, 5.13410854258683 ], [ 7.366231918209735, 5.13627243005709 ], [ 7.364359855937778, 5.146101474735474 ], [ 7.366813182604687, 5.157385826402674 ], [ 7.365831851937912, 5.167689323403408 ], [ 7.372210026271603, 5.174067496737052 ], [ 7.376625538271753, 5.177011012737069 ], [ 7.382513046272038, 5.180445671070743 ], [ 7.383985043272162, 5.185842513737612 ], [ 7.385456562271997, 5.193201541737722 ], [ 7.384800433826172, 5.200843810930337 ], [ 7.405081748606392, 5.197617530738228 ], [ 7.407712936394148, 5.19781446487201 ], [ 7.424706935940776, 5.199089049738006 ], [ 7.431085110274466, 5.203995705071861 ], [ 7.441388130274902, 5.209392547738787 ], [ 7.446587562807622, 5.215139388643479 ], [ 7.45994663188452, 5.221225261778557 ], [ 7.486580848981191, 5.252425193977444 ], [ 7.491952895631243, 5.258603096175023 ], [ 7.495357036944199, 5.275135994408345 ], [ 7.496337890610675, 5.285439491409079 ], [ 7.502546309828972, 5.297855853845419 ], [ 7.509339809444839, 5.299667358076249 ], [ 7.512662410702376, 5.301256657156102 ], [ 7.520624161112039, 5.305064200743175 ], [ 7.526776791292434, 5.304973124681283 ], [ 7.535016059890665, 5.303812980893042 ] ] ] ] } },
{ "type": "Feature", "properties": { "fid": 376.0, "OBJECTID": 376.0, "lganame": "Ikwuano", "statecode": "AB", "LGA_UID": "01_05" }, "geometry": { "type": "MultiPolygon", "coordinates": [ [ [ [ 7.57764720885649, 5.511944294308478 ], [ 7.594217777115432, 5.506711482753019 ], [ 7.605257033616112, 5.505528449949225 ], [ 7.606794356660657, 5.507577896341729 ], [ 7.619371414206171, 5.500503539535032 ], [ 7.623537540036864, 5.496211051618445 ], [ 7.625438213328266, 5.491595745482584 ], [ 7.628192902199942, 5.480299949807602 ], [ 7.63287639638213, 5.471208571630484 ], [ 7.642794609121097, 5.452474593901627 ], [ 7.64802885067752, 5.445036410847706 ], [ 7.651240825859929, 5.440418719710181 ], [ 7.648932934291793, 5.438054085103545 ], [ 7.646656989745395, 5.436304091914508 ], [ 7.642666817034296, 5.433962822323736 ], [ 7.640964030877342, 5.432219028138888 ], [ 7.639260768720021, 5.430472850952469 ], [ 7.63813686395639, 5.428154945377571 ], [ 7.636445998807517, 5.42525577540772 ], [ 7.634766101666116, 5.421203135654139 ], [ 7.634215832292227, 5.418889999082467 ], [ 7.634262085323655, 5.41427278494524 ], [ 7.634284019338565, 5.411963940376495 ], [ 7.633746146973124, 5.408496857020793 ], [ 7.633201121602781, 5.405607224057405 ], [ 7.632089137847231, 5.402134894698122 ], [ 7.631544113476934, 5.399244784734435 ], [ 7.630993843103056, 5.396932125163119 ], [ 7.629869938339425, 5.39461421958822 ], [ 7.628752231579995, 5.391718863620952 ], [ 7.627623080812782, 5.389978886438712 ], [ 7.626492977044904, 5.388237953255839 ], [ 7.625362873277084, 5.386497021072955 ], [ 7.62423419951017, 5.38475704189068 ], [ 7.623682976135683, 5.382443905319064 ], [ 7.624279975541299, 5.38013982775351 ], [ 7.6260170937216, 5.378423213587155 ], [ 7.628315926283506, 5.377863884207159 ], [ 7.631183147231695, 5.377888203223677 ], [ 7.633471011786185, 5.378482818627674 ], [ 7.636894226112076, 5.380241870822886 ], [ 7.639742851047572, 5.381997108015469 ], [ 7.643722056751244, 5.385491848389961 ], [ 7.64656591368356, 5.387823104973961 ], [ 7.64827394484405, 5.388990878767402 ], [ 7.652270793559751, 5.390755176966138 ], [ 7.655119896495592, 5.392508984157814 ], [ 7.65740823705039, 5.39310598356343 ], [ 7.659700870608106, 5.393124103575758 ], [ 7.662568091556238, 5.393146991591266 ], [ 7.665441035508309, 5.392592907214805 ], [ 7.66832399446713, 5.390884876054258 ], [ 7.671203136423401, 5.389753819285772 ], [ 7.675232887161371, 5.388054848131389 ], [ 7.676970005341673, 5.386338233965034 ], [ 7.677584170758962, 5.382303238223471 ], [ 7.677607058774527, 5.379993915654381 ], [ 7.677055836400029, 5.377680779082709 ], [ 7.676528931042014, 5.373060225943277 ], [ 7.675990104675918, 5.369593142587576 ], [ 7.673742771148909, 5.364956856437402 ], [ 7.672625065389525, 5.362061977470489 ], [ 7.670938969243878, 5.358585835108613 ], [ 7.669820786484138, 5.355690956141643 ], [ 7.668140888342748, 5.351636887387144 ], [ 7.667591094969168, 5.349325179816447 ], [ 7.666472912209429, 5.346429824849167 ], [ 7.665349007445741, 5.344111919274269 ], [ 7.663646221288786, 5.342367172088757 ], [ 7.662517070521574, 5.340625762905574 ], [ 7.660808086360419, 5.339457989112134 ], [ 7.658548831825385, 5.335977076746985 ], [ 7.656283855286404, 5.333073138773898 ], [ 7.654582024130093, 5.331327914588144 ], [ 7.652317046591179, 5.328423976615056 ], [ 7.650613785433904, 5.32667923042959 ], [ 7.648910999276893, 5.32493400624378 ], [ 7.645483016947765, 5.323750973439928 ], [ 7.641475201224637, 5.323142052026242 ], [ 7.638045787894498, 5.321959972223056 ], [ 7.634605884557288, 5.321931839203955 ], [ 7.630599021834769, 5.321321963789558 ], [ 7.628890037673614, 5.320155143996772 ], [ 7.625466824347711, 5.318396090801571 ], [ 7.622033119014645, 5.317790985390445 ], [ 7.618012905283138, 5.318335055760087 ], [ 7.615707873716929, 5.319470881531856 ], [ 7.61283588376557, 5.320024966908306 ], [ 7.609962939813556, 5.320579052284756 ], [ 7.607642174236673, 5.32344579723258 ], [ 7.606465816437435, 5.326322079186923 ], [ 7.603020191096277, 5.326870917559802 ], [ 7.601316928938957, 5.325126171374336 ], [ 7.599036217389369, 5.323953151577314 ], [ 7.596765040846208, 5.321627139996906 ], [ 7.59505701068565, 5.320457935202512 ], [ 7.591633797359748, 5.318698883007301 ], [ 7.587619780632394, 5.318666934985572 ], [ 7.583015918504316, 5.320361137136729 ], [ 7.581851958713457, 5.322082996306619 ], [ 7.578973769757852, 5.323214054075152 ], [ 7.575521946412493, 5.324339866840091 ], [ 7.572082996075892, 5.324313163821955 ], [ 7.568091869364139, 5.321971893231137 ], [ 7.566382885202927, 5.320804119437696 ], [ 7.564692020054054, 5.31790399646718 ], [ 7.562449931530693, 5.312692164926034 ], [ 7.56076479038569, 5.309216021564112 ], [ 7.559055805224546, 5.308046817769707 ], [ 7.55620718028905, 5.306293010578088 ], [ 7.551620007172232, 5.306255816552834 ], [ 7.549321174610327, 5.306815146932877 ], [ 7.546436786650474, 5.308523178093367 ], [ 7.543559073695235, 5.309654235861899 ], [ 7.540698050751303, 5.309052944453356 ], [ 7.532069682888732, 5.314115523893122 ], [ 7.530436515779058, 5.315367698743898 ], [ 7.527027607462855, 5.318238257694304 ], [ 7.521114826445398, 5.323217392077424 ], [ 7.517680168111724, 5.332048893078024 ], [ 7.519642830445264, 5.337936401078309 ], [ 7.527002335445729, 5.341370583411674 ], [ 7.536324023779343, 5.343823910078584 ], [ 7.544332981221089, 5.344552039573273 ], [ 7.547117710113184, 5.344805240745359 ], [ 7.553005219113459, 5.347748755745329 ], [ 7.553005219113459, 5.354617596412368 ], [ 7.547117710113184, 5.358051776745754 ], [ 7.539268016779658, 5.361977100412787 ], [ 7.52503967311219, 5.364920616412803 ], [ 7.512773990778214, 5.372770785746582 ], [ 7.510321140111614, 5.380129813746748 ], [ 7.510321140111614, 5.390923977080831 ], [ 7.510811329444664, 5.403189659414807 ], [ 7.512283325444855, 5.410058022081557 ], [ 7.511301993778034, 5.415945530081842 ], [ 7.509830474778255, 5.427720547082401 ], [ 7.507867813444705, 5.434589385749462 ], [ 7.515809535840731, 5.438166618179991 ], [ 7.52503967311219, 5.447836398750155 ], [ 7.530927181112474, 5.460592747417479 ], [ 7.534852027779209, 5.482670784418474 ], [ 7.542587280034923, 5.503124714315959 ], [ 7.552023888446683, 5.509164333419619 ], [ 7.561346053780653, 5.512108326419934 ], [ 7.575573921447813, 5.512598990753304 ], [ 7.57764720885649, 5.511944294308478 ] ] ] ] } },
{ "type": "Feature", "properties": { "fid": 399.0, "OBJECTID": 399.0, "lganame": "Arochukwu", "statecode": "AB", "LGA_UID": "01_03" }, "geometry": { "type": "MultiPolygon", "coordinates": [ [ [ [ 7.904579162991411, 5.568675517854672 ], [ 7.9059801099433, 5.564770222201219 ], [ 7.906692028427017, 5.559915065902373 ], [ 7.906727791451317, 5.551867962434699 ], [ 7.907911777255777, 5.542678833191133 ], [ 7.90794277227684, 5.535781859504993 ], [ 7.914861201977601, 5.520872116374505 ], [ 7.920620917891029, 5.509404181582568 ], [ 7.921782969680578, 5.504810810461606 ], [ 7.924092770250013, 5.499074935564352 ], [ 7.926406859822293, 5.492188930885618 ], [ 7.928716183391373, 5.486453055988363 ], [ 7.931040763970827, 5.477268218747724 ], [ 7.934503078323303, 5.469237804291424 ], [ 7.939105988450763, 5.461213111839015 ], [ 7.943693160567534, 5.456635951729027 ], [ 7.947137832908027, 5.452054976616466 ], [ 7.950583935249483, 5.447473048503298 ], [ 7.954034804594187, 5.441740989608604 ], [ 7.956337929159076, 5.437153816491843 ], [ 7.958648204728775, 5.431417941594589 ], [ 7.959815978522215, 5.425675868693133 ], [ 7.964424132653278, 5.416501999459911 ], [ 7.969031810783974, 5.407328129226698 ], [ 7.972493172135785, 5.399298190770708 ], [ 7.973660945929225, 5.393556117869252 ], [ 7.978248119045986, 5.388978957759321 ], [ 7.980556964614777, 5.383243083862055 ], [ 7.984013080963052, 5.376361847186558 ], [ 7.986322879532452, 5.370625019288639 ], [ 7.986339091543471, 5.36717700994592 ], [ 7.98750114433301, 5.362585067825876 ], [ 7.986370086564477, 5.360280991260368 ], [ 7.985239028796002, 5.35797691269488 ], [ 7.982965946251568, 5.355668068126135 ], [ 7.977263927377294, 5.354492187327139 ], [ 7.972698212275134, 5.354471207312884 ], [ 7.968125820168382, 5.355598927079143 ], [ 7.962419033290871, 5.355573177061615 ], [ 7.957847118184475, 5.356701850828529 ], [ 7.949857234755711, 5.356665133803574 ], [ 7.941861153322748, 5.357778071559778 ], [ 7.933869838893031, 5.357740878534514 ], [ 7.920156001575151, 5.361125945834488 ], [ 7.912165165145723, 5.361089229809522 ], [ 7.90188121815828, 5.363340855339402 ], [ 7.89045476939458, 5.36558723386571 ], [ 7.880370139542549, 5.366795539686734 ], [ 7.877982615920303, 5.36705207786099 ], [ 7.876111983649309, 5.36890077611713 ], [ 7.883984088998034, 5.384547233748151 ], [ 7.876439094871557, 5.393721103981363 ], [ 7.872947216498972, 5.398887157491458 ], [ 7.871191978306399, 5.402336120834889 ], [ 7.868268013319721, 5.408082961739581 ], [ 7.86766099890724, 5.411540985089118 ], [ 7.86648511910829, 5.414418221044059 ], [ 7.865297794301569, 5.418447970782097 ], [ 7.863561153121623, 5.420166015949462 ], [ 7.86125612255546, 5.42130088772052 ], [ 7.858384131604055, 5.421854973097027 ], [ 7.856083870041118, 5.422412872476059 ], [ 7.853218079093949, 5.422389984460551 ], [ 7.850350857145827, 5.422367096444987 ], [ 7.838315963968682, 5.421692847986833 ], [ 7.821098804270434, 5.423285007068671 ], [ 7.809011936057971, 5.427803993139094 ], [ 7.798605918987562, 5.436378001964727 ], [ 7.792839050069233, 5.439794064285763 ], [ 7.788778782310487, 5.444377899400251 ], [ 7.787598132508322, 5.447832107747274 ], [ 7.786410808701589, 5.451861858485302 ], [ 7.784661769513207, 5.45473384943665 ], [ 7.784060001104308, 5.457613945393575 ], [ 7.782862186290458, 5.462799071916606 ], [ 7.781095982090392, 5.467401981044077 ], [ 7.779921055292107, 5.470277785998007 ], [ 7.778172016103724, 5.473149775949423 ], [ 7.775856017530089, 5.475440024505531 ], [ 7.774117947349168, 5.477157115672242 ], [ 7.768929004823519, 5.4800009726045 ], [ 7.765460968467153, 5.482859134546459 ], [ 7.763133048885436, 5.486302852886297 ], [ 7.761395930705135, 5.488019943053018 ], [ 7.760225772910076, 5.490318774614934 ], [ 7.759630202505434, 5.492622852180432 ], [ 7.760157107863392, 5.49724388132023 ], [ 7.759550095451004, 5.500701903669778 ], [ 7.760076999808973, 5.505323886810231 ], [ 7.758902073010688, 5.508200168764517 ], [ 7.757159232826496, 5.510495186323851 ], [ 7.754848003256143, 5.512207985487635 ], [ 7.751385211903312, 5.514488220036924 ], [ 7.748500823943516, 5.516195774197172 ], [ 7.745627879991503, 5.516749858573633 ], [ 7.742755890040087, 5.517303943950083 ], [ 7.734149933192782, 5.517811775295172 ], [ 7.729568958080222, 5.517197131877538 ], [ 7.72670793513629, 5.516596794469649 ], [ 7.723285197810696, 5.514838219274736 ], [ 7.719288826095351, 5.513073921076 ], [ 7.717000960540815, 5.512478827671657 ], [ 7.713566780207486, 5.511874199260831 ], [ 7.710693836255473, 5.512427806636992 ], [ 7.711226939617688, 5.516471863384766 ], [ 7.710626125209444, 5.519352913342289 ], [ 7.707765102265512, 5.518753051934709 ], [ 7.704908848324806, 5.517574787134151 ], [ 7.701941013308328, 5.517550945117932 ], [ 7.695939064230288, 5.518277644611658 ], [ 7.691350937112873, 5.524586677898355 ], [ 7.682053088795385, 5.529752254408152 ], [ 7.676198482817483, 5.535606384385744 ], [ 7.669655323371728, 5.543527125767525 ], [ 7.661046027522104, 5.552824974084956 ], [ 7.652092457438584, 5.563500404338413 ], [ 7.647271156162731, 5.5703878400181 ], [ 7.641417027185128, 5.578652858633802 ], [ 7.636251449675342, 5.592772484227396 ], [ 7.634185314271519, 5.60138177907703 ], [ 7.639350890781259, 5.609646319692388 ], [ 7.648648739098746, 5.616878509606352 ], [ 7.656913756714403, 5.620666504180122 ], [ 7.664834499096173, 5.621355056647928 ], [ 7.673788071179729, 5.623076915817876 ], [ 7.6792979239234, 5.630309104731793 ], [ 7.679642200157332, 5.643394946623005 ], [ 7.676543236051714, 5.650282383302681 ], [ 7.669311047137796, 5.655103682578556 ], [ 7.661735057990256, 5.662680148726395 ], [ 7.656225204246596, 5.66784572623618 ], [ 7.656798362635982, 5.678161621245351 ], [ 7.664317607744977, 5.672666549511689 ], [ 7.676026343700528, 5.669911860640013 ], [ 7.688423634123865, 5.671289443576029 ], [ 7.70116567578151, 5.677143573553622 ], [ 7.709774970631145, 5.682997703531214 ], [ 7.72010612465067, 5.682653427297282 ], [ 7.737324715349871, 5.678865432723512 ], [ 7.749377727539354, 5.672666549511689 ], [ 7.755232333517256, 5.664746284130217 ], [ 7.759364605324947, 5.655103682578556 ], [ 7.764185904600822, 5.644083977091157 ], [ 7.768318176408457, 5.63478565177337 ], [ 7.772795200450389, 5.624798774987767 ], [ 7.779338359896201, 5.608957767224581 ], [ 7.783814906937778, 5.595182895865207 ], [ 7.788980484447563, 5.583818436143588 ], [ 7.791047095851695, 5.575209141293954 ], [ 7.795523642893329, 5.558334826828627 ], [ 7.801033973637345, 5.548003673809148 ], [ 7.803788661509031, 5.535262108151812 ], [ 7.803100109041168, 5.522520065494234 ], [ 7.805510520678922, 5.510467052304762 ], [ 7.808265685550907, 5.507023334964913 ], [ 7.814119815528557, 5.510467052304762 ], [ 7.82410669331415, 5.519765376622502 ], [ 7.842014313481513, 5.532506943279827 ], [ 7.856822013542683, 5.539738655193446 ], [ 7.874385357476172, 5.543871403001447 ], [ 7.88678264589953, 5.545937538405269 ], [ 7.895391940749107, 5.551447392148987 ], [ 7.899524211556809, 5.562123299402742 ], [ 7.904579162991411, 5.568675517854672 ] ] ] ] } },
{ "type": "Feature", "properties": { "fid": 424.0, "OBJECTID": 424.0, "lganame": "Umu-Nneochi", "statecode": "AB", "LGA_UID": "01_17" }, "geometry": { "type": "MultiPolygon", "coordinates": [ [ [ [ 7.384793281821317, 6.037316799274379 ], [ 7.386810303191794, 6.036674975838309 ], [ 7.395852089335278, 6.024777411754485 ], [ 7.404417992155402, 6.012404442347645 ], [ 7.415839671915876, 6.006217957144202 ], [ 7.430592059939443, 6.006217957144202 ], [ 7.451531410166751, 6.013832092317614 ], [ 7.461525439957256, 6.014783858964336 ], [ 7.475801944657462, 6.012404442347645 ], [ 7.49388599394473, 6.016687393257655 ], [ 7.510541916261616, 6.021446228491072 ], [ 7.520060061728771, 6.020018577521057 ], [ 7.533384799782311, 6.010976791377573 ], [ 7.547191620163403, 5.994943142483464 ], [ 7.553372383362898, 5.981471539330187 ], [ 7.552896500039594, 5.965291023336249 ], [ 7.552896500039594, 5.953869819576084 ], [ 7.550041199099553, 5.941496372168899 ], [ 7.539571761986053, 5.907232284888096 ], [ 7.518661498778499, 5.908042908438858 ], [ 7.491677284443995, 5.907552719105809 ], [ 7.479902267443435, 5.905590056772269 ], [ 7.46763658510946, 5.904608727105483 ], [ 7.452917576108575, 5.907552719105809 ], [ 7.440651893774657, 5.910986900439184 ], [ 7.429367542107457, 5.914911747105918 ], [ 7.418083191440246, 5.916874409439458 ], [ 7.402383326772963, 5.914911747105918 ], [ 7.394222260227878, 5.910171508885128 ], [ 7.391950606684418, 5.911909103065739 ], [ 7.387948035964826, 5.912797927669658 ], [ 7.385056018999876, 5.910808563317971 ], [ 7.382457733234446, 5.909391403355073 ], [ 7.380436419861041, 5.908257483584634 ], [ 7.378415585487971, 5.907123088813876 ], [ 7.376680851309345, 5.905986786041808 ], [ 7.373803139354038, 5.905145645470327 ], [ 7.371215819596102, 5.904589653092557 ], [ 7.369202137227887, 5.904029368711861 ], [ 7.367187976859384, 5.903469086331143 ], [ 7.362891673940226, 5.903785705546284 ], [ 7.358896255225545, 5.905248641540311 ], [ 7.3557572360927, 5.90641832433505 ], [ 7.353467940537257, 5.906721114540744 ], [ 7.350031376202253, 5.907031535751685 ], [ 7.345731258280523, 5.907061099771795 ], [ 7.343448638729569, 5.907938004367566 ], [ 7.340890407991424, 5.909677981549805 ], [ 7.338603973437898, 5.910267829950612 ], [ 7.335178852110687, 5.911439418746625 ], [ 7.331168652385941, 5.911754130960446 ], [ 7.328022480248251, 5.912349701365144 ], [ 7.324872971108277, 5.912658690575086 ], [ 7.322865962744629, 5.912672519584476 ], [ 7.320003032799434, 5.912979125792788 ], [ 7.317999840438347, 5.913280009997209 ], [ 7.315423488687827, 5.913584709204258 ], [ 7.312277316550137, 5.91418027860891 ], [ 7.309700965799664, 5.91448497781596 ], [ 7.307701588441148, 5.915072918215401 ], [ 7.30541181588535, 5.915375710421131 ], [ 7.302838802137103, 5.915967463823222 ], [ 7.300262451386629, 5.916272163030271 ], [ 7.295962334464889, 5.916301727050325 ], [ 7.293385982714369, 5.916606903257673 ], [ 7.290239810576679, 5.917202472662382 ], [ 7.287953854023499, 5.917792320063143 ], [ 7.284521102691087, 5.918389797469104 ], [ 7.281955241947742, 5.919555664261225 ], [ 7.279959678591808, 5.920430659855754 ], [ 7.276820660459009, 5.921600341650503 ], [ 7.27368164132622, 5.922770023445253 ], [ 7.27084016839558, 5.924798964823822 ], [ 7.269142151241851, 5.92653274500185 ], [ 7.267447472090396, 5.928553581374899 ], [ 7.264627457174299, 5.932304381923416 ], [ 7.263219357217565, 5.934323311295145 ], [ 7.262671470845305, 5.936336039662706 ], [ 7.260983943698704, 5.938930988425852 ], [ 7.25641584359488, 5.950538635312682 ], [ 7.25451231030155, 5.965291023336249 ], [ 7.259271144534921, 5.977664470743434 ], [ 7.264029979768338, 5.991465092120336 ], [ 7.272595881588472, 5.997651577323722 ], [ 7.283065795702271, 5.998603343970444 ], [ 7.30162525231259, 5.998127459647094 ], [ 7.318281650629785, 5.998603343970444 ], [ 7.322564601539852, 6.003838538527475 ], [ 7.333034514653662, 6.031440258281577 ], [ 7.338269234210429, 6.036199092514948 ], [ 7.339062690749529, 6.042149543558025 ], [ 7.361588001054429, 6.040482044425005 ], [ 7.376340389077995, 6.040006161101701 ], [ 7.384793281821317, 6.037316799274379 ] ] ] ] } },
{ "type": "Feature", "properties": { "fid": 668.0, "OBJECTID": 668.0, "lganame": "Isuikwuato", "statecode": "AB", "LGA_UID": "01_08" }, "geometry": { "type": "MultiPolygon", "coordinates": [ [ [ [ 7.539571761986053, 5.907232284888096 ], [ 7.540999412956069, 5.890100002247493 ], [ 7.538143635015672, 5.875823497547287 ], [ 7.538604736328978, 5.869834900478338 ], [ 7.538619995339332, 5.858215331583381 ], [ 7.539571761986053, 5.851077079733273 ], [ 7.544806479542785, 5.846794127823216 ], [ 7.551944733392872, 5.843462943559814 ], [ 7.549080372446667, 5.830524444768685 ], [ 7.546136379446409, 5.821692943768142 ], [ 7.545646191113349, 5.812371254434481 ], [ 7.548589706113319, 5.80157756810064 ], [ 7.549080372446667, 5.794218063100232 ], [ 7.551533699113634, 5.789311885766722 ], [ 7.558402060780338, 5.783915043099796 ], [ 7.564289569780613, 5.775083542099196 ], [ 7.568214893447703, 5.761345862765097 ], [ 7.569196224114478, 5.748589993098108 ], [ 7.568705558781062, 5.738777161430733 ], [ 7.564289569780613, 5.725039959096932 ], [ 7.564289569780613, 5.716208458096389 ], [ 7.560364723113878, 5.712774276763014 ], [ 7.545646191113349, 5.713264942096373 ], [ 7.528473854445508, 5.714246272763148 ], [ 7.508358478778064, 5.711302279762833 ], [ 7.48578977644371, 5.703452110429055 ], [ 7.466164589109326, 5.699527263762263 ], [ 7.448502064108482, 5.703452110429055 ], [ 7.439180373774832, 5.701489925095814 ], [ 7.422499180440695, 5.705414771762548 ], [ 7.411214351773197, 5.708358764762863 ], [ 7.402873993106311, 5.711792946096239 ], [ 7.400300980358111, 5.712711810720577 ], [ 7.400393009420611, 5.717534541997395 ], [ 7.400146008252818, 5.720693588143774 ], [ 7.399050235508241, 5.72471952387923 ], [ 7.397954463763767, 5.728745460614675 ], [ 7.397148609216174, 5.733056544543842 ], [ 7.396331786661221, 5.736506461887927 ], [ 7.396099566503437, 5.740813254814157 ], [ 7.39529371295589, 5.74512433974337 ], [ 7.395036220780923, 5.747422218304678 ], [ 7.394785880610812, 5.750294209256026 ], [ 7.394531727438164, 5.752879143012365 ], [ 7.394280910267753, 5.75575113296378 ], [ 7.394629477504566, 5.760628223277536 ], [ 7.394970416736214, 5.764931202201183 ], [ 7.394447803381127, 5.76895332293401 ], [ 7.393630980826117, 5.772403240278095 ], [ 7.394251347247632, 5.776130198810392 ], [ 7.393997192074949, 5.77871513356672 ], [ 7.394309521287198, 5.780722140930379 ], [ 7.394352913316652, 5.784166336270573 ], [ 7.393558024776553, 5.789338111784502 ], [ 7.393318652613914, 5.793071270321036 ], [ 7.393641471833291, 5.795938969269514 ], [ 7.393394469665452, 5.79909801541595 ], [ 7.392875195312627, 5.803407192343798 ], [ 7.392632008147359, 5.806853293685265 ], [ 7.392374515972449, 5.809151173246562 ], [ 7.392987728389073, 5.812304020388808 ], [ 7.393042088426, 5.816609383314074 ], [ 7.392791748255945, 5.819481373265432 ], [ 7.392265319898229, 5.823215960802941 ], [ 7.391735553538297, 5.826663971145706 ], [ 7.392649651159388, 5.830963135066781 ], [ 7.392399310989276, 5.83383512501814 ], [ 7.391854762619289, 5.836134910580768 ], [ 7.391310215249291, 5.838435173143694 ], [ 7.391048908071753, 5.840445994509935 ], [ 7.389964104334695, 5.845333098830508 ], [ 7.38942336996729, 5.847919940588156 ], [ 7.388312817212693, 5.850798129543705 ], [ 7.387209415462962, 5.854249953889052 ], [ 7.386686802107874, 5.85827159862157 ], [ 7.386432647935237, 5.860856533377955 ], [ 7.386461734954992, 5.863152980938253 ], [ 7.386788368176894, 5.866307735081762 ], [ 7.387100220388788, 5.868314743445467 ], [ 7.387415885603275, 5.870608807004146 ], [ 7.388311863212039, 5.873472690949995 ], [ 7.388624191424242, 5.87548017531401 ], [ 7.389445781982488, 5.879099845773396 ], [ 7.389560223060244, 5.881501198405033 ], [ 7.39102983505876, 5.884361267348311 ], [ 7.391345501273236, 5.88665533090699 ], [ 7.392535686081942, 5.890091419241685 ], [ 7.393707274877954, 5.892092227601097 ], [ 7.394879340674322, 5.894093512960922 ], [ 7.396083832492764, 5.898677826075755 ], [ 7.396396159704921, 5.900684834439403 ], [ 7.396443366737003, 5.904415606974283 ], [ 7.395909786374489, 5.907576561122028 ], [ 7.394222260227878, 5.910171508885128 ], [ 7.402383326772963, 5.914911747105918 ], [ 7.418083191440246, 5.916874409439458 ], [ 7.429367542107457, 5.914911747105918 ], [ 7.440651893774657, 5.910986900439184 ], [ 7.452917576108575, 5.907552719105809 ], [ 7.46763658510946, 5.904608727105483 ], [ 7.479902267443435, 5.905590056772269 ], [ 7.491677284443995, 5.907552719105809 ], [ 7.518661498778499, 5.908042908438858 ], [ 7.539571761986053, 5.907232284888096 ] ] ] ] } },
{ "type": "Feature", "properties": { "fid": 737.0, "OBJECTID": 737.0, "lganame": "Isiala-Ngwa South", "statecode": "AB", "LGA_UID": "01_07" }, "geometry": { "type": "MultiPolygon", "coordinates": [ [ [ [ 7.507867813444705, 5.434589385749462 ], [ 7.509830474778255, 5.427720547082401 ], [ 7.511301993778034, 5.415945530081842 ], [ 7.512283325444855, 5.410058022081557 ], [ 7.510811329444664, 5.403189659414807 ], [ 7.510321140111614, 5.390923977080831 ], [ 7.510321140111614, 5.380129813746748 ], [ 7.512773990778214, 5.372770785746582 ], [ 7.52503967311219, 5.364920616412803 ], [ 7.539268016779658, 5.361977100412787 ], [ 7.547117710113184, 5.358051776745754 ], [ 7.553005219113459, 5.354617596412368 ], [ 7.553005219113459, 5.347748755745329 ], [ 7.547117710113184, 5.344805240745359 ], [ 7.544332981221089, 5.344552039573273 ], [ 7.536324023779343, 5.343823910078584 ], [ 7.527002335445729, 5.341370583411674 ], [ 7.519642830445264, 5.337936401078309 ], [ 7.517680168111724, 5.332048893078024 ], [ 7.521114826445398, 5.323217392077424 ], [ 7.527027607462855, 5.318238257694304 ], [ 7.530436515779058, 5.315367698743898 ], [ 7.532069682888732, 5.314115523893122 ], [ 7.540698050751303, 5.309052944453356 ], [ 7.537847995814843, 5.30729913726168 ], [ 7.535016059890665, 5.303812980893042 ], [ 7.526776791292434, 5.304973124681283 ], [ 7.520624161112039, 5.305064200743175 ], [ 7.512662410702376, 5.301256657156102 ], [ 7.509339809444839, 5.299667358076249 ], [ 7.502546309828972, 5.297855853845419 ], [ 7.498055457777639, 5.301630020409789 ], [ 7.497192860191547, 5.311550617150374 ], [ 7.499526977777464, 5.324689388077559 ], [ 7.503942965777924, 5.333520412077803 ], [ 7.50688648177794, 5.346276759745137 ], [ 7.50198030544442, 5.353636264745603 ], [ 7.496754168893517, 5.354903220606445 ], [ 7.48578977644371, 5.357561111412338 ], [ 7.464692593109191, 5.359033108412518 ], [ 7.440651893774657, 5.358051776745754 ], [ 7.420045852773796, 5.357561111412338 ], [ 7.411214351773197, 5.353636264745603 ], [ 7.400911330772772, 5.353145599412244 ], [ 7.387664317772078, 5.353145599412244 ], [ 7.380795956105317, 5.350692271745288 ], [ 7.372210026271603, 5.349220752745453 ], [ 7.364850521271194, 5.345295429078419 ], [ 7.347678660603719, 5.344314575411943 ], [ 7.32216596626904, 5.344805240745359 ], [ 7.303522109601374, 5.348239422078677 ], [ 7.303461551560247, 5.35167026540978 ], [ 7.304350376164166, 5.353960036965589 ], [ 7.305711746089173, 5.358143329807945 ], [ 7.308726311137434, 5.359957695040691 ], [ 7.31189775529225, 5.361371040001018 ], [ 7.313356876283649, 5.363369942359157 ], [ 7.31453228008229, 5.365658282914012 ], [ 7.31570768388093, 5.367946148468491 ], [ 7.316600323487421, 5.370523453219676 ], [ 7.318077564491148, 5.373957156552706 ], [ 7.319267273299488, 5.377393722887689 ], [ 7.320152759901134, 5.37939643924841 ], [ 7.321912766097, 5.382541656385456 ], [ 7.322224617308848, 5.384548663749115 ], [ 7.322536944521062, 5.38655567211282 ], [ 7.32257652254799, 5.389712811257937 ], [ 7.322619914577444, 5.393157004598095 ], [ 7.322649001597199, 5.395452976158083 ], [ 7.322122574239529, 5.399188041695879 ], [ 7.321574687867269, 5.401200771063429 ], [ 7.321908474094073, 5.404929637597036 ], [ 7.322801112700574, 5.40750694334821 ], [ 7.323980330501797, 5.41008186309773 ], [ 7.326324463094522, 5.414084434817312 ], [ 7.32749652889089, 5.416085243176724 ], [ 7.328675746692113, 5.418660640926589 ], [ 7.329564571296032, 5.420950413482387 ], [ 7.331327915494114, 5.424382686814454 ], [ 7.333367347879857, 5.42695188456014 ], [ 7.335130692077939, 5.430384158892196 ], [ 7.336299418872045, 5.432098389056932 ], [ 7.338041306055572, 5.433808327218742 ], [ 7.339496136044033, 5.43552064938217 ], [ 7.341238022227571, 5.43723058654399 ], [ 7.343560218805408, 5.439510822093325 ], [ 7.347033024165, 5.442070006832182 ], [ 7.349050521535787, 5.442917347407899 ], [ 7.35134744609644, 5.443188666592278 ], [ 7.35394573186187, 5.444605826555119 ], [ 7.35597419724013, 5.446313857715666 ], [ 7.357436180233492, 5.448600292269191 ], [ 7.358891487222309, 5.450312138432309 ], [ 7.360357285218242, 5.452885151180567 ], [ 7.361246585822471, 5.455175399736675 ], [ 7.361558437034375, 5.457182407100333 ], [ 7.362443923636022, 5.45918560046141 ], [ 7.363626480439507, 5.462047577405997 ], [ 7.364247321861342, 5.465774535938294 ], [ 7.36657285744144, 5.468341826682661 ], [ 7.368601321819654, 5.470050334843506 ], [ 7.370636940202758, 5.472332478394094 ], [ 7.373539925175237, 5.475182533330553 ], [ 7.382758141438558, 5.468933105084375 ], [ 7.391589642439158, 5.463536263417495 ], [ 7.403364658439727, 5.461574078084254 ], [ 7.414158343773522, 5.461574078084254 ], [ 7.421517848773931, 5.459611415750715 ], [ 7.433783531107906, 5.45813941975058 ], [ 7.455370902775542, 5.456667422750456 ], [ 7.477939606109885, 5.451761246416936 ], [ 7.495111464777381, 5.442930222416635 ], [ 7.507867813444705, 5.434589385749462 ] ] ] ] } }
]
}
