{
"type": "FeatureCollection",
"name": "Anambra",
"crs": { "type": "name", "properties": { "name": "urn:ogc:def:crs:OGC:1.3:CRS84" } },
"features": [
{ "type": "Feature", "properties": { "fid": 4.0, "OBJECTID": 4.0, "lganame": "Awka North", "statecode": "AN", "LGA_UID": "04_05" }, "geometry": { "type": "MultiPolygon", "coordinates": [ [ [ [ 7.027468204035756, 6.443563461299902 ], [ 7.029937743713674, 6.44289016684246 ], [ 7.038653373635555, 6.440275192065712 ], [ 7.064800739401448, 6.437224864993141 ], [ 7.088768958686728, 6.430252075255453 ], [ 7.096612930016306, 6.422408103925818 ], [ 7.115351676748446, 6.401490210713121 ], [ 7.127989769335443, 6.386673449645798 ], [ 7.135833739665031, 6.372728348170767 ], [ 7.141934871810463, 6.359654903288003 ], [ 7.147382258511698, 6.343094826036179 ], [ 7.150868415880382, 6.334379196114355 ], [ 7.154354572249076, 6.321305752231524 ], [ 7.159148215506093, 6.314768790789969 ], [ 7.16219901957902, 6.304745673979767 ], [ 7.160283089277186, 6.303468704112106 ], [ 7.150432586584259, 6.296901702650132 ], [ 7.142588615254624, 6.289057255320188 ], [ 7.145203114031062, 6.274676322549055 ], [ 7.14912509869589, 6.26247453725847 ], [ 7.146946430215564, 6.252451420448267 ], [ 7.146946430215564, 6.244606972118333 ], [ 7.147720336741429, 6.242456435657118 ], [ 7.131693839852176, 6.24112081474965 ], [ 7.117312908080976, 6.24112081474965 ], [ 7.111647606231713, 6.24417161882252 ], [ 7.102060317717587, 6.252451420448267 ], [ 7.092037200907328, 6.260295390777856 ], [ 7.078527926728441, 6.267268180515543 ], [ 7.066761493733679, 6.269011020699736 ], [ 7.057174206219599, 6.265960692627175 ], [ 7.047586917705473, 6.258552550593663 ], [ 7.038435459487459, 6.251579761856021 ], [ 7.02841234167721, 6.242864131934141 ], [ 7.018863201189049, 6.23819112775908 ], [ 7.016646384682815, 6.240684986453516 ], [ 7.013159752313811, 6.246350288302835 ], [ 7.011852741425741, 6.2528872487444 ], [ 7.008366108056748, 6.255501746520792 ], [ 7.006187438576433, 6.261602878666224 ], [ 7.002700806207486, 6.271190166180361 ], [ 6.998778819542679, 6.282956600175112 ], [ 6.992677689397226, 6.29515838646563 ], [ 6.987884045140163, 6.30387401638751 ], [ 6.978296756626037, 6.314332962493836 ], [ 6.970888614592582, 6.317383288566418 ], [ 6.96529769879379, 6.317677974766639 ], [ 6.96674871377968, 6.321305752231524 ], [ 6.967184544075849, 6.332635879929853 ], [ 6.968491553963872, 6.340480328259787 ], [ 6.970234871148364, 6.348324298589375 ], [ 6.968491553963872, 6.354425429734817 ], [ 6.964133739002932, 6.366191386729213 ], [ 6.961083411930417, 6.374907493651392 ], [ 6.962390899818786, 6.384058951869406 ], [ 6.971324443888705, 6.405848025674061 ], [ 6.975246428553476, 6.410641669931124 ], [ 6.980911732402831, 6.414128304300107 ], [ 6.981354712703762, 6.416490554905124 ], [ 6.990716934065006, 6.423715590814197 ], [ 7.009891510093212, 6.436789035697018 ], [ 7.0251441004566, 6.444197177730473 ], [ 7.027468204035756, 6.443563461299902 ] ] ] ] } },
{ "type": "Feature", "properties": { "fid": 57.0, "OBJECTID": 57.0, "lganame": "Nnewi South", "statecode": "AN", "LGA_UID": "04_15" }, "geometry": { "type": "MultiPolygon", "coordinates": [ [ [ [ 6.983145713920692, 6.02039670877798 ], [ 6.982437134439238, 6.017562388852184 ], [ 6.984179973623441, 6.004924774265533 ], [ 6.988101959288201, 5.999695300712347 ], [ 6.992895602545275, 5.996644973639775 ], [ 7.002918720355524, 5.994901657455273 ], [ 7.019478797607292, 5.988800526309888 ], [ 7.039089202931677, 5.982699394164456 ], [ 7.048676491445747, 5.9761629097232 ], [ 7.060878276736332, 5.967011451505186 ], [ 7.064364910105326, 5.959602833471422 ], [ 7.065671920993395, 5.950451374253419 ], [ 7.06349325151308, 5.94347906051604 ], [ 7.05913543655214, 5.938685417259023 ], [ 7.056444644723854, 5.930613517774532 ], [ 7.053009033389515, 5.929456710988518 ], [ 7.047820090863866, 5.927196026452521 ], [ 7.045501232288359, 5.925202847098205 ], [ 7.043472766910099, 5.923494815937715 ], [ 7.041157722337118, 5.921788215778179 ], [ 7.039412498151307, 5.919791222421281 ], [ 7.037663459962914, 5.917507171869374 ], [ 7.035634994584711, 5.915799140708884 ], [ 7.033896923403745, 5.91437578174174 ], [ 7.031001091436167, 5.912099361195033 ], [ 7.025525569715796, 5.909841060660597 ], [ 7.020931243594191, 5.909298897292274 ], [ 7.017770767446791, 5.90874624291672 ], [ 7.014613628301674, 5.90848112073661 ], [ 7.009156226593632, 5.907657623177101 ], [ 7.003111839486735, 5.905193328502719 ], [ 6.999913692313726, 5.902267932515031 ], [ 6.998175621132816, 5.900844573547943 ], [ 6.996720791144298, 5.899132729384803 ], [ 6.994971751955916, 5.896848201832597 ], [ 6.993331431841398, 5.89815711972193 ], [ 6.986794949400178, 5.900771618498368 ], [ 6.974156856813181, 5.902079105386747 ], [ 6.967184544075849, 5.903822421571249 ], [ 6.950624465824035, 5.909487724420558 ], [ 6.940601349013775, 5.910358906012448 ], [ 6.935371876460636, 5.913409710085375 ], [ 6.927092074834889, 5.914281367677575 ], [ 6.917068958024629, 5.915588378565644 ], [ 6.914200783075842, 5.916433334139754 ], [ 6.910531997583064, 5.918203354342381 ], [ 6.902252196957363, 5.918639182638515 ], [ 6.861605644339932, 5.939201831609864 ], [ 6.870440006342449, 5.945657729996356 ], [ 6.877848148375961, 5.95219469143791 ], [ 6.883513451225269, 5.952630519734043 ], [ 6.893536568035472, 5.957859993287229 ], [ 6.898766040588669, 5.961346148655934 ], [ 6.904431343437977, 5.967883110097489 ], [ 6.912711143063689, 5.973983765242565 ], [ 6.922734260873938, 5.982264041868632 ], [ 6.932321548388074, 5.990979670790466 ], [ 6.940165519717652, 5.996644973639775 ], [ 6.94408750538247, 6.003181458081031 ], [ 6.94408750538247, 6.009282589226473 ], [ 6.944959163974715, 6.016255378964161 ], [ 6.946083068738346, 6.020750523018364 ], [ 6.954110622192729, 6.020177363628932 ], [ 6.961083411930417, 6.022356033109247 ], [ 6.968491553963872, 6.024099350293739 ], [ 6.975028515405427, 6.022356033109247 ], [ 6.983145713920692, 6.02039670877798 ] ] ] ] } },
{ "type": "Feature", "properties": { "fid": 71.0, "OBJECTID": 71.0, "lganame": "Anaocha", "statecode": "AN", "LGA_UID": "04_04" }, "geometry": { "type": "MultiPolygon", "coordinates": [ [ [ [ 7.0395250322278, 6.158321381491305 ], [ 7.036910057451053, 6.15091323945785 ], [ 7.0395250322278, 6.144812107312418 ], [ 7.045626163373242, 6.136968135982784 ], [ 7.061314106032455, 6.126509189876458 ], [ 7.066979407881774, 6.123458384803541 ], [ 7.073080540027206, 6.11953640013877 ], [ 7.0774383539881, 6.1182293892507 ], [ 7.08179616894904, 6.11517858517783 ], [ 7.080924511356784, 6.112564087401381 ], [ 7.076130867099721, 6.109949111624644 ], [ 7.066979407881774, 6.099054337222128 ], [ 7.056956291071515, 6.08685255093161 ], [ 7.05347013470282, 6.077265263417473 ], [ 7.051726817518329, 6.072471619160467 ], [ 7.050419806630259, 6.066370487015035 ], [ 7.046933174261255, 6.061141014461839 ], [ 7.040832520116169, 6.055911540908653 ], [ 7.033859730378481, 6.051553725947713 ], [ 7.028194426529183, 6.04981088576352 ], [ 7.024272441864355, 6.04981088576352 ], [ 7.02122211479184, 6.045453071802626 ], [ 7.016863822830544, 6.039787768953317 ], [ 7.010327339389335, 6.034558296400121 ], [ 6.997253894506514, 6.02714967736631 ], [ 6.991588592657251, 6.023227691701493 ], [ 6.987666606992434, 6.021484374517001 ], [ 6.983145713920692, 6.02039670877798 ], [ 6.975028515405427, 6.022356033109247 ], [ 6.968491553963872, 6.024099350293739 ], [ 6.968491553963872, 6.030200481439181 ], [ 6.968491553963872, 6.043273926322001 ], [ 6.969799041852241, 6.051989555243836 ], [ 6.971542358036743, 6.061576842757972 ], [ 6.975028515405427, 6.07290744845659 ], [ 6.977643490182174, 6.076829433121361 ], [ 6.978078842477998, 6.08249473597067 ], [ 6.9798221586625, 6.088160037819989 ], [ 6.982001305143115, 6.096439838445747 ], [ 6.98112964555088, 6.102976798887255 ], [ 6.978078842477998, 6.113435744993637 ], [ 6.976336002293806, 6.1182293892507 ], [ 6.974891186312107, 6.123594760896196 ], [ 6.978078842477998, 6.124330044395833 ], [ 6.991152763361129, 6.123023032507774 ], [ 7.00379037894777, 6.126509189876458 ], [ 7.009891510093212, 6.134353161206036 ], [ 7.012941837165783, 6.14219760853598 ], [ 7.014249325054152, 6.149169922273359 ], [ 7.014685154350275, 6.155271053418744 ], [ 7.016863822830544, 6.160064696675818 ], [ 7.026451588345026, 6.161372184564186 ], [ 7.033859730378481, 6.161372184564186 ], [ 7.0395250322278, 6.158321381491305 ] ] ] ] } },
{ "type": "Feature", "properties": { "fid": 208.0, "OBJECTID": 208.0, "lganame": "Idemili South", "statecode": "AN", "LGA_UID": "04_11" }, "geometry": { "type": "MultiPolygon", "coordinates": [ [ [ [ 6.968491553963872, 6.024099350293739 ], [ 6.961083411930417, 6.022356033109247 ], [ 6.954110622192729, 6.020177363628932 ], [ 6.946083068738346, 6.020750523018364 ], [ 6.941908835902154, 6.021049023221224 ], [ 6.933629036276443, 6.023663520997616 ], [ 6.92447757705844, 6.032379149919507 ], [ 6.917504787320752, 6.048503398875141 ], [ 6.909224986695051, 6.063320159942464 ], [ 6.902688026253486, 6.070728301975919 ], [ 6.896720886199091, 6.073711872003116 ], [ 6.895715236515798, 6.075521946232982 ], [ 6.889178753074532, 6.071599959568175 ], [ 6.881334304744598, 6.06419181753472 ], [ 6.876540661487581, 6.058962344981524 ], [ 6.869568347750203, 6.052861213836081 ], [ 6.864338875197006, 6.048503398875141 ], [ 6.854751586682937, 6.044145583914258 ], [ 6.846907616353292, 6.041966438433633 ], [ 6.831219195693734, 6.042402266729709 ], [ 6.821631908179654, 6.041530609137453 ], [ 6.816838263922591, 6.044145583914258 ], [ 6.808557987296524, 6.045453071802626 ], [ 6.800278186670823, 6.045017241506457 ], [ 6.79548454341375, 6.048939228171264 ], [ 6.788512229676371, 6.05416870072446 ], [ 6.784153937715132, 6.058090687389267 ], [ 6.778924942162291, 6.05983400257378 ], [ 6.776309967385544, 6.071164131272042 ], [ 6.775438308793298, 6.080315590490045 ], [ 6.775438308793298, 6.087724208523866 ], [ 6.775874138089421, 6.097311497037992 ], [ 6.781539439938683, 6.101669311998876 ], [ 6.790690899156687, 6.103847980479202 ], [ 6.797227858598262, 6.10079765340663 ], [ 6.801149845263069, 6.098618983926372 ], [ 6.81248044996164, 6.099490165518262 ], [ 6.8225035667719, 6.102976798887255 ], [ 6.831655024989914, 6.103412628183378 ], [ 6.843856812280421, 6.101233481702764 ], [ 6.854315758386804, 6.098618983926372 ], [ 6.865646362085386, 6.094260692965122 ], [ 6.874797821303389, 6.097747326334115 ], [ 6.884385108817526, 6.10515546836757 ], [ 6.890921593258724, 6.106027125959827 ], [ 6.903559684845732, 6.099490165518262 ], [ 6.911839485471432, 6.094260692965122 ], [ 6.922298430577825, 6.090774535596438 ], [ 6.934500216868344, 6.090774535596438 ], [ 6.939293861125407, 6.097311497037992 ], [ 6.952803612304649, 6.108206272440441 ], [ 6.958468914153968, 6.114306926585584 ], [ 6.968056201668105, 6.119100570842647 ], [ 6.972414016628989, 6.123023032507774 ], [ 6.974891186312107, 6.123594760896196 ], [ 6.976336002293806, 6.1182293892507 ], [ 6.978078842477998, 6.113435744993637 ], [ 6.98112964555088, 6.102976798887255 ], [ 6.982001305143115, 6.096439838445747 ], [ 6.9798221586625, 6.088160037819989 ], [ 6.978078842477998, 6.08249473597067 ], [ 6.977643490182174, 6.076829433121361 ], [ 6.975028515405427, 6.07290744845659 ], [ 6.971542358036743, 6.061576842757972 ], [ 6.969799041852241, 6.051989555243836 ], [ 6.968491553963872, 6.043273926322001 ], [ 6.968491553963872, 6.030200481439181 ], [ 6.968491553963872, 6.024099350293739 ] ] ] ] } },
{ "type": "Feature", "properties": { "fid": 212.0, "OBJECTID": 212.0, "lganame": "Ogbaru", "statecode": "AN", "LGA_UID": "04_16" }, "geometry": { "type": "MultiPolygon", "coordinates": [ [ [ [ 6.786333084195746, 6.123458384803541 ], [ 6.789819240564441, 6.1182293892507 ], [ 6.79193401300131, 6.107904434235365 ], [ 6.790690899156687, 6.103847980479202 ], [ 6.781539439938683, 6.101669311998876 ], [ 6.775874138089421, 6.097311497037992 ], [ 6.775438308793298, 6.087724208523866 ], [ 6.775438308793298, 6.080315590490045 ], [ 6.776309967385544, 6.071164131272042 ], [ 6.778924942162291, 6.05983400257378 ], [ 6.784153937715132, 6.058090687389267 ], [ 6.787204741788003, 6.045453071802626 ], [ 6.792870044637311, 6.030636310735304 ], [ 6.795920371709883, 6.016255378964161 ], [ 6.798534870486321, 6.004053115673287 ], [ 6.802457333151438, 5.993158340270782 ], [ 6.811172962073272, 5.983571052756702 ], [ 6.812916279257763, 5.970933437170004 ], [ 6.81248044996164, 5.964832306024562 ], [ 6.819016933402906, 5.95219469143791 ], [ 6.824035167812553, 5.946235657389025 ], [ 6.826373100401042, 5.94440317214395 ], [ 6.824682236252215, 5.936506270778352 ], [ 6.819888591995152, 5.918203354342381 ], [ 6.816838263922591, 5.910358906012448 ], [ 6.811172962073272, 5.895106315649059 ], [ 6.804636001631707, 5.887698173615547 ], [ 6.797663688894374, 5.882032870766238 ], [ 6.790255069860564, 5.872009753956036 ], [ 6.787204741788003, 5.865909099810892 ], [ 6.790255069860564, 5.858064651480959 ], [ 6.793741226229258, 5.851963520335573 ], [ 6.793741226229258, 5.845862865190441 ], [ 6.791562556748943, 5.835839748380181 ], [ 6.788947581972195, 5.821894645905161 ], [ 6.788947581972195, 5.81448602687135 ], [ 6.791126728452809, 5.806642055541772 ], [ 6.795048714117627, 5.794875621547021 ], [ 6.794939041043108, 5.789730549051171 ], [ 6.791215896513393, 5.79004335426373 ], [ 6.788632392758018, 5.789773941080682 ], [ 6.786048889002643, 5.789504527897577 ], [ 6.783464909246959, 5.789235591714885 ], [ 6.780881405491584, 5.788966178531837 ], [ 6.777724266346468, 5.788701057351659 ], [ 6.774270057999502, 5.78757667458774 ], [ 6.769962311072561, 5.787032127217742 ], [ 6.766228675535785, 5.786483764845116 ], [ 6.762490748996015, 5.785648346277526 ], [ 6.758749485454018, 5.784526347515168 ], [ 6.755295277107052, 5.783401965751182 ], [ 6.752413750149174, 5.782273768984624 ], [ 6.749246119996883, 5.781147480219374 ], [ 6.746636868224073, 5.778869151671358 ], [ 6.744612216848395, 5.777448176705889 ], [ 6.740283011906911, 5.775181770165943 ], [ 6.736824988557316, 5.773770332206936 ], [ 6.734226703791933, 5.772353172244038 ], [ 6.732205868418873, 5.77121877747328 ], [ 6.729321003458722, 5.769803523511712 ], [ 6.726145744301277, 5.768103123356354 ], [ 6.723268032346027, 5.767261981784827 ], [ 6.720666408578325, 5.765557765626909 ], [ 6.717483997416025, 5.76328373008181 ], [ 6.714305401256354, 5.761296271731396 ], [ 6.711115837089153, 5.758448123796256 ], [ 6.70908737171095, 5.756739615635411 ], [ 6.705908297550877, 5.754752636285332 ], [ 6.701564788599683, 5.751338004965248 ], [ 6.697508334843519, 5.747921943644201 ], [ 6.694906235075507, 5.746217728486272 ], [ 6.692014217110511, 5.744228363134596 ], [ 6.688261985561041, 5.742244719786811 ], [ 6.684201716802306, 5.738541603270676 ], [ 6.681012153635152, 5.735693455335536 ], [ 6.678693295059588, 5.733700274981231 ], [ 6.675503730892444, 5.730851650045736 ], [ 6.67143964813107, 5.72686147733458 ], [ 6.668275832981408, 5.721829413915543 ], [ 6.664922713703106, 5.722358704275166 ], [ 6.650887489166848, 5.725108624143616 ], [ 6.63362026243459, 5.73003578249137 ], [ 6.643630028235748, 5.747325420238894 ], [ 6.654868125871474, 5.771530150684839 ], [ 6.654832839847529, 5.779374123014463 ], [ 6.651957511893897, 5.79860019707769 ], [ 6.650763512082619, 5.817113399656535 ], [ 6.657929896951828, 5.840404510481733 ], [ 6.660915851980633, 5.856529236437723 ], [ 6.674054145907519, 5.873847961205001 ], [ 6.679429053559488, 5.888180732943454 ], [ 6.68831586759768, 5.896851062834514 ], [ 6.697762012015858, 5.913572788196177 ], [ 6.703824997135371, 5.92679977418328 ], [ 6.708522797327305, 5.940709113634 ], [ 6.71321296651405, 5.95669794149768 ], [ 6.715875149322926, 5.969895840465028 ], [ 6.716506003751533, 5.98099708600779 ], [ 6.719857216028515, 5.992121219566116 ], [ 6.724527836202014, 6.012269974256242 ], [ 6.726493834537791, 6.028930186576076 ], [ 6.725058078562256, 6.046256065348189 ], [ 6.716826915969591, 6.062137127138612 ], [ 6.709276198839234, 6.078023910932984 ], [ 6.71331596358408, 6.087072849081267 ], [ 6.722111224560024, 6.097548008198657 ], [ 6.737713814161225, 6.105999946941381 ], [ 6.749240874993347, 6.113724232189668 ], [ 6.755330086130698, 6.120709895936102 ], [ 6.755804062452739, 6.123312472704413 ], [ 6.764108181094969, 6.121715545619395 ], [ 6.772387980720737, 6.124330044395833 ], [ 6.778924942162291, 6.123894215099654 ], [ 6.786333084195746, 6.123458384803541 ] ] ] ] } },
{ "type": "Feature", "properties": { "fid": 234.0, "OBJECTID": 234.0, "lganame": "Onitsha North", "statecode": "AN", "LGA_UID": "04_17" }, "geometry": { "type": "MultiPolygon", "coordinates": [ [ [ [ 6.835141182358541, 6.182289599776595 ], [ 6.832090855286026, 6.178367615111767 ], [ 6.829475879509289, 6.173138141558638 ], [ 6.82686138173284, 6.166601658117372 ], [ 6.827297211028963, 6.160500525971941 ], [ 6.8225035667719, 6.148734092977236 ], [ 6.819016933402906, 6.139582633759233 ], [ 6.813351630553598, 6.129559516948973 ], [ 6.811608791369395, 6.123894215099654 ], [ 6.80507183092783, 6.119100570842647 ], [ 6.795920371709883, 6.112128258105258 ], [ 6.79193401300131, 6.107904434235365 ], [ 6.789819240564441, 6.1182293892507 ], [ 6.786333084195746, 6.123458384803541 ], [ 6.787640572084115, 6.126945019172581 ], [ 6.787640572084115, 6.136096478390527 ], [ 6.787640572084115, 6.142632960831804 ], [ 6.783718586419354, 6.149605750569435 ], [ 6.78110361064256, 6.151784897050106 ], [ 6.768030166759786, 6.152656077642007 ], [ 6.764783858554097, 6.155804633781315 ], [ 6.766045094411027, 6.158246994440788 ], [ 6.769402026691921, 6.167984009056624 ], [ 6.767301083264385, 6.18183612846849 ], [ 6.762889385266874, 6.185385703880229 ], [ 6.781200408708344, 6.189338206565822 ], [ 6.786768913491869, 6.190134048106529 ], [ 6.795048714117627, 6.192748546882967 ], [ 6.804200172335584, 6.192312716586855 ], [ 6.815966606330335, 6.190569878402641 ], [ 6.818651199154374, 6.191106795767496 ], [ 6.822938919067724, 6.194491863067469 ], [ 6.830347538101535, 6.187519073329781 ], [ 6.835141182358541, 6.182289599776595 ] ] ] ] } },
{ "type": "Feature", "properties": { "fid": 237.0, "OBJECTID": 237.0, "lganame": "Ihiala", "statecode": "AN", "LGA_UID": "04_12" }, "geometry": { "type": "MultiPolygon", "coordinates": [ [ [ [ 6.914200783075842, 5.916433334139754 ], [ 6.917068958024629, 5.915588378565644 ], [ 6.927092074834889, 5.914281367677575 ], [ 6.935371876460636, 5.913409710085375 ], [ 6.940601349013775, 5.910358906012448 ], [ 6.950624465824035, 5.909487724420558 ], [ 6.967184544075849, 5.903822421571249 ], [ 6.974156856813181, 5.902079105386747 ], [ 6.986794949400178, 5.900771618498368 ], [ 6.993331431841398, 5.89815711972193 ], [ 6.994971751955916, 5.896848201832597 ], [ 6.993222712767533, 5.89456415228068 ], [ 6.990885735179688, 5.891136168951505 ], [ 6.988824843779412, 5.886844635035629 ], [ 6.986212254004272, 5.884279728292881 ], [ 6.984466552818162, 5.882282256935696 ], [ 6.982122898225725, 5.878280163216459 ], [ 6.979495525440541, 5.874567031693573 ], [ 6.975133896477018, 5.869717598398609 ], [ 6.972822665906676, 5.868298531434448 ], [ 6.96642541856005, 5.86116695358885 ], [ 6.964676380371657, 5.858882427036633 ], [ 6.962350367791203, 5.856315136292267 ], [ 6.960031509215696, 5.854321956938008 ], [ 6.957716464642715, 5.852615832778781 ], [ 6.955971241456893, 5.850618839421884 ], [ 6.95450496746065, 5.848045825673637 ], [ 6.95389938404918, 5.845466613921189 ], [ 6.952436924055519, 5.84318018036771 ], [ 6.949820518277761, 5.840328217429885 ], [ 6.9483656882893, 5.838615894266468 ], [ 6.945763587521299, 5.836911678108549 ], [ 6.943452357950946, 5.835492611144332 ], [ 6.941431045577531, 5.834358692373883 ], [ 6.938836574814729, 5.833228110605717 ], [ 6.935374737462553, 5.831530094451978 ], [ 6.933353424089148, 5.83039569868123 ], [ 6.930185794936904, 5.829269408915991 ], [ 6.92701768878436, 5.828143120150685 ], [ 6.923559666434755, 5.826731682191678 ], [ 6.920395374284794, 5.82589244762147 ], [ 6.915561199000194, 5.823806286204047 ], [ 6.911744595407015, 5.821933745931744 ], [ 6.908863068449136, 5.820805550165176 ], [ 6.906838417073459, 5.819384575199706 ], [ 6.90453052450539, 5.81825208743021 ], [ 6.901359081350506, 5.816838741469894 ], [ 6.898750304577959, 5.814560889922234 ], [ 6.895857810612654, 5.812571525570547 ], [ 6.894406795626765, 5.81114625860215 ], [ 6.891510962659197, 5.808869839055433 ], [ 6.889758110468222, 5.806298733308495 ], [ 6.889439106251473, 5.803717612554749 ], [ 6.888818740829947, 5.799990654022452 ], [ 6.888198376408411, 5.796263695490154 ], [ 6.886427402205129, 5.792257308768001 ], [ 6.885502337576611, 5.787097454262096 ], [ 6.885437011532247, 5.781931399752011 ], [ 6.885110855310586, 5.778776168608204 ], [ 6.884486674886489, 5.774762153880829 ], [ 6.884740829059183, 5.772177219124501 ], [ 6.884399890827524, 5.767874241200843 ], [ 6.884077071608203, 5.765006065252066 ], [ 6.883739471378817, 5.76099014252344 ], [ 6.883699417351579, 5.757833004378313 ], [ 6.883652687319852, 5.754102229843397 ], [ 6.883046626908083, 5.75152301809095 ], [ 6.881290435714789, 5.748664856148991 ], [ 6.879530429518979, 5.745519638011956 ], [ 6.876645564558828, 5.744104385050321 ], [ 6.874352455000803, 5.74412012106103 ], [ 6.872349261639727, 5.744421005265451 ], [ 6.870070457091344, 5.74558496505631 ], [ 6.868074416735169, 5.746459960650839 ], [ 6.865512370994338, 5.747912406637738 ], [ 6.863240719450857, 5.749650477818648 ], [ 6.861538887294557, 5.751097201801656 ], [ 6.860123634332979, 5.752542018783288 ], [ 6.858712196373972, 5.754273890960064 ], [ 6.855881691450747, 5.757163524923385 ], [ 6.853617190912132, 5.759475708494449 ], [ 6.851069927181413, 5.76207637826144 ], [ 6.848801612640216, 5.764101027637139 ], [ 6.846529961096735, 5.765839099818038 ], [ 6.843405723973945, 5.768156528392637 ], [ 6.840458392971357, 5.769661427415144 ], [ 6.838277817489768, 5.770775318171957 ], [ 6.834576606974963, 5.772809981554417 ], [ 6.832584380621313, 5.773971558343703 ], [ 6.828894138113981, 5.776867390311281 ], [ 6.825769423990891, 5.77918529488619 ], [ 6.824354172029302, 5.780630111867879 ], [ 6.822648524870374, 5.78178977965581 ], [ 6.819803714937507, 5.783531665839348 ], [ 6.817807673581285, 5.784406662433867 ], [ 6.815245627840454, 5.785859108420709 ], [ 6.812680244097407, 5.787024975212887 ], [ 6.810680865738959, 5.787612914612339 ], [ 6.805528164237899, 5.788222313026381 ], [ 6.80295133648707, 5.78852701223343 ], [ 6.800661563931271, 5.788829803439171 ], [ 6.797228812598917, 5.789427756845441 ], [ 6.794939041043108, 5.789730549051171 ], [ 6.795048714117627, 5.794875621547021 ], [ 6.791126728452809, 5.806642055541772 ], [ 6.788947581972195, 5.81448602687135 ], [ 6.788947581972195, 5.821894645905161 ], [ 6.791562556748943, 5.835839748380181 ], [ 6.793741226229258, 5.845862865190441 ], [ 6.793741226229258, 5.851963520335573 ], [ 6.790255069860564, 5.858064651480959 ], [ 6.787204741788003, 5.865909099810892 ], [ 6.790255069860564, 5.872009753956036 ], [ 6.797663688894374, 5.882032870766238 ], [ 6.804636001631707, 5.887698173615547 ], [ 6.811172962073272, 5.895106315649059 ], [ 6.816838263922591, 5.910358906012448 ], [ 6.819888591995152, 5.918203354342381 ], [ 6.824682236252215, 5.936506270778352 ], [ 6.826373100401042, 5.94440317214395 ], [ 6.83644866924692, 5.936506270778352 ], [ 6.856059073571316, 5.919510365230451 ], [ 6.86913251945407, 5.909487724420558 ], [ 6.894844054923851, 5.898592949018052 ], [ 6.909660815991174, 5.897285461129684 ], [ 6.91009616928693, 5.906001091051564 ], [ 6.914200783075842, 5.916433334139754 ] ] ] ] } },
{ "type": "Feature", "properties": { "fid": 246.0, "OBJECTID": 246.0, "lganame": "Nnewi North", "statecode": "AN", "LGA_UID": "04_14" }, "geometry": { "type": "MultiPolygon", "coordinates": [ [ [ [ 6.946083068738346, 6.020750523018364 ], [ 6.944959163974715, 6.016255378964161 ], [ 6.94408750538247, 6.009282589226473 ], [ 6.94408750538247, 6.003181458081031 ], [ 6.940165519717652, 5.996644973639775 ], [ 6.932321548388074, 5.990979670790466 ], [ 6.922734260873938, 5.982264041868632 ], [ 6.912711143063689, 5.973983765242565 ], [ 6.904431343437977, 5.967883110097489 ], [ 6.898766040588669, 5.961346148655934 ], [ 6.893536568035472, 5.957859993287229 ], [ 6.883513451225269, 5.952630519734043 ], [ 6.877848148375961, 5.95219469143791 ], [ 6.870440006342449, 5.945657729996356 ], [ 6.861605644339932, 5.939201831609864 ], [ 6.864774704493129, 5.953066349030166 ], [ 6.868260859861834, 5.970061778577758 ], [ 6.875233649599522, 5.994029998863027 ], [ 6.878283977672083, 6.002745627784918 ], [ 6.882641791632977, 6.011897087002922 ], [ 6.884820938113648, 6.021049023221224 ], [ 6.889178753074532, 6.028892993550812 ], [ 6.893100738739349, 6.041530609137453 ], [ 6.894408225627728, 6.048939228171264 ], [ 6.892664909443226, 6.055911540908653 ], [ 6.892664909443226, 6.061141014461839 ], [ 6.896720886199091, 6.073711872003116 ], [ 6.902688026253486, 6.070728301975919 ], [ 6.909224986695051, 6.063320159942464 ], [ 6.917504787320752, 6.048503398875141 ], [ 6.92447757705844, 6.032379149919507 ], [ 6.933629036276443, 6.023663520997616 ], [ 6.941908835902154, 6.021049023221224 ], [ 6.946083068738346, 6.020750523018364 ] ] ] ] } },
{ "type": "Feature", "properties": { "fid": 247.0, "OBJECTID": 247.0, "lganame": "Orumba North", "statecode": "AN", "LGA_UID": "04_19" }, "geometry": { "type": "MultiPolygon", "coordinates": [ [ [ [ 7.273106574935468, 6.057219027797032 ], [ 7.264390469013279, 6.05416870072446 ], [ 7.25349616961114, 6.051989555243836 ], [ 7.244344711393126, 6.049375057467387 ], [ 7.235628605470936, 6.051989555243836 ], [ 7.223426819180418, 6.051989555243836 ], [ 7.217325687034986, 6.048503398875141 ], [ 7.209045887409218, 6.049375057467387 ], [ 7.188999652788766, 6.048067569579018 ], [ 7.178104877386261, 6.045453071802626 ], [ 7.162852287022872, 6.033686637807875 ], [ 7.152829170212613, 6.028021335958556 ], [ 7.147600173659782, 6.020613193925101 ], [ 7.150650500732297, 6.017126559556061 ], [ 7.15544414498936, 6.012768744595121 ], [ 7.165903091095743, 6.011897087002922 ], [ 7.168953419168304, 6.00884675993035 ], [ 7.167645931279935, 6.005360602561666 ], [ 7.158058642765809, 5.998387813823967 ], [ 7.150650500732297, 5.994029998863027 ], [ 7.146728516067526, 5.990979670790466 ], [ 7.146545886943443, 5.988787651301095 ], [ 7.139319897033715, 5.991415501086635 ], [ 7.134090424480519, 6.000131130008469 ], [ 7.13278341259246, 6.009282589226473 ], [ 7.130604267111835, 6.017562388852184 ], [ 7.126682281447017, 6.025842667478287 ], [ 7.119273663413253, 6.035429954992367 ], [ 7.114915848452313, 6.044145583914258 ], [ 7.11012220419525, 6.052861213836081 ], [ 7.100970744977246, 6.057219027797032 ], [ 7.089204787982851, 6.057219027797032 ], [ 7.077874184284212, 6.05983400257378 ], [ 7.074388026915528, 6.062012672054095 ], [ 7.060878276736332, 6.063755989238587 ], [ 7.055213450887322, 6.063755989238587 ], [ 7.050419806630259, 6.066370487015035 ], [ 7.051726817518329, 6.072471619160467 ], [ 7.05347013470282, 6.077265263417473 ], [ 7.056956291071515, 6.08685255093161 ], [ 7.066979407881774, 6.099054337222128 ], [ 7.076130867099721, 6.109949111624644 ], [ 7.080924511356784, 6.112564087401381 ], [ 7.089204787982851, 6.114742755881707 ], [ 7.099227904793111, 6.121715545619395 ], [ 7.10881519330718, 6.128252029060604 ], [ 7.11448001915619, 6.133045673317667 ], [ 7.116659163636825, 6.138710976166976 ], [ 7.120145321005509, 6.143940448720173 ], [ 7.124938965262515, 6.149169922273359 ], [ 7.131040096407958, 6.153527737234242 ], [ 7.1371412275534, 6.157014369603246 ], [ 7.139755726329838, 6.159628868379684 ], [ 7.144331455438817, 6.17488145774314 ], [ 7.150868415880382, 6.185340404849455 ], [ 7.152611732064884, 6.199285507324532 ], [ 7.151740074472627, 6.226304053682327 ], [ 7.150997638968192, 6.232611655968071 ], [ 7.156998158045269, 6.230040073220778 ], [ 7.172753333750165, 6.233979224897269 ], [ 7.189296245990306, 6.239493369643867 ], [ 7.199536799948248, 6.234766960432523 ], [ 7.203475951624739, 6.218224049192372 ], [ 7.204263687159937, 6.208770751769293 ], [ 7.208990097371327, 6.202468872487486 ], [ 7.218442916794061, 6.196166992205633 ], [ 7.223957538541015, 6.191440104993944 ], [ 7.224745274076213, 6.178836346430273 ], [ 7.221594333935343, 6.157567023978743 ], [ 7.223957538541015, 6.142599582809112 ], [ 7.229471684287603, 6.127632140639435 ], [ 7.239712715245901, 6.11424016954021 ], [ 7.248377800133426, 6.108726024793611 ], [ 7.249721050046105, 6.106487751272823 ], [ 7.254803181499199, 6.104719639071448 ], [ 7.259596824756215, 6.087724208523866 ], [ 7.263083458125209, 6.070728301975919 ], [ 7.268748759974528, 6.060705185165716 ], [ 7.273106574935468, 6.057219027797032 ] ] ] ] } },
{ "type": "Feature", "properties": { "fid": 253.0, "OBJECTID": 253.0, "lganame": "Oyi", "statecode": "AN", "LGA_UID": "04_21" }, "geometry": { "type": "MultiPolygon", "coordinates": [ [ [ [ 6.96529769879379, 6.317677974766639 ], [ 6.964133739002932, 6.314768790789969 ], [ 6.961955069522617, 6.302567005499441 ], [ 6.956289767673354, 6.289057255320188 ], [ 6.954546452488842, 6.276419639733547 ], [ 6.952803612304649, 6.264217377442662 ], [ 6.952367783008526, 6.253758907336646 ], [ 6.952367783008526, 6.24417161882252 ], [ 6.954414845399413, 6.235164164702383 ], [ 6.952367783008526, 6.229790688051366 ], [ 6.951496124416281, 6.220638751833064 ], [ 6.94713830945534, 6.207129477654121 ], [ 6.944959163974715, 6.202771663693227 ], [ 6.944959163974715, 6.199721335620666 ], [ 6.942344666198323, 6.197978020436153 ], [ 6.934064864572576, 6.191876888290722 ], [ 6.91881227520912, 6.179675102000147 ], [ 6.909660815991174, 6.17488145774314 ], [ 6.90861940428357, 6.170330047650623 ], [ 6.902252196957363, 6.166165828821249 ], [ 6.874361992007266, 6.164422511636758 ], [ 6.863903045900884, 6.165294170229004 ], [ 6.856494903867429, 6.166601658117372 ], [ 6.848214626241372, 6.166601658117372 ], [ 6.844728469872678, 6.167037010413196 ], [ 6.841242312503994, 6.171395302374435 ], [ 6.839063168023358, 6.175317287039263 ], [ 6.83775568013499, 6.179675102000147 ], [ 6.835141182358541, 6.182289599776595 ], [ 6.830347538101535, 6.187519073329781 ], [ 6.822938919067724, 6.194491863067469 ], [ 6.828168391620864, 6.198413848732287 ], [ 6.839498997319481, 6.205386639469964 ], [ 6.84211349509593, 6.211051464318928 ], [ 6.843856812280421, 6.222382069017556 ], [ 6.845818042613018, 6.224997043794303 ], [ 6.851047516166147, 6.229790688051366 ], [ 6.858891487495782, 6.235891342196453 ], [ 6.863685130752856, 6.243299961230264 ], [ 6.867607117417663, 6.24983644467153 ], [ 6.877630234227865, 6.261167049370101 ], [ 6.883731365373308, 6.268139839107789 ], [ 6.89113950740682, 6.274240494252922 ], [ 6.897240638552205, 6.275547981141301 ], [ 6.905956268474085, 6.280341625398364 ], [ 6.909442901843079, 6.283391953470925 ], [ 6.930360317055488, 6.292979716985315 ], [ 6.939511776273491, 6.300387859018826 ], [ 6.951278210268242, 6.311718463717455 ], [ 6.962608813966824, 6.317819117862541 ], [ 6.96529769879379, 6.317677974766639 ] ] ] ] } },
{ "type": "Feature", "properties": { "fid": 273.0, "OBJECTID": 273.0, "lganame": "Awka South", "statecode": "AN", "LGA_UID": "04_06" }, "geometry": { "type": "MultiPolygon", "coordinates": [ [ [ [ 7.147720336741429, 6.242456435657118 ], [ 7.150997638968192, 6.232611655968071 ], [ 7.151740074472627, 6.226304053682327 ], [ 7.152611732064884, 6.199285507324532 ], [ 7.150868415880382, 6.185340404849455 ], [ 7.144331455438817, 6.17488145774314 ], [ 7.139755726329838, 6.159628868379684 ], [ 7.1371412275534, 6.157014369603246 ], [ 7.131040096407958, 6.153527737234242 ], [ 7.124938965262515, 6.149169922273359 ], [ 7.120145321005509, 6.143940448720173 ], [ 7.116659163636825, 6.138710976166976 ], [ 7.11448001915619, 6.133045673317667 ], [ 7.10881519330718, 6.128252029060604 ], [ 7.099227904793111, 6.121715545619395 ], [ 7.089204787982851, 6.114742755881707 ], [ 7.080924511356784, 6.112564087401381 ], [ 7.08179616894904, 6.11517858517783 ], [ 7.0774383539881, 6.1182293892507 ], [ 7.073080540027206, 6.11953640013877 ], [ 7.066979407881774, 6.123458384803541 ], [ 7.061314106032455, 6.126509189876458 ], [ 7.045626163373242, 6.136968135982784 ], [ 7.0395250322278, 6.144812107312418 ], [ 7.036910057451053, 6.15091323945785 ], [ 7.0395250322278, 6.158321381491305 ], [ 7.039960860523934, 6.163115024748379 ], [ 7.041267872411993, 6.170959473078312 ], [ 7.039960860523934, 6.180546760592449 ], [ 7.037781715043309, 6.18882656121815 ], [ 7.035603045562993, 6.199721335620666 ], [ 7.031680583897867, 6.208436965542489 ], [ 7.026015759048846, 6.22020339953724 ], [ 7.023836612568232, 6.224561214498181 ], [ 7.020350456199537, 6.228483200162998 ], [ 7.018607140015035, 6.231533527235513 ], [ 7.018863201189049, 6.23819112775908 ], [ 7.02841234167721, 6.242864131934141 ], [ 7.038435459487459, 6.251579761856021 ], [ 7.047586917705473, 6.258552550593663 ], [ 7.057174206219599, 6.265960692627175 ], [ 7.066761493733679, 6.269011020699736 ], [ 7.078527926728441, 6.267268180515543 ], [ 7.092037200907328, 6.260295390777856 ], [ 7.102060317717587, 6.252451420448267 ], [ 7.111647606231713, 6.24417161882252 ], [ 7.117312908080976, 6.24112081474965 ], [ 7.131693839852176, 6.24112081474965 ], [ 7.147720336741429, 6.242456435657118 ] ] ] ] } },
{ "type": "Feature", "properties": { "fid": 278.0, "OBJECTID": 278.0, "lganame": "Ayamelum", "statecode": "AN", "LGA_UID": "04_07" }, "geometry": { "type": "MultiPolygon", "coordinates": [ [ [ [ 7.049659252113543, 6.474356651222422 ], [ 7.045408249225147, 6.471216202088669 ], [ 7.036256313006845, 6.473830699865061 ], [ 7.033205985934273, 6.466858387127729 ], [ 7.032770156638151, 6.45683527031747 ], [ 7.032770156638151, 6.451605796764284 ], [ 7.029719829565636, 6.447247981803343 ], [ 7.027468204035756, 6.443563461299902 ], [ 7.0251441004566, 6.444197177730473 ], [ 7.009891510093212, 6.436789035697018 ], [ 6.990716934065006, 6.423715590814197 ], [ 6.981354712703762, 6.416490554905124 ], [ 6.971542358036743, 6.425894260294513 ], [ 6.968056201668105, 6.433302879328323 ], [ 6.965441226891301, 6.439839362769533 ], [ 6.951060295120158, 6.435481547808649 ], [ 6.946266650863095, 6.428073405775137 ], [ 6.940165519717652, 6.414563655595884 ], [ 6.932757377684197, 6.41151332852337 ], [ 6.922734260873938, 6.400182723824742 ], [ 6.910531997583064, 6.398004055344416 ], [ 6.88743543589004, 6.393210411087352 ], [ 6.864992618641224, 6.371420860282399 ], [ 6.860957145899306, 6.361516475552833 ], [ 6.858019828903537, 6.368370533209827 ], [ 6.859109401643821, 6.38318729427715 ], [ 6.856059073571316, 6.386673449645798 ], [ 6.857801913755452, 6.394517898975778 ], [ 6.8604168885322, 6.401490210713121 ], [ 6.863903045900884, 6.407591342858552 ], [ 6.860852717828323, 6.417178631372678 ], [ 6.867389202269578, 6.42850923507126 ], [ 6.878283977672083, 6.449862479579792 ], [ 6.883949279521403, 6.46555090023935 ], [ 6.883949279521403, 6.476445674641809 ], [ 6.882641791632977, 6.487775803340128 ], [ 6.883513451225269, 6.497363090854208 ], [ 6.886999606593918, 6.510872841033461 ], [ 6.896586895108044, 6.528304099877175 ], [ 6.900073528477037, 6.540941715463873 ], [ 6.906174182622181, 6.543992518536754 ], [ 6.905738354326047, 6.548786162793817 ], [ 6.900726794920899, 6.557937622011764 ], [ 6.909442901843079, 6.557937622011764 ], [ 6.911621571323394, 6.559680939196255 ], [ 6.909878731139202, 6.564909934749153 ], [ 6.911185741027282, 6.568396568118146 ], [ 6.916851043876591, 6.570575236598415 ], [ 6.92251634572591, 6.573190212375209 ], [ 6.920773028541362, 6.578419684928349 ], [ 6.917286873172714, 6.583649158481535 ], [ 6.920773028541362, 6.588442801738609 ], [ 6.925566672798425, 6.593236445995672 ], [ 6.932103634239979, 6.608489037359107 ], [ 6.936025619904797, 6.61284685132 ], [ 6.941690921754116, 6.619383334761267 ], [ 6.941690921754116, 6.625048636610529 ], [ 6.936897278497042, 6.628534793979213 ], [ 6.933846951424471, 6.640301227973964 ], [ 6.935589789608684, 6.642915725750413 ], [ 6.937768936089299, 6.648581027599732 ], [ 6.937333106793176, 6.653374671856739 ], [ 6.939947604569625, 6.660783290890549 ], [ 6.936897278497042, 6.666012764443735 ], [ 6.934718132016428, 6.673420906477247 ], [ 6.937768936089299, 6.675600051957872 ], [ 6.945177078122811, 6.680829524511068 ], [ 6.94387006823473, 6.686930179656144 ], [ 6.930796146351611, 6.690852642321261 ], [ 6.931667804943856, 6.698696612650906 ], [ 6.94387006823473, 6.706104754684361 ], [ 6.956507682821382, 6.710027218349524 ], [ 6.968709469111957, 6.711334229237536 ], [ 6.982655047587286, 6.713077545422038 ], [ 6.990934849213033, 6.713077545422038 ], [ 7.007494450464492, 6.708719730461155 ], [ 7.016646384682815, 6.706104754684361 ], [ 7.031898499045894, 6.696517467170281 ], [ 7.046279429817105, 6.687366008952267 ], [ 7.050637721778344, 6.682572364695204 ], [ 7.060660361588248, 6.684315680879706 ], [ 7.070247650102374, 6.685623168768132 ], [ 7.090293883722836, 6.677342892142065 ], [ 7.101624489421454, 6.675600051957872 ], [ 7.116877078784853, 6.666448592739869 ], [ 7.129078865075428, 6.659475803002181 ], [ 7.132565498444421, 6.652067660968726 ], [ 7.131693839852176, 6.643351555046536 ], [ 7.128643035779305, 6.635507583716901 ], [ 7.124721050114488, 6.625920296202821 ], [ 7.117748737377099, 6.615461349096449 ], [ 7.115569591896474, 6.603259562805931 ], [ 7.109468459751042, 6.593236445995672 ], [ 7.092037200907328, 6.575804710151601 ], [ 7.088551043538644, 6.568832397414269 ], [ 7.08419322957775, 6.562295436972704 ], [ 7.078092098432307, 6.557501792715641 ], [ 7.063275337364985, 6.554887294939249 ], [ 7.055431366035407, 6.545300007425112 ], [ 7.048458576297719, 6.527432442284919 ], [ 7.046279429817105, 6.51217985192153 ], [ 7.046279429817105, 6.500849724223258 ], [ 7.048458576297719, 6.4851613035637 ], [ 7.049659252113543, 6.474356651222422 ] ] ] ] } },
{ "type": "Feature", "properties": { "fid": 293.0, "OBJECTID": 293.0, "lganame": "Ekwusigo", "statecode": "AN", "LGA_UID": "04_09" }, "geometry": { "type": "MultiPolygon", "coordinates": [ [ [ [ 6.896720886199091, 6.073711872003116 ], [ 6.892664909443226, 6.061141014461839 ], [ 6.892664909443226, 6.055911540908653 ], [ 6.894408225627728, 6.048939228171264 ], [ 6.893100738739349, 6.041530609137453 ], [ 6.889178753074532, 6.028892993550812 ], [ 6.884820938113648, 6.021049023221224 ], [ 6.882641791632977, 6.011897087002922 ], [ 6.878283977672083, 6.002745627784918 ], [ 6.875233649599522, 5.994029998863027 ], [ 6.868260859861834, 5.970061778577758 ], [ 6.864774704493129, 5.953066349030166 ], [ 6.861605644339932, 5.939201831609864 ], [ 6.902252196957363, 5.918639182638515 ], [ 6.910531997583064, 5.918203354342381 ], [ 6.914200783075842, 5.916433334139754 ], [ 6.91009616928693, 5.906001091051564 ], [ 6.909660815991174, 5.897285461129684 ], [ 6.894844054923851, 5.898592949018052 ], [ 6.86913251945407, 5.909487724420558 ], [ 6.856059073571316, 5.919510365230451 ], [ 6.83644866924692, 5.936506270778352 ], [ 6.826373100401042, 5.94440317214395 ], [ 6.824035167812553, 5.946235657389025 ], [ 6.819016933402906, 5.95219469143791 ], [ 6.81248044996164, 5.964832306024562 ], [ 6.812916279257763, 5.970933437170004 ], [ 6.811172962073272, 5.983571052756702 ], [ 6.802457333151438, 5.993158340270782 ], [ 6.798534870486321, 6.004053115673287 ], [ 6.795920371709883, 6.016255378964161 ], [ 6.792870044637311, 6.030636310735304 ], [ 6.787204741788003, 6.045453071802626 ], [ 6.784153937715132, 6.058090687389267 ], [ 6.788512229676371, 6.05416870072446 ], [ 6.79548454341375, 6.048939228171264 ], [ 6.800278186670823, 6.045017241506457 ], [ 6.808557987296524, 6.045453071802626 ], [ 6.816838263922591, 6.044145583914258 ], [ 6.821631908179654, 6.041530609137453 ], [ 6.831219195693734, 6.042402266729709 ], [ 6.846907616353292, 6.041966438433633 ], [ 6.854751586682937, 6.044145583914258 ], [ 6.864338875197006, 6.048503398875141 ], [ 6.869568347750203, 6.052861213836081 ], [ 6.876540661487581, 6.058962344981524 ], [ 6.881334304744598, 6.06419181753472 ], [ 6.889178753074532, 6.071599959568175 ], [ 6.895715236515798, 6.075521946232982 ], [ 6.896720886199091, 6.073711872003116 ] ] ] ] } },
{ "type": "Feature", "properties": { "fid": 295.0, "OBJECTID": 295.0, "lganame": "Idemili North", "statecode": "AN", "LGA_UID": "04_10" }, "geometry": { "type": "MultiPolygon", "coordinates": [ [ [ [ 6.90861940428357, 6.170330047650623 ], [ 6.91140365617531, 6.169216155893821 ], [ 6.91881227520912, 6.163115024748379 ], [ 6.924912930354253, 6.159193039083561 ], [ 6.935807704756712, 6.150041579865558 ], [ 6.94713830945534, 6.140454292351478 ], [ 6.955853939377221, 6.136096478390527 ], [ 6.961955069522617, 6.136096478390527 ], [ 6.968254088802553, 6.138195991817042 ], [ 6.970234871148364, 6.135224818798292 ], [ 6.973285198220935, 6.129559516948973 ], [ 6.974891186312107, 6.123594760896196 ], [ 6.972414016628989, 6.123023032507774 ], [ 6.968056201668105, 6.119100570842647 ], [ 6.958468914153968, 6.114306926585584 ], [ 6.952803612304649, 6.108206272440441 ], [ 6.939293861125407, 6.097311497037992 ], [ 6.934500216868344, 6.090774535596438 ], [ 6.922298430577825, 6.090774535596438 ], [ 6.911839485471432, 6.094260692965122 ], [ 6.903559684845732, 6.099490165518262 ], [ 6.890921593258724, 6.106027125959827 ], [ 6.884385108817526, 6.10515546836757 ], [ 6.874797821303389, 6.097747326334115 ], [ 6.865646362085386, 6.094260692965122 ], [ 6.854315758386804, 6.098618983926372 ], [ 6.843856812280421, 6.101233481702764 ], [ 6.831655024989914, 6.103412628183378 ], [ 6.8225035667719, 6.102976798887255 ], [ 6.81248044996164, 6.099490165518262 ], [ 6.801149845263069, 6.098618983926372 ], [ 6.797227858598262, 6.10079765340663 ], [ 6.790690899156687, 6.103847980479202 ], [ 6.79193401300131, 6.107904434235365 ], [ 6.795920371709883, 6.112128258105258 ], [ 6.80507183092783, 6.119100570842647 ], [ 6.811608791369395, 6.123894215099654 ], [ 6.813351630553598, 6.129559516948973 ], [ 6.819016933402906, 6.139582633759233 ], [ 6.8225035667719, 6.148734092977236 ], [ 6.827297211028963, 6.160500525971941 ], [ 6.82686138173284, 6.166601658117372 ], [ 6.829475879509289, 6.173138141558638 ], [ 6.832090855286026, 6.178367615111767 ], [ 6.835141182358541, 6.182289599776595 ], [ 6.83775568013499, 6.179675102000147 ], [ 6.839063168023358, 6.175317287039263 ], [ 6.841242312503994, 6.171395302374435 ], [ 6.844728469872678, 6.167037010413196 ], [ 6.848214626241372, 6.166601658117372 ], [ 6.856494903867429, 6.166601658117372 ], [ 6.863903045900884, 6.165294170229004 ], [ 6.874361992007266, 6.164422511636758 ], [ 6.902252196957363, 6.166165828821249 ], [ 6.90861940428357, 6.170330047650623 ] ] ] ] } },
{ "type": "Feature", "properties": { "fid": 299.0, "OBJECTID": 299.0, "lganame": "Anambra East", "statecode": "AN", "LGA_UID": "04_02" }, "geometry": { "type": "MultiPolygon", "coordinates": [ [ [ [ 6.981354712703762, 6.416490554905124 ], [ 6.980911732402831, 6.414128304300107 ], [ 6.975246428553476, 6.410641669931124 ], [ 6.971324443888705, 6.405848025674061 ], [ 6.962390899818786, 6.384058951869406 ], [ 6.961083411930417, 6.374907493651392 ], [ 6.964133739002932, 6.366191386729213 ], [ 6.968491553963872, 6.354425429734817 ], [ 6.970234871148364, 6.348324298589375 ], [ 6.968491553963872, 6.340480328259787 ], [ 6.967184544075849, 6.332635879929853 ], [ 6.96674871377968, 6.321305752231524 ], [ 6.96529769879379, 6.317677974766639 ], [ 6.962608813966824, 6.317819117862541 ], [ 6.951278210268242, 6.311718463717455 ], [ 6.939511776273491, 6.300387859018826 ], [ 6.930360317055488, 6.292979716985315 ], [ 6.909442901843079, 6.283391953470925 ], [ 6.905956268474085, 6.280341625398364 ], [ 6.897240638552205, 6.275547981141301 ], [ 6.89113950740682, 6.274240494252922 ], [ 6.883731365373308, 6.268139839107789 ], [ 6.877630234227865, 6.261167049370101 ], [ 6.867607117417663, 6.24983644467153 ], [ 6.863685130752856, 6.243299961230264 ], [ 6.858891487495782, 6.235891342196453 ], [ 6.851047516166147, 6.229790688051366 ], [ 6.845818042613018, 6.224997043794303 ], [ 6.843856812280421, 6.222382069017556 ], [ 6.84211349509593, 6.211051464318928 ], [ 6.839498997319481, 6.205386639469964 ], [ 6.828168391620864, 6.198413848732287 ], [ 6.822938919067724, 6.194491863067469 ], [ 6.818651199154374, 6.191106795767496 ], [ 6.815966606330335, 6.190569878402641 ], [ 6.804200172335584, 6.192312716586855 ], [ 6.795048714117627, 6.192748546882967 ], [ 6.786768913491869, 6.190134048106529 ], [ 6.781200408708344, 6.189338206565822 ], [ 6.783282757123231, 6.192312716586855 ], [ 6.786333084195746, 6.208872794838612 ], [ 6.790037154712479, 6.239377974565457 ], [ 6.79221630119315, 6.24983644467153 ], [ 6.79875278463436, 6.263346194850726 ], [ 6.802239418003353, 6.275983810437424 ], [ 6.809647560036865, 6.286878585839872 ], [ 6.82054233643936, 6.293415070281128 ], [ 6.828386306768948, 6.310410975829029 ], [ 6.831001281545696, 6.326099396488587 ], [ 6.83448743791439, 6.33742952318687 ], [ 6.840588570059822, 6.347888470293242 ], [ 6.860198975384151, 6.359654903288003 ], [ 6.860957145899306, 6.361516475552833 ], [ 6.864992618641224, 6.371420860282399 ], [ 6.88743543589004, 6.393210411087352 ], [ 6.910531997583064, 6.398004055344416 ], [ 6.922734260873938, 6.400182723824742 ], [ 6.932757377684197, 6.41151332852337 ], [ 6.940165519717652, 6.414563655595884 ], [ 6.946266650863095, 6.428073405775137 ], [ 6.951060295120158, 6.435481547808649 ], [ 6.965441226891301, 6.439839362769533 ], [ 6.968056201668105, 6.433302879328323 ], [ 6.971542358036743, 6.425894260294513 ], [ 6.981354712703762, 6.416490554905124 ] ] ] ] } },
{ "type": "Feature", "properties": { "fid": 316.0, "OBJECTID": 316.0, "lganame": "Aguata", "statecode": "AN", "LGA_UID": "04_01" }, "geometry": { "type": "MultiPolygon", "coordinates": [ [ [ [ 7.146545886943443, 5.988787651301095 ], [ 7.146292685771414, 5.985750198237326 ], [ 7.150214672436221, 5.978341579203516 ], [ 7.152829170212613, 5.97311210565033 ], [ 7.153264998508746, 5.96308898884007 ], [ 7.153700828804858, 5.953937530622113 ], [ 7.15544414498936, 5.946529387588612 ], [ 7.164595604207364, 5.938685417259023 ], [ 7.170260906056683, 5.934327126297774 ], [ 7.175490378609879, 5.932148456817458 ], [ 7.190742969973257, 5.923868656191701 ], [ 7.202844620195776, 5.920961857216696 ], [ 7.201786518476865, 5.918901919817074 ], [ 7.200787066797773, 5.916957378495852 ], [ 7.199027537602262, 5.913812160358816 ], [ 7.198138236998034, 5.911522387803018 ], [ 7.196084498602602, 5.907804966277183 ], [ 7.195188521993828, 5.904941082331334 ], [ 7.193149089608141, 5.902371882585669 ], [ 7.19140386642232, 5.900374889228829 ], [ 7.188812732661745, 5.899531363655683 ], [ 7.186522961105993, 5.899834155861413 ], [ 7.18281793558856, 5.901581764048842 ], [ 7.179969310653064, 5.903036594037303 ], [ 7.17797708529946, 5.904198646826842 ], [ 7.175132275366536, 5.90594053301038 ], [ 7.172570228625773, 5.907392978997279 ], [ 7.170574188269541, 5.908267974591809 ], [ 7.168295382721169, 5.909431458382301 ], [ 7.164876938398493, 5.911177157568432 ], [ 7.162304400650612, 5.911769389970857 ], [ 7.159161567515184, 5.912652015570529 ], [ 7.156592368769566, 5.913530350167321 ], [ 7.154596806413679, 5.91440534576185 ], [ 7.152030944670287, 5.915571212553971 ], [ 7.149178981732518, 5.916738987347458 ], [ 7.146323203792122, 5.917619704945821 ], [ 7.142893791462029, 5.91850423754687 ], [ 7.138314247350422, 5.919109820958283 ], [ 7.135741710602474, 5.919702053360709 ], [ 7.132874965654707, 5.919721603374001 ], [ 7.13058137909627, 5.919737339384653 ], [ 7.128574847732978, 5.919751167394054 ], [ 7.126574993374163, 5.920339107793552 ], [ 7.124572277013385, 5.920639991997973 ], [ 7.121142863683247, 5.921524524598965 ], [ 7.118853092127495, 5.921827315804705 ], [ 7.116570472576541, 5.922704220400533 ], [ 7.112009525477617, 5.924744605786884 ], [ 7.109726905926664, 5.925621510382712 ], [ 7.107727527568159, 5.926209449782164 ], [ 7.103721141846052, 5.926811218191062 ], [ 7.099137782731873, 5.927129745407456 ], [ 7.097131252368513, 5.927143574416846 ], [ 7.093985081230812, 5.927739142821508 ], [ 7.09140491547771, 5.927756785833537 ], [ 7.088828563727247, 5.92806148504053 ], [ 7.085679053587285, 5.928370476250507 ], [ 7.083106040839027, 5.92896223065253 ], [ 7.08053302809077, 5.9295539860546 ], [ 7.077960491342878, 5.93014574145667 ], [ 7.075957297981802, 5.930446624661158 ], [ 7.073087215031705, 5.930179119479362 ], [ 7.070797443475897, 5.930481910685103 ], [ 7.068220614725078, 5.930787085892462 ], [ 7.065357684779883, 5.931093693100763 ], [ 7.062781334029353, 5.931398392307813 ], [ 7.060201168276251, 5.931416035319785 ], [ 7.056444644723854, 5.930613517774532 ], [ 7.05913543655214, 5.938685417259023 ], [ 7.06349325151308, 5.94347906051604 ], [ 7.065671920993395, 5.950451374253419 ], [ 7.064364910105326, 5.959602833471422 ], [ 7.060878276736332, 5.967011451505186 ], [ 7.048676491445747, 5.9761629097232 ], [ 7.039089202931677, 5.982699394164456 ], [ 7.019478797607292, 5.988800526309888 ], [ 7.002918720355524, 5.994901657455273 ], [ 6.992895602545275, 5.996644973639775 ], [ 6.988101959288201, 5.999695300712347 ], [ 6.984179973623441, 6.004924774265533 ], [ 6.982437134439238, 6.017562388852184 ], [ 6.983145713920692, 6.02039670877798 ], [ 6.987666606992434, 6.021484374517001 ], [ 6.991588592657251, 6.023227691701493 ], [ 6.997253894506514, 6.02714967736631 ], [ 7.010327339389335, 6.034558296400121 ], [ 7.016863822830544, 6.039787768953317 ], [ 7.02122211479184, 6.045453071802626 ], [ 7.024272441864355, 6.04981088576352 ], [ 7.028194426529183, 6.04981088576352 ], [ 7.033859730378481, 6.051553725947713 ], [ 7.040832520116169, 6.055911540908653 ], [ 7.046933174261255, 6.061141014461839 ], [ 7.050419806630259, 6.066370487015035 ], [ 7.055213450887322, 6.063755989238587 ], [ 7.060878276736332, 6.063755989238587 ], [ 7.074388026915528, 6.062012672054095 ], [ 7.077874184284212, 6.05983400257378 ], [ 7.089204787982851, 6.057219027797032 ], [ 7.100970744977246, 6.057219027797032 ], [ 7.11012220419525, 6.052861213836081 ], [ 7.114915848452313, 6.044145583914258 ], [ 7.119273663413253, 6.035429954992367 ], [ 7.126682281447017, 6.025842667478287 ], [ 7.130604267111835, 6.017562388852184 ], [ 7.13278341259246, 6.009282589226473 ], [ 7.134090424480519, 6.000131130008469 ], [ 7.139319897033715, 5.991415501086635 ], [ 7.146545886943443, 5.988787651301095 ] ] ] ] } },
{ "type": "Feature", "properties": { "fid": 331.0, "OBJECTID": 331.0, "lganame": "Orumba South", "statecode": "AN", "LGA_UID": "04_20" }, "geometry": { "type": "MultiPolygon", "coordinates": [ [ [ [ 7.339062690749529, 6.042149543558025 ], [ 7.338269234210429, 6.036199092514948 ], [ 7.333034514653662, 6.031440258281577 ], [ 7.322564601539852, 6.003838538527475 ], [ 7.318281650629785, 5.998603343970444 ], [ 7.30162525231259, 5.998127459647094 ], [ 7.283065795702271, 5.998603343970444 ], [ 7.272595881588472, 5.997651577323722 ], [ 7.264029979768338, 5.991465092120336 ], [ 7.259271144534921, 5.977664470743434 ], [ 7.25451231030155, 5.965291023336249 ], [ 7.25641584359488, 5.950538635312682 ], [ 7.260983943698704, 5.938930988425852 ], [ 7.259231566508049, 5.936359881678925 ], [ 7.256916522935114, 5.934653758519687 ], [ 7.253458022585221, 5.93324232056068 ], [ 7.251153946019713, 5.932396888986261 ], [ 7.248566628261756, 5.931840896608492 ], [ 7.245119571919588, 5.931290627234603 ], [ 7.240536212805466, 5.931609154450996 ], [ 7.237959862054936, 5.931913852658056 ], [ 7.235960483696431, 5.932501793057497 ], [ 7.232240677168988, 5.933101177464778 ], [ 7.228797435829506, 5.93283796328592 ], [ 7.226500034268497, 5.932566643101609 ], [ 7.223056792929015, 5.93230390492306 ], [ 7.220468998170702, 5.931747436544981 ], [ 7.217018126826019, 5.930910109976026 ], [ 7.215004444457804, 5.930349826595375 ], [ 7.212119579497653, 5.92893457363374 ], [ 7.209517478729651, 5.927230358475811 ], [ 7.207779407548742, 5.925806998508733 ], [ 7.206037998365503, 5.924097061346913 ], [ 7.202844620195776, 5.920961857216696 ], [ 7.190742969973257, 5.923868656191701 ], [ 7.175490378609879, 5.932148456817458 ], [ 7.170260906056683, 5.934327126297774 ], [ 7.164595604207364, 5.938685417259023 ], [ 7.15544414498936, 5.946529387588612 ], [ 7.153700828804858, 5.953937530622113 ], [ 7.153264998508746, 5.96308898884007 ], [ 7.152829170212613, 5.97311210565033 ], [ 7.150214672436221, 5.978341579203516 ], [ 7.146292685771414, 5.985750198237326 ], [ 7.146545886943443, 5.988787651301095 ], [ 7.146728516067526, 5.990979670790466 ], [ 7.150650500732297, 5.994029998863027 ], [ 7.158058642765809, 5.998387813823967 ], [ 7.167645931279935, 6.005360602561666 ], [ 7.168953419168304, 6.00884675993035 ], [ 7.165903091095743, 6.011897087002922 ], [ 7.15544414498936, 6.012768744595121 ], [ 7.150650500732297, 6.017126559556061 ], [ 7.147600173659782, 6.020613193925101 ], [ 7.152829170212613, 6.028021335958556 ], [ 7.162852287022872, 6.033686637807875 ], [ 7.178104877386261, 6.045453071802626 ], [ 7.188999652788766, 6.048067569579018 ], [ 7.209045887409218, 6.049375057467387 ], [ 7.217325687034986, 6.048503398875141 ], [ 7.223426819180418, 6.051989555243836 ], [ 7.235628605470936, 6.051989555243836 ], [ 7.244344711393126, 6.049375057467387 ], [ 7.25349616961114, 6.051989555243836 ], [ 7.264390469013279, 6.05416870072446 ], [ 7.273106574935468, 6.057219027797032 ], [ 7.289230346890804, 6.048939228171264 ], [ 7.301868439477801, 6.045017241506457 ], [ 7.310148239103512, 6.045017241506457 ], [ 7.328451156539529, 6.042402266729709 ], [ 7.339062690749529, 6.042149543558025 ] ] ] ] } },
{ "type": "Feature", "properties": { "fid": 369.0, "OBJECTID": 369.0, "lganame": "Anambra West", "statecode": "AN", "LGA_UID": "04_03" }, "geometry": { "type": "MultiPolygon", "coordinates": [ [ [ [ 6.781200408708344, 6.189338206565822 ], [ 6.762889385266874, 6.185385703880229 ], [ 6.75365209599056, 6.192818164930259 ], [ 6.742698192547891, 6.209370136176574 ], [ 6.735824107877306, 6.225955963445813 ], [ 6.731006144603725, 6.239092827371735 ], [ 6.726152897306122, 6.259857178480104 ], [ 6.725022315537956, 6.265763283493072 ], [ 6.723369122414681, 6.274396896359178 ], [ 6.721268176987223, 6.288249015771044 ], [ 6.719175815565563, 6.300021171769686 ], [ 6.718441010066272, 6.312497139246489 ], [ 6.717024803104039, 6.324967860719767 ], [ 6.71492385867657, 6.338819981131621 ], [ 6.712820053247128, 6.353365898014886 ], [ 6.70731210650473, 6.36857700335014 ], [ 6.699773788382799, 6.381690025259843 ], [ 6.697680949960784, 6.393462181258428 ], [ 6.694902897073234, 6.406614780195014 ], [ 6.692131042189885, 6.418381214189765 ], [ 6.688670157838374, 6.432221888593858 ], [ 6.685224056496907, 6.442595004641873 ], [ 6.681765079146714, 6.455741881574568 ], [ 6.673863887778225, 6.468333244129838 ], [ 6.671113490909477, 6.484836578343049 ], [ 6.66892099441975, 6.50123405548436 ], [ 6.664700984552439, 6.532356261630468 ], [ 6.683923243613094, 6.543120860944498 ], [ 6.717042923116367, 6.550093650682186 ], [ 6.743190288882261, 6.557501792715641 ], [ 6.764108181094969, 6.563602923861083 ], [ 6.793305873933434, 6.572318553782964 ], [ 6.808122635000757, 6.580162525112542 ], [ 6.808993815592657, 6.598030090252735 ], [ 6.808993815592657, 6.615897179392562 ], [ 6.80507183092783, 6.63681507060528 ], [ 6.803105451591819, 6.654514635631301 ], [ 6.80289316244756, 6.656425475929666 ], [ 6.800714015966946, 6.669934750108553 ], [ 6.798970698782398, 6.679522037622689 ], [ 6.800278186670823, 6.693467140097709 ], [ 6.806379317816209, 6.703054427611846 ], [ 6.819452762699029, 6.712641716125916 ], [ 6.833833694470172, 6.722229003640052 ], [ 6.84211349509593, 6.73050880426581 ], [ 6.853008270498435, 6.74445390674083 ], [ 6.859981060236123, 6.75317001266302 ], [ 6.868260859861834, 6.755348682143335 ], [ 6.878283977672083, 6.760578155696521 ], [ 6.8830776209291, 6.768422604026455 ], [ 6.884820938113648, 6.772780417987349 ], [ 6.896804810256128, 6.792390823311734 ], [ 6.912057399619528, 6.800670623937435 ], [ 6.923388004318156, 6.801978110825814 ], [ 6.931231975647734, 6.788033009350784 ], [ 6.932072639218916, 6.767693519531065 ], [ 6.933411121128358, 6.735302447522827 ], [ 6.932975291832236, 6.722664832936175 ], [ 6.932539462536113, 6.710898398941424 ], [ 6.931667804943856, 6.698696612650906 ], [ 6.930796146351611, 6.690852642321261 ], [ 6.94387006823473, 6.686930179656144 ], [ 6.945177078122811, 6.680829524511068 ], [ 6.937768936089299, 6.675600051957872 ], [ 6.934718132016428, 6.673420906477247 ], [ 6.936897278497042, 6.666012764443735 ], [ 6.939947604569625, 6.660783290890549 ], [ 6.937333106793176, 6.653374671856739 ], [ 6.937768936089299, 6.648581027599732 ], [ 6.935589789608684, 6.642915725750413 ], [ 6.933846951424471, 6.640301227973964 ], [ 6.936897278497042, 6.628534793979213 ], [ 6.941690921754116, 6.625048636610529 ], [ 6.941690921754116, 6.619383334761267 ], [ 6.936025619904797, 6.61284685132 ], [ 6.932103634239979, 6.608489037359107 ], [ 6.925566672798425, 6.593236445995672 ], [ 6.920773028541362, 6.588442801738609 ], [ 6.917286873172714, 6.583649158481535 ], [ 6.920773028541362, 6.578419684928349 ], [ 6.92251634572591, 6.573190212375209 ], [ 6.916851043876591, 6.570575236598415 ], [ 6.911185741027282, 6.568396568118146 ], [ 6.909878731139202, 6.564909934749153 ], [ 6.911621571323394, 6.559680939196255 ], [ 6.909442901843079, 6.557937622011764 ], [ 6.900726794920899, 6.557937622011764 ], [ 6.905738354326047, 6.548786162793817 ], [ 6.906174182622181, 6.543992518536754 ], [ 6.900073528477037, 6.540941715463873 ], [ 6.896586895108044, 6.528304099877175 ], [ 6.886999606593918, 6.510872841033461 ], [ 6.883513451225269, 6.497363090854208 ], [ 6.882641791632977, 6.487775803340128 ], [ 6.883949279521403, 6.476445674641809 ], [ 6.883949279521403, 6.46555090023935 ], [ 6.878283977672083, 6.449862479579792 ], [ 6.867389202269578, 6.42850923507126 ], [ 6.860852717828323, 6.417178631372678 ], [ 6.863903045900884, 6.407591342858552 ], [ 6.8604168885322, 6.401490210713121 ], [ 6.857801913755452, 6.394517898975778 ], [ 6.856059073571316, 6.386673449645798 ], [ 6.859109401643821, 6.38318729427715 ], [ 6.858019828903537, 6.368370533209827 ], [ 6.860957145899306, 6.361516475552833 ], [ 6.860198975384151, 6.359654903288003 ], [ 6.840588570059822, 6.347888470293242 ], [ 6.83448743791439, 6.33742952318687 ], [ 6.831001281545696, 6.326099396488587 ], [ 6.828386306768948, 6.310410975829029 ], [ 6.82054233643936, 6.293415070281128 ], [ 6.809647560036865, 6.286878585839872 ], [ 6.802239418003353, 6.275983810437424 ], [ 6.79875278463436, 6.263346194850726 ], [ 6.79221630119315, 6.24983644467153 ], [ 6.790037154712479, 6.239377974565457 ], [ 6.786333084195746, 6.208872794838612 ], [ 6.783282757123231, 6.192312716586855 ], [ 6.781200408708344, 6.189338206565822 ] ] ] ] } },
{ "type": "Feature", "properties": { "fid": 499.0, "OBJECTID": 499.0, "lganame": "Onitsha South", "statecode": "AN", "LGA_UID": "04_18" }, "geometry": { "type": "MultiPolygon", "coordinates": [ [ [ [ 6.786333084195746, 6.123458384803541 ], [ 6.778924942162291, 6.123894215099654 ], [ 6.772387980720737, 6.124330044395833 ], [ 6.764108181094969, 6.121715545619395 ], [ 6.755804062452739, 6.123312472704413 ], [ 6.756189345714517, 6.125429153142591 ], [ 6.757986068935281, 6.135294913845939 ], [ 6.760651111746085, 6.147799969342543 ], [ 6.764783858554097, 6.155804633781315 ], [ 6.768030166759786, 6.152656077642007 ], [ 6.78110361064256, 6.151784897050106 ], [ 6.783718586419354, 6.149605750569435 ], [ 6.787640572084115, 6.142632960831804 ], [ 6.787640572084115, 6.136096478390527 ], [ 6.787640572084115, 6.126945019172581 ], [ 6.786333084195746, 6.123458384803541 ] ] ] ] } },
{ "type": "Feature", "properties": { "fid": 635.0, "OBJECTID": 635.0, "lganame": "Njikoka", "statecode": "AN", "LGA_UID": "04_13" }, "geometry": { "type": "MultiPolygon", "coordinates": [ [ [ [ 7.018863201189049, 6.23819112775908 ], [ 7.018607140015035, 6.231533527235513 ], [ 7.020350456199537, 6.228483200162998 ], [ 7.023836612568232, 6.224561214498181 ], [ 7.026015759048846, 6.22020339953724 ], [ 7.031680583897867, 6.208436965542489 ], [ 7.035603045562993, 6.199721335620666 ], [ 7.037781715043309, 6.18882656121815 ], [ 7.039960860523934, 6.180546760592449 ], [ 7.041267872411993, 6.170959473078312 ], [ 7.039960860523934, 6.163115024748379 ], [ 7.0395250322278, 6.158321381491305 ], [ 7.033859730378481, 6.161372184564186 ], [ 7.026451588345026, 6.161372184564186 ], [ 7.016863822830544, 6.160064696675818 ], [ 7.014685154350275, 6.155271053418744 ], [ 7.014249325054152, 6.149169922273359 ], [ 7.012941837165783, 6.14219760853598 ], [ 7.009891510093212, 6.134353161206036 ], [ 7.00379037894777, 6.126509189876458 ], [ 6.991152763361129, 6.123023032507774 ], [ 6.978078842477998, 6.124330044395833 ], [ 6.974891186312107, 6.123594760896196 ], [ 6.973285198220935, 6.129559516948973 ], [ 6.970234871148364, 6.135224818798292 ], [ 6.968254088802553, 6.138195991817042 ], [ 6.965005397595178, 6.145247935608552 ], [ 6.954982280784975, 6.15614271201099 ], [ 6.949752808231779, 6.164858340932881 ], [ 6.944523334678593, 6.170959473078312 ], [ 6.942780495494446, 6.176624297927276 ], [ 6.944523334678593, 6.181853771480462 ], [ 6.950188636527912, 6.189698218810406 ], [ 6.954982280784975, 6.195799350955838 ], [ 6.964569569299101, 6.200157165916778 ], [ 6.971978188332855, 6.202771663693227 ], [ 6.979386330366367, 6.20320749298935 ], [ 6.986359119104065, 6.208001137246356 ], [ 6.981565474847002, 6.214102268391798 ], [ 6.972849845925111, 6.218024254056616 ], [ 6.969799041852241, 6.222382069017556 ], [ 6.967184544075849, 6.227175713274619 ], [ 6.958468914153968, 6.233712672716138 ], [ 6.954414845399413, 6.235164164702383 ], [ 6.952367783008526, 6.24417161882252 ], [ 6.956071853525259, 6.243735789526397 ], [ 6.966530799631641, 6.251143931559909 ], [ 6.970016956000336, 6.251579761856021 ], [ 6.976118088145768, 6.24852943378346 ], [ 6.98221921929121, 6.243299961230264 ], [ 6.986577034252093, 6.236762999788709 ], [ 6.99180650680529, 6.23458433230843 ], [ 6.996600151062353, 6.23545551290033 ], [ 7.001829623615549, 6.24417161882252 ], [ 7.006623267872612, 6.252451420448267 ], [ 7.008366108056748, 6.255501746520792 ], [ 7.011852741425741, 6.2528872487444 ], [ 7.013159752313811, 6.246350288302835 ], [ 7.016646384682815, 6.240684986453516 ], [ 7.018863201189049, 6.23819112775908 ] ] ] ] } },
{ "type": "Feature", "properties": { "fid": 719.0, "OBJECTID": 719.0, "lganame": "Dunukofia", "statecode": "AN", "LGA_UID": "04_08" }, "geometry": { "type": "MultiPolygon", "coordinates": [ [ [ [ 7.008366108056748, 6.255501746520792 ], [ 7.006623267872612, 6.252451420448267 ], [ 7.001829623615549, 6.24417161882252 ], [ 6.996600151062353, 6.23545551290033 ], [ 6.99180650680529, 6.23458433230843 ], [ 6.986577034252093, 6.236762999788709 ], [ 6.98221921929121, 6.243299961230264 ], [ 6.976118088145768, 6.24852943378346 ], [ 6.970016956000336, 6.251579761856021 ], [ 6.966530799631641, 6.251143931559909 ], [ 6.956071853525259, 6.243735789526397 ], [ 6.952367783008526, 6.24417161882252 ], [ 6.952367783008526, 6.253758907336646 ], [ 6.952803612304649, 6.264217377442662 ], [ 6.954546452488842, 6.276419639733547 ], [ 6.956289767673354, 6.289057255320188 ], [ 6.961955069522617, 6.302567005499441 ], [ 6.964133739002932, 6.314768790789969 ], [ 6.96529769879379, 6.317677974766639 ], [ 6.970888614592582, 6.317383288566418 ], [ 6.978296756626037, 6.314332962493836 ], [ 6.987884045140163, 6.30387401638751 ], [ 6.992677689397226, 6.29515838646563 ], [ 6.998778819542679, 6.282956600175112 ], [ 7.002700806207486, 6.271190166180361 ], [ 7.006187438576433, 6.261602878666224 ], [ 7.008366108056748, 6.255501746520792 ] ] ], [ [ [ 6.968254088802553, 6.138195991817042 ], [ 6.961955069522617, 6.136096478390527 ], [ 6.955853939377221, 6.136096478390527 ], [ 6.94713830945534, 6.140454292351478 ], [ 6.935807704756712, 6.150041579865558 ], [ 6.924912930354253, 6.159193039083561 ], [ 6.91881227520912, 6.163115024748379 ], [ 6.91140365617531, 6.169216155893821 ], [ 6.90861940428357, 6.170330047650623 ], [ 6.909660815991174, 6.17488145774314 ], [ 6.91881227520912, 6.179675102000147 ], [ 6.934064864572576, 6.191876888290722 ], [ 6.942344666198323, 6.197978020436153 ], [ 6.944959163974715, 6.199721335620666 ], [ 6.944959163974715, 6.202771663693227 ], [ 6.94713830945534, 6.207129477654121 ], [ 6.951496124416281, 6.220638751833064 ], [ 6.952367783008526, 6.229790688051366 ], [ 6.954414845399413, 6.235164164702383 ], [ 6.958468914153968, 6.233712672716138 ], [ 6.967184544075849, 6.227175713274619 ], [ 6.969799041852241, 6.222382069017556 ], [ 6.972849845925111, 6.218024254056616 ], [ 6.981565474847002, 6.214102268391798 ], [ 6.986359119104065, 6.208001137246356 ], [ 6.979386330366367, 6.20320749298935 ], [ 6.971978188332855, 6.202771663693227 ], [ 6.964569569299101, 6.200157165916778 ], [ 6.954982280784975, 6.195799350955838 ], [ 6.950188636527912, 6.189698218810406 ], [ 6.944523334678593, 6.181853771480462 ], [ 6.942780495494446, 6.176624297927276 ], [ 6.944523334678593, 6.170959473078312 ], [ 6.949752808231779, 6.164858340932881 ], [ 6.954982280784975, 6.15614271201099 ], [ 6.965005397595178, 6.145247935608552 ], [ 6.968254088802553, 6.138195991817042 ] ] ] ] } }
]
}
