{
"type": "FeatureCollection",
"name": "Bayelsa",
"crs": { "type": "name", "properties": { "name": "urn:ogc:def:crs:OGC:1.3:CRS84" } },
"features": [
{ "type": "Feature", "properties": { "fid": 100.0, "OBJECTID": 100.0, "lganame": "Nembe", "statecode": "BY", "LGA_UID": "06_04" }, "geometry": { "type": "MultiPolygon", "coordinates": [ [ [ [ 6.321376801279825, 4.641861916128391 ], [ 6.326653956865414, 4.630152225172196 ], [ 6.338386058836818, 4.620650767716427 ], [ 6.350300788932316, 4.620904921889064 ], [ 6.364497184578113, 4.620655059719297 ], [ 6.386468886506805, 4.619801998139678 ], [ 6.389782905758523, 4.601156235470796 ], [ 6.393124104028743, 4.583903789748547 ], [ 6.396613121399355, 4.57454919839256 ], [ 6.408126831222376, 4.553433895045714 ], [ 6.409255980989599, 4.540402889191739 ], [ 6.410377025751302, 4.526907921022541 ], [ 6.421019076982077, 4.508131981265194 ], [ 6.423996925005383, 4.495997906020648 ], [ 6.425197123820851, 4.486682891691544 ], [ 6.42894315736612, 4.466636181070726 ], [ 6.429904938019604, 4.460420131847229 ], [ 6.431394100031412, 4.450792789305865 ], [ 6.432003975445809, 4.434518814248463 ], [ 6.429927826035112, 4.421544075432791 ], [ 6.422305106855845, 4.405879020789087 ], [ 6.415235043052064, 4.395317077612731 ], [ 6.407699107931762, 4.384296894125043 ], [ 6.392006874269612, 4.378068923893466 ], [ 6.379633903862782, 4.377822875726281 ], [ 6.364418029524302, 4.372515202119928 ], [ 6.354670047901038, 4.365716933500835 ], [ 6.337683201359255, 4.363694191126513 ], [ 6.32347011570215, 4.363015174665122 ], [ 6.303779125323047, 4.363362788901327 ], [ 6.296351965276642, 4.367440553671941 ], [ 6.281947219489268, 4.375349252045567 ], [ 6.270473506693406, 4.391401469952257 ], [ 6.254709577982567, 4.378017001858154 ], [ 6.252181401264806, 4.363740236157753 ], [ 6.24712504582925, 4.359278746126392 ], [ 6.240843268561093, 4.360469467935445 ], [ 6.242960989999972, 4.372514498119472 ], [ 6.246530181425044, 4.400473165116068 ], [ 6.239578612701791, 4.410481930916546 ], [ 6.238737705130461, 4.41284410852154 ], [ 6.226205361615314, 4.426029831480605 ], [ 6.221223831230589, 4.43127107604181 ], [ 6.200705051289049, 4.436279774444984 ], [ 6.187468052295117, 4.438837051182531 ], [ 6.174345016378652, 4.447432995023064 ], [ 6.161196232444638, 4.454635142916572 ], [ 6.150812149389139, 4.462718010408537 ], [ 6.145734786939329, 4.485113143624972 ], [ 6.145978928105194, 4.498118877461764 ], [ 6.146681785582757, 4.51111793529401 ], [ 6.152342796429139, 4.519846916224935 ], [ 6.158064842317003, 4.531827927365441 ], [ 6.164867877939344, 4.552618980492014 ], [ 6.159706116432176, 4.566572188972543 ], [ 6.1690292357668, 4.579031944438384 ], [ 6.173306941673331, 4.587320805070249 ], [ 6.179451941848527, 4.597434997942401 ], [ 6.186954020945848, 4.60659599316682 ], [ 6.193117142133417, 4.617640017670738 ], [ 6.201821804047825, 4.642115116300431 ], [ 6.224243164282086, 4.64078998640008 ], [ 6.233982085899186, 4.647122859702961 ], [ 6.25117015757769, 4.659831047337548 ], [ 6.26866722146616, 4.664632796600131 ], [ 6.272655009175651, 4.664075576221535 ], [ 6.280088902226623, 4.663036822515721 ], [ 6.292901992932514, 4.662345886046296 ], [ 6.293621778421596, 4.662142890908342 ], [ 6.305205822292407, 4.658875941688621 ], [ 6.307950705157396, 4.656946763377846 ], [ 6.308419901476213, 4.656616999153755 ], [ 6.308395770459811, 4.656603693144746 ], [ 6.314700126743332, 4.652203083154745 ], [ 6.321376801279825, 4.641861916128391 ] ] ] ] } },
{ "type": "Feature", "properties": { "fid": 219.0, "OBJECTID": 219.0, "lganame": "Ekeremor", "statecode": "BY", "LGA_UID": "06_02" }, "geometry": { "type": "MultiPolygon", "coordinates": [ [ [ [ 5.959865092649579, 5.100848197988 ], [ 5.962886809702695, 5.091035843320981 ], [ 5.966843128390849, 5.082137108274708 ], [ 5.971264839395189, 5.073695182538813 ], [ 5.978823184530711, 5.061480045239193 ], [ 5.992317199699301, 5.048230171236526 ], [ 5.993515967513815, 5.038916110908076 ], [ 5.992338180713546, 5.024995804449873 ], [ 5.993062019205354, 5.014760017495121 ], [ 5.993163109274064, 4.995706080548871 ], [ 5.992520808837639, 4.985959052926205 ], [ 5.989848137021681, 4.965559959066013 ], [ 5.985958099378593, 4.953547000903768 ], [ 5.980175018449245, 4.938313960553614 ], [ 5.980811118881434, 4.923432827442582 ], [ 5.982469082007924, 4.914111137108932 ], [ 5.988237857927572, 4.904250145408867 ], [ 5.992608069896903, 4.893021106779258 ], [ 5.977787970827364, 4.884452819957517 ], [ 5.967160224606289, 4.879528998611988 ], [ 5.953774928511621, 4.874189853984319 ], [ 5.942688941979213, 4.8692741386443 ], [ 5.930212020501756, 4.863452910689034 ], [ 5.917743206029741, 4.858098030050655 ], [ 5.90433216091759, 4.851364136475297 ], [ 5.895068168623141, 4.845952033798028 ], [ 5.878451824333126, 4.839273930260561 ], [ 5.860426903086022, 4.830763817478328 ], [ 5.845651150046592, 4.824519157235386 ], [ 5.836880207087177, 4.82095718381521 ], [ 5.827633857804699, 4.816473006768433 ], [ 5.812435150477882, 4.812095164793902 ], [ 5.79720115712712, 4.805858134556104 ], [ 5.785584927234424, 4.803482532941985 ], [ 5.78152275147437, 4.807175159450935 ], [ 5.771552562700094, 4.814560413468882 ], [ 5.767859936191144, 4.812344550963303 ], [ 5.766013621936622, 4.800528048934552 ], [ 5.755305289660839, 4.796097278924037 ], [ 5.735364914112267, 4.798312664429318 ], [ 5.724267005571789, 4.800641060011344 ], [ 5.720225333825624, 4.806436538949129 ], [ 5.714316844811094, 4.808651924454352 ], [ 5.711542129925817, 4.805975913636132 ], [ 5.704346657036808, 4.809021472705467 ], [ 5.701392651029721, 4.812344550963303 ], [ 5.696592330768112, 4.810498237708828 ], [ 5.6954846380155, 4.80163621868752 ], [ 5.696592330768112, 4.792773723665846 ], [ 5.694038391032848, 4.784626484130172 ], [ 5.68957614900097, 4.778741837131861 ], [ 5.682929516484876, 4.781326770888199 ], [ 5.674067497463568, 4.785388469647955 ], [ 5.66557407369271, 4.783542156393423 ], [ 5.648652077194981, 4.774559021289804 ], [ 5.647110939147865, 4.768771648357585 ], [ 5.642523766031104, 4.765374184049165 ], [ 5.644182205157904, 4.756051063714551 ], [ 5.64768791153989, 4.747624873989366 ], [ 5.644756793548311, 4.737917900393882 ], [ 5.632462978195235, 4.741853237067801 ], [ 5.625324726345127, 4.743661880296656 ], [ 5.626801491348544, 4.740707874289569 ], [ 5.631246567368748, 4.736355305332211 ], [ 5.630494117857495, 4.732953072020564 ], [ 5.627540111850408, 4.732583999769759 ], [ 5.624456881755464, 4.738062859492402 ], [ 5.620893478334324, 4.737384319031378 ], [ 5.621262549585083, 4.732953072020564 ], [ 5.620523930083209, 4.728891373260808 ], [ 5.616199017144652, 4.729592799737418 ], [ 5.610184669058185, 4.730368137264179 ], [ 5.610184669058185, 4.738861561035094 ], [ 5.607599735301847, 4.73849201178399 ], [ 5.605015277545817, 4.739599704536602 ], [ 5.602060794538374, 4.74440050079852 ], [ 5.59763002352787, 4.744769573049325 ], [ 5.596521853774959, 4.740338326038454 ], [ 5.595687866208266, 4.735066891456768 ], [ 5.588767528506253, 4.730368137264179 ], [ 5.583527564945939, 4.727528095334549 ], [ 5.57799196218474, 4.727269650158917 ], [ 5.569565773459544, 4.722613810995483 ], [ 5.566681862500047, 4.727214813121691 ], [ 5.564774990204455, 4.737380981029105 ], [ 5.55990600589621, 4.741206645628438 ], [ 5.545647144207976, 4.749553204299559 ], [ 5.532057474974408, 4.751592785685375 ], [ 5.528753870729759, 4.763328079658947 ], [ 5.527283681730864, 4.772491633885124 ], [ 5.520145298880664, 4.785132520474008 ], [ 5.506546558640935, 4.807338486561946 ], [ 5.494636309548525, 4.826636105673742 ], [ 5.483479872968246, 4.844878387068547 ], [ 5.451819717456658, 4.907414732559062 ], [ 5.451944350541339, 4.923054696185659 ], [ 5.45140099617214, 4.933644594381008 ], [ 5.446718215990416, 4.941239833541601 ], [ 5.442582118180155, 4.948570357522328 ], [ 5.440917091048846, 4.963780467856907 ], [ 5.441749837614623, 4.975843463053138 ], [ 5.42366593432746, 5.024384468034498 ], [ 5.390378343710097, 5.095565467398615 ], [ 5.386184425860563, 5.101391540357156 ], [ 5.384055403413981, 5.105854814389772 ], [ 5.382592035419691, 5.109281236717834 ], [ 5.377068804666919, 5.119421726607811 ], [ 5.375165237373551, 5.126203191215495 ], [ 5.380519024011164, 5.12810675950891 ], [ 5.387499808754285, 5.131110191549567 ], [ 5.395533423212726, 5.13322260098488 ], [ 5.401666641379961, 5.137221336701828 ], [ 5.414443970061598, 5.136110305946943 ], [ 5.433054923706834, 5.134444236814943 ], [ 5.437777518915652, 5.132222175305117 ], [ 5.447790351718879, 5.117867145551543 ], [ 5.453976950922367, 5.106683678952948 ], [ 5.463018903065972, 5.100140160506896 ], [ 5.470558167188528, 5.091109276370844 ], [ 5.473213057992439, 5.09689979830523 ], [ 5.486848226256882, 5.090648223057599 ], [ 5.493828296999482, 5.091764926816325 ], [ 5.502870560143265, 5.092460632289033 ], [ 5.511565208050911, 5.088287354453485 ], [ 5.516781806595304, 5.080636024254773 ], [ 5.524085044557523, 5.068811893220811 ], [ 5.533127307701307, 5.062899590203699 ], [ 5.544603825499109, 5.058030604895464 ], [ 5.550863742752426, 5.05559635224148 ], [ 5.569295883276197, 5.056291579713843 ], [ 5.584598063673297, 5.055248260004987 ], [ 5.5856413843822, 5.047945023042757 ], [ 5.590857982926593, 5.043424128971026 ], [ 5.599204539597679, 5.042380810262159 ], [ 5.611029147631996, 5.038902759898974 ], [ 5.619723319539276, 5.034729481063437 ], [ 5.625288010320219, 5.026035309156157 ], [ 5.632938861518596, 5.018383979957434 ], [ 5.642328738898584, 5.015602112067256 ], [ 5.647893428679538, 5.011776447467923 ], [ 5.656670569643154, 5.011776447467923 ], [ 5.661808968134494, 5.012883663220236 ], [ 5.663635254375322, 5.01510095572678 ], [ 5.663456917254166, 5.018840313267503 ], [ 5.663456917254166, 5.02400445877629 ], [ 5.66666221643203, 5.028277873679883 ], [ 5.67556524348123, 5.029880046768483 ], [ 5.682153701957759, 5.02792167743786 ], [ 5.691234589127816, 5.024182319897136 ], [ 5.702096461507949, 5.022935867050251 ], [ 5.710287094073067, 5.023826121655134 ], [ 5.719368458243423, 5.030948639494511 ], [ 5.72453212675191, 5.041098118390607 ], [ 5.72844934541348, 5.050713538923844 ], [ 5.730586051865259, 5.054452896464568 ], [ 5.736462115857762, 5.056589602916347 ], [ 5.743050575334337, 5.055699348311464 ], [ 5.748570442084826, 5.053206443617682 ], [ 5.751953602383537, 5.053740500980552 ], [ 5.75836372373891, 5.061040877940798 ], [ 5.764239787731412, 5.064246178118651 ], [ 5.769225597119032, 5.063355922513779 ], [ 5.773499012022626, 5.061219215061953 ], [ 5.775635719474394, 5.05747985752123 ], [ 5.779018878773115, 5.058013915884089 ], [ 5.780443191740858, 5.064958571602688 ], [ 5.784176826277701, 5.069325923570091 ], [ 5.788122176958382, 5.072540759754418 ], [ 5.789875507149645, 5.07867765392416 ], [ 5.789144992653291, 5.084376334796161 ], [ 5.791336536142353, 5.085837363788812 ], [ 5.797473907312394, 5.083061217902582 ], [ 5.803610802482126, 5.081892490108487 ], [ 5.805510520772941, 5.083645821299797 ], [ 5.809017181155525, 5.086421967186027 ], [ 5.814131259630301, 5.08452224689529 ], [ 5.815300465424741, 5.081892490108487 ], [ 5.817346095814628, 5.077362537030581 ], [ 5.820268630800342, 5.07517051654122 ], [ 5.822606564388877, 5.075755118938446 ], [ 5.825529099374592, 5.077508450129756 ], [ 5.830643176849378, 5.080285072016295 ], [ 5.835319042026413, 5.082476615505357 ], [ 5.840140820302565, 5.083061217902582 ], [ 5.840579032600317, 5.080577374214897 ], [ 5.839510917874577, 5.074536324110284 ], [ 5.839994907203447, 5.070786952562798 ], [ 5.84087133379893, 5.06757259437876 ], [ 5.84832382186255, 5.066549777683804 ], [ 5.851976395344309, 5.070202827165929 ], [ 5.853145599138713, 5.075462817739833 ], [ 5.857383251018007, 5.077362537030581 ], [ 5.863081931890008, 5.074440002044867 ], [ 5.865062146235459, 5.069528997708062 ], [ 5.86773872405405, 5.068109511743614 ], [ 5.86947202723178, 5.071081637763029 ], [ 5.870214938736524, 5.076034546128255 ], [ 5.871701240746404, 5.081235408661996 ], [ 5.874425410597325, 5.086188793027588 ], [ 5.877645015784935, 5.091389655561329 ], [ 5.878387928289669, 5.097085953431701 ], [ 5.877892493953084, 5.100305079618977 ], [ 5.877645015784935, 5.105258464984558 ], [ 5.880772745910065, 5.109508990872598 ], [ 5.881353321304516, 5.109508990872598 ], [ 5.882730484240255, 5.101841449662857 ], [ 5.885300635986539, 5.099972248392817 ], [ 5.896516322607113, 5.10441160240913 ], [ 5.909367561338911, 5.104878901726693 ], [ 5.914507865831467, 5.108150004949209 ], [ 5.915909766784011, 5.117496490299743 ], [ 5.916377068101554, 5.131515979825281 ], [ 5.917545318895293, 5.134086131571621 ], [ 5.921751498753224, 5.135020733206602 ], [ 5.926891804245827, 5.139927863540777 ], [ 5.927592753722081, 5.154881953701363 ], [ 5.927826404880818, 5.16072320867022 ], [ 5.933200835532489, 5.164695263369083 ], [ 5.946052074264287, 5.164227962051541 ], [ 5.960538864107377, 5.157218456288945 ], [ 5.964244842625419, 5.14910745577788 ], [ 5.972455502204184, 5.140614033007012 ], [ 5.974926471883123, 5.137524604907867 ], [ 5.970254897708969, 5.128180980559307 ], [ 5.966450214123881, 5.11002492922313 ], [ 5.959865092649579, 5.100848197988 ] ] ] ] } },
{ "type": "Feature", "properties": { "fid": 235.0, "OBJECTID": 235.0, "lganame": "Brass", "statecode": "BY", "LGA_UID": "06_01" }, "geometry": { "type": "MultiPolygon", "coordinates": [ [ [ [ 6.574090480986911, 4.709374905000288 ], [ 6.573121071328217, 4.701622008732556 ], [ 6.5675749775599, 4.701641082745539 ], [ 6.560522555768102, 4.697745323098559 ], [ 6.562364101019341, 4.692440033493824 ], [ 6.553585052054416, 4.688412188757127 ], [ 6.546593189303792, 4.682030201420844 ], [ 6.537717819273382, 4.672893047212597 ], [ 6.528808117219626, 4.661898135742035 ], [ 6.51196479777542, 4.643144130999588 ], [ 6.515436172134059, 4.632859230011491 ], [ 6.51661777493689, 4.62261486105092 ], [ 6.526094913376141, 4.615013122885898 ], [ 6.535140990522564, 4.60881185467241 ], [ 6.538109778539706, 4.596213818112631 ], [ 6.544047831574289, 4.590173721008682 ], [ 6.548893451866661, 4.586297035374685 ], [ 6.545501231561843, 4.580966948753087 ], [ 6.540171145940292, 4.57660579678992 ], [ 6.543078422915642, 4.568368435193008 ], [ 6.551316260512863, 4.558192730279131 ], [ 6.560038090438923, 4.554316520645386 ], [ 6.566337108718812, 4.553831577315918 ], [ 6.560038090438923, 4.541233062755794 ], [ 6.553039073683465, 4.53739976915125 ], [ 6.545016766232663, 4.533480167488051 ], [ 6.542593955586483, 4.52185106258662 ], [ 6.549862384525056, 4.510221480684891 ], [ 6.539985179813925, 4.500919819364867 ], [ 6.537251471956495, 4.494982719330892 ], [ 6.534255027920551, 4.488474845909082 ], [ 6.53178215024036, 4.478759766308144 ], [ 6.525196074765461, 4.469583035072958 ], [ 6.52289295220055, 4.462992190594832 ], [ 6.519386767818276, 4.452957152776492 ], [ 6.516438006814724, 4.442320823549608 ], [ 6.512575150190116, 4.431702137334696 ], [ 6.511864184707065, 4.418239117187227 ], [ 6.512516975150561, 4.404285907706651 ], [ 6.511841773691799, 4.392681121821738 ], [ 6.512063979842765, 4.38013076829435 ], [ 6.514143944256034, 4.36894178369198 ], [ 6.520407199511624, 4.360930920248961 ], [ 6.535923958054525, 4.357870102169272 ], [ 6.544572829931042, 4.354928017170266 ], [ 6.548027039277997, 4.343715190551677 ], [ 6.548255736433362, 4.340248743196412 ], [ 6.549243264104348, 4.325280384026087 ], [ 6.493610382304439, 4.322221755947908 ], [ 6.46456849857185, 4.315189574169892 ], [ 6.410484398824224, 4.306207287066854 ], [ 6.386838505757964, 4.303530393248025 ], [ 6.339162598364453, 4.297619972232155 ], [ 6.309444428172355, 4.295555114829199 ], [ 6.291666031092745, 4.293610572507987 ], [ 6.272499084069693, 4.293055535130861 ], [ 6.26230600814398, 4.290481588381965 ], [ 6.2549296781321, 4.289767749896953 ], [ 6.249456918413614, 4.290719534543655 ], [ 6.243984157695138, 4.29190926535199 ], [ 6.239225236461664, 4.292623102837013 ], [ 6.233514528581509, 4.298809702040501 ], [ 6.235656044036602, 4.306186031052391 ], [ 6.241128804755078, 4.317369497651043 ], [ 6.252252970313407, 4.335211247773657 ], [ 6.259974135559617, 4.358074144307921 ], [ 6.270555496749125, 4.368055344089669 ], [ 6.278888702411166, 4.373055458487045 ], [ 6.281947219489268, 4.375349252045567 ], [ 6.296351965276642, 4.367440553671941 ], [ 6.303779125323047, 4.363362788901327 ], [ 6.32347011570215, 4.363015174665122 ], [ 6.337683201359255, 4.363694191126513 ], [ 6.354670047901038, 4.365716933500835 ], [ 6.364418029524302, 4.372515202119928 ], [ 6.379633903862782, 4.377822875726281 ], [ 6.392006874269612, 4.378068923893466 ], [ 6.407699107931762, 4.384296894125043 ], [ 6.415235043052064, 4.395317077612731 ], [ 6.422305106855845, 4.405879020789087 ], [ 6.429927826035112, 4.421544075432791 ], [ 6.432003975445809, 4.434518814248463 ], [ 6.431394100031412, 4.450792789305865 ], [ 6.429904938019604, 4.460420131847229 ], [ 6.42894315736612, 4.466636181070726 ], [ 6.425197123820851, 4.486682891691544 ], [ 6.423996925005383, 4.495997906020648 ], [ 6.421019076982077, 4.508131981265194 ], [ 6.410377025751302, 4.526907921022541 ], [ 6.409255980989599, 4.540402889191739 ], [ 6.408126831222376, 4.553433895045714 ], [ 6.396613121399355, 4.57454919839256 ], [ 6.393124104028743, 4.583903789748547 ], [ 6.389782905758523, 4.601156235470796 ], [ 6.386468886506805, 4.619801998139678 ], [ 6.393486023274647, 4.627577782422975 ], [ 6.406137942871055, 4.642689227690482 ], [ 6.422014235658196, 4.658671855549926 ], [ 6.429541110772391, 4.669227122721736 ], [ 6.439350128437127, 4.679276942550132 ], [ 6.450611115088464, 4.693482876202381 ], [ 6.461060047188028, 4.713280200653742 ], [ 6.478478909023295, 4.713901997076221 ], [ 6.489644050609513, 4.722999096257297 ], [ 6.498985766956764, 4.732592105775268 ], [ 6.51060008984814, 4.741216182634957 ], [ 6.517581939591992, 4.74713420865595 ], [ 6.527311802202973, 4.753003119643608 ], [ 6.537438869083815, 4.755611897416145 ], [ 6.55261182839314, 4.758596897444306 ], [ 6.563601970860418, 4.758402824312441 ], [ 6.579172134439602, 4.758128166125857 ], [ 6.58873701093853, 4.75517082211644 ], [ 6.5983099944429, 4.752677917422659 ], [ 6.607241153511211, 4.746353149125241 ], [ 6.600249766760896, 4.73405599576995 ], [ 6.593472481156027, 4.722457885889582 ], [ 6.586215019224937, 4.718504906203691 ], [ 6.578935623278937, 4.715189456951009 ], [ 6.574090480986911, 4.709374905000288 ] ] ], [ [ [ 6.231067346918792, 4.377272596352384 ], [ 6.221367408328149, 4.356531221259559 ], [ 6.212991705637251, 4.32988125815217 ], [ 6.214999199001227, 4.305832862812451 ], [ 6.216620356102737, 4.300237379010582 ], [ 6.221614682496124, 4.283786814833206 ], [ 6.20938046318355, 4.279719275069453 ], [ 6.191157580801985, 4.280693515731457 ], [ 6.171689800574541, 4.27791012284024 ], [ 6.115833282622646, 4.273055075541492 ], [ 6.111110687413884, 4.272499085163702 ], [ 6.104166030695296, 4.272777557352924 ], [ 6.091216428896644, 4.271960328797661 ], [ 6.086362328598511, 4.271484437474271 ], [ 6.084163310104373, 4.275636596295499 ], [ 6.083979009979146, 4.279426051870246 ], [ 6.05777740517641, 4.288055419733496 ], [ 6.008985829024823, 4.301535163892368 ], [ 5.977303714498305, 4.312175732122114 ], [ 5.97809903103871, 4.320719682927347 ], [ 5.940554618529063, 4.336111069385026 ], [ 5.931110382112138, 4.340555191404633 ], [ 5.868610381646306, 4.381388665149075 ], [ 5.843041146273208, 4.402372692406686 ], [ 5.870225993744043, 4.399467388432697 ], [ 5.87659215906956, 4.398787021970406 ], [ 5.885241031946066, 4.395845889972065 ], [ 5.904316901907237, 4.387145996060895 ], [ 5.918891906810245, 4.382706165044226 ], [ 5.927539824686107, 4.379765034045874 ], [ 5.94211578358977, 4.37532615702986 ], [ 5.946165562341434, 4.37326383562862 ], [ 5.953460217297788, 4.369548798104404 ], [ 5.956541538391377, 4.370013714420281 ], [ 5.964485167788723, 4.371212959235152 ], [ 5.973324775794822, 4.378491879180842 ], [ 5.971416473498209, 4.392400264630908 ], [ 5.971416473498209, 4.403478146157795 ], [ 5.978549957345081, 4.412786007482055 ], [ 5.982494354025107, 4.430711268661469 ], [ 5.989879608043054, 4.444097041756436 ], [ 5.994878769439765, 4.452925204754763 ], [ 6.004996777314432, 4.455070019212087 ], [ 6.018814086702662, 4.459008216887867 ], [ 6.035888195303698, 4.46567678541885 ], [ 6.047431946147185, 4.47058486875369 ], [ 6.056220055118274, 4.475076198805311 ], [ 6.064576148795823, 4.480968951809189 ], [ 6.075696945351922, 4.487742901411764 ], [ 6.092973232090344, 4.505095959202322 ], [ 6.105132103351707, 4.518358231213426 ], [ 6.115873813650182, 4.52931976266126 ], [ 6.126414775812293, 4.529599189851126 ], [ 6.138486862014702, 4.53821515970526 ], [ 6.159706116432176, 4.566572188972543 ], [ 6.164867877939344, 4.552618980492014 ], [ 6.158064842317003, 4.531827927365441 ], [ 6.152342796429139, 4.519846916224935 ], [ 6.146681785582757, 4.51111793529401 ], [ 6.145978928105194, 4.498118877461764 ], [ 6.145734786939329, 4.485113143624972 ], [ 6.150812149389139, 4.462718010408537 ], [ 6.161196232444638, 4.454635142916572 ], [ 6.174345016378652, 4.447432995023064 ], [ 6.187468052295117, 4.438837051182531 ], [ 6.200705051289049, 4.436279774444984 ], [ 6.221223831230589, 4.43127107604181 ], [ 6.226205361615314, 4.426029831480605 ], [ 6.238737705130461, 4.41284410852154 ], [ 6.235880111188806, 4.399400527387286 ], [ 6.233055115269394, 4.386110306357182 ], [ 6.231067346918792, 4.377272596352384 ] ] ] ] } },
{ "type": "Feature", "properties": { "fid": 236.0, "OBJECTID": 236.0, "lganame": "Sagbama", "statecode": "BY", "LGA_UID": "06_06" }, "geometry": { "type": "MultiPolygon", "coordinates": [ [ [ [ 6.552827834539926, 5.379875182573699 ], [ 6.561977862756919, 5.379249096148328 ], [ 6.569632052957616, 5.372142792319892 ], [ 6.56945800783933, 5.362853050007971 ], [ 6.568703175326448, 5.347066879282011 ], [ 6.567076206221031, 5.33362007114556 ], [ 6.563159942560105, 5.320212841035982 ], [ 6.55565023445763, 5.310586929495628 ], [ 6.548624038683613, 5.302347182897108 ], [ 6.541174888622265, 5.29597282356599 ], [ 6.530881881628659, 5.284537791796424 ], [ 6.519733906054171, 5.27637004924685 ], [ 6.512241839963622, 5.267673016337596 ], [ 6.504765986884138, 5.259905815060165 ], [ 6.496816158482602, 5.251216888156421 ], [ 6.494825042129719, 5.249084473707569 ], [ 6.486999034812357, 5.240703106012802 ], [ 6.473561763682369, 5.232575893490775 ], [ 6.462906837442802, 5.226257801197903 ], [ 6.451354026593208, 5.220886229548171 ], [ 6.439308167408626, 5.213664054641072 ], [ 6.424066067052365, 5.20696306208805 ], [ 6.400932789334377, 5.194825171840932 ], [ 6.388543128916183, 5.193649769042281 ], [ 6.379288196627897, 5.188702105680591 ], [ 6.365991115593147, 5.188006878208228 ], [ 6.338929176205852, 5.186161994954716 ], [ 6.323843001955481, 5.187821865082526 ], [ 6.311013222238273, 5.187583922920851 ], [ 6.300445080057671, 5.18591213178496 ], [ 6.288495063938228, 5.183798790349044 ], [ 6.283166162317457, 5.18289517673503 ], [ 6.276088237508361, 5.181694983919556 ], [ 6.265036105998945, 5.178637980842495 ], [ 6.254354953741597, 5.1709270476033 ], [ 6.247786999279015, 5.16267776499825 ], [ 6.238401889902264, 5.150762080902155 ], [ 6.229051112548859, 5.140704155068249 ], [ 6.219233989878603, 5.13018894192362 ], [ 6.213502883984575, 5.117743969467881 ], [ 6.203141211944285, 5.102592945173456 ], [ 6.192604941785362, 5.089944212579269 ], [ 6.186738013799072, 5.082901000793697 ], [ 6.180618762641359, 5.074180125868281 ], [ 6.172105788857152, 5.059926033183331 ], [ 6.164577960742349, 5.049370766011521 ], [ 6.160897783241865, 5.029258542346156 ], [ 6.147763158317503, 5.015410077936792 ], [ 6.14209604346695, 4.998651980550449 ], [ 6.131466866244921, 4.99372911520561 ], [ 6.117068110461673, 4.992424485319191 ], [ 6.106503304283365, 5.008985533571604 ], [ 6.100507062209203, 5.020692481525941 ], [ 6.094182967912275, 5.032956122858536 ], [ 6.087038994058275, 5.042840003574156 ], [ 6.08035278251532, 5.05271720928522 ], [ 6.074996947876286, 5.060245991400677 ], [ 6.065717219571127, 5.053905010092308 ], [ 6.054629803037756, 5.04898881875198 ], [ 6.054904938224695, 5.039226055118661 ], [ 6.062489986378409, 5.02840423576572 ], [ 6.070539950847945, 5.018039226723204 ], [ 6.079895020204276, 5.003932953138644 ], [ 6.085604191083405, 4.990820885229596 ], [ 6.089931011023282, 4.977269173021853 ], [ 6.090637206503118, 4.966104031435634 ], [ 6.087662220481718, 4.954073906261783 ], [ 6.085534096035758, 4.93831300655296 ], [ 6.081202984093011, 4.927237034027371 ], [ 6.077330112461539, 4.916152954496226 ], [ 6.075333118104709, 4.907359122521257 ], [ 6.073327064741704, 4.898100853230687 ], [ 6.072218894988737, 4.887897015297654 ], [ 6.073287009714477, 4.871613979234098 ], [ 6.074865817787213, 4.858110905059391 ], [ 6.075477123202518, 4.841835976001335 ], [ 6.072821140397934, 4.822366237772599 ], [ 6.061275958553495, 4.817459106438434 ], [ 6.050725937385266, 4.816716193933644 ], [ 6.041541100144627, 4.815484047096447 ], [ 6.028244019109877, 4.814788817624105 ], [ 6.009434223329492, 4.813262938587343 ], [ 5.989294051645174, 4.814083099144568 ], [ 5.988181113889027, 4.828042983629643 ], [ 5.989272117630264, 4.837316989930912 ], [ 5.996057987240988, 4.857179165426317 ], [ 5.999905108854932, 4.866868973010128 ], [ 5.998462123874447, 4.875727670029164 ], [ 5.995321234740402, 4.883651275412888 ], [ 5.992608069896903, 4.893021106779258 ], [ 5.988237857927572, 4.904250145408867 ], [ 5.987052812122386, 4.906275831785194 ], [ 5.982469082007924, 4.914111137108932 ], [ 5.980811118881434, 4.923432827442582 ], [ 5.980175018449245, 4.938313960553614 ], [ 5.985958099378593, 4.953547000903768 ], [ 5.989848137021681, 4.965559959066013 ], [ 5.992520808837639, 4.985959052926205 ], [ 5.993163109274064, 4.995706080548871 ], [ 5.993062019205354, 5.014760017495121 ], [ 5.992338180713546, 5.024995804449873 ], [ 5.993515967513815, 5.038916110908076 ], [ 5.992317199699301, 5.048230171236526 ], [ 5.983734006867394, 5.056658072962875 ], [ 5.978823184530711, 5.061480045239193 ], [ 5.971264839395189, 5.073695182538813 ], [ 5.966843128390849, 5.082137108274708 ], [ 5.962886809702695, 5.091035843320981 ], [ 5.959865092649579, 5.100848197988 ], [ 5.966450214123881, 5.11002492922313 ], [ 5.970254897708969, 5.128180980559307 ], [ 5.974926471883123, 5.137524604907867 ], [ 5.978296757173041, 5.133312225045756 ], [ 5.98088931993459, 5.13055753717407 ], [ 5.985598564134307, 5.124185084844328 ], [ 5.988399884037676, 5.121383765940948 ], [ 5.992170333599518, 5.117613316379106 ], [ 5.995820999079967, 5.113232136402303 ], [ 6.000202179056771, 5.107390881433446 ], [ 6.004523276992757, 5.103686809916667 ], [ 6.013582230147847, 5.100392817678596 ], [ 6.019461632142622, 5.098254681225797 ], [ 6.025761002422769, 5.096155148799312 ], [ 6.027214527410365, 5.095670700470123 ], [ 6.044443130116406, 5.095670700470123 ], [ 6.054965973266178, 5.09716796948743 ], [ 6.062267780227387, 5.103009701456642 ], [ 6.063576036116331, 5.110857947789157 ], [ 6.063728333219785, 5.111771584409894 ], [ 6.063354014965455, 5.123184204164261 ], [ 6.066751003273566, 5.133347034069402 ], [ 6.069569588188642, 5.14134406950302 ], [ 6.085792542211379, 5.150802611929691 ], [ 6.097852707405707, 5.149941444344563 ], [ 6.10905122801455, 5.142188072076465 ], [ 6.12068271591761, 5.133677483293923 ], [ 6.129725933062048, 5.129266739297066 ], [ 6.143735885581179, 5.134776115040438 ], [ 6.146135690211736, 5.137123371635255 ], [ 6.150269032020105, 5.14116621038221 ], [ 6.154707432035821, 5.151664256515119 ], [ 6.16590642864503, 5.161139964953406 ], [ 6.178827763424465, 5.161139964953406 ], [ 6.184074488989324, 5.160024010195173 ], [ 6.190907000631739, 5.158570766207788 ], [ 6.200734138308803, 5.169549941667583 ], [ 6.202291012366629, 5.179281235279575 ], [ 6.200667858263785, 5.190462111876457 ], [ 6.199884050731214, 5.194497354618193 ], [ 6.198081969506745, 5.20377492892186 ], [ 6.195891380018395, 5.211076735883125 ], [ 6.194151401836109, 5.216709136710051 ], [ 6.195784091945484, 5.223075867035959 ], [ 6.202086926227935, 5.231778144948748 ], [ 6.213285445836846, 5.238669394631017 ], [ 6.233532905594018, 5.238167763290164 ], [ 6.238560200009829, 5.235210419280804 ], [ 6.244461060019205, 5.233656883225251 ], [ 6.259417534181409, 5.227870941293986 ], [ 6.272560596111475, 5.228236197542174 ], [ 6.278995991484067, 5.228888034985061 ], [ 6.284712791368349, 5.231664657871647 ], [ 6.290450096266568, 5.23407745351102 ], [ 6.293005943003152, 5.238823890736001 ], [ 6.292275428506798, 5.245395184200902 ], [ 6.290751934471643, 5.251054764046273 ], [ 6.287155628028131, 5.259274482631213 ], [ 6.285265445743846, 5.262743949988533 ], [ 6.283834456771558, 5.266500949541239 ], [ 6.283542155572945, 5.27059936532595 ], [ 6.283542155572945, 5.274990559309515 ], [ 6.285005568567271, 5.279088974094236 ], [ 6.286762237760854, 5.282309055282099 ], [ 6.288518428954092, 5.284943581072127 ], [ 6.289982318948717, 5.286700249265721 ], [ 6.292909621937724, 5.289627552254672 ], [ 6.295017719370037, 5.292945861509338 ], [ 6.295685043823482, 5.293989390218371 ], [ 6.297190665846472, 5.296343802818058 ], [ 6.300047873787832, 5.299026488640834 ], [ 6.302890300719127, 5.301016330992809 ], [ 6.306432247125713, 5.302983761329585 ], [ 6.310642718986514, 5.303543090709638 ], [ 6.315567970333007, 5.304772853545217 ], [ 6.321877002619658, 5.305264949879586 ], [ 6.32540321401558, 5.306539535745571 ], [ 6.32745361340875, 5.310412407377044 ], [ 6.330088139198779, 5.313632487564917 ], [ 6.333600997585563, 5.317730904349617 ], [ 6.338832378140069, 5.31991100283085 ], [ 6.347552776065186, 5.320456028201193 ], [ 6.362527370239718, 5.31403827684062 ], [ 6.380353928352008, 5.309046745449109 ], [ 6.393188953072809, 5.306907653995722 ], [ 6.408876895732021, 5.304768561542289 ], [ 6.413993482208525, 5.306687174845877 ], [ 6.425990582359987, 5.311185836902553 ], [ 6.434547424173957, 5.323307991138961 ], [ 6.450234889832814, 5.32758665104609 ], [ 6.464626727611403, 5.323988766601531 ], [ 6.473052979336671, 5.321882248170255 ], [ 6.490166663964601, 5.324021338623652 ], [ 6.493532181251283, 5.326040744995737 ], [ 6.493019103902668, 5.328299521530482 ], [ 6.502585888402848, 5.338941096760948 ], [ 6.500541210013637, 5.351987838625575 ], [ 6.495871066840493, 5.369657515631275 ], [ 6.485476970778166, 5.379205227118518 ], [ 6.500597954052182, 5.379403114252966 ], [ 6.518475056198838, 5.380016803669946 ], [ 6.528549194043705, 5.3798389425491 ], [ 6.540015220834334, 5.38056612004317 ], [ 6.552827834539926, 5.379875182573699 ] ] ] ] } },
{ "type": "Feature", "properties": { "fid": 260.0, "OBJECTID": 260.0, "lganame": "Yenegoa", "statecode": "BY", "LGA_UID": "06_08" }, "geometry": { "type": "MultiPolygon", "coordinates": [ [ [ [ 6.553380965915721, 5.189809799433192 ], [ 6.544492244876267, 5.186294079044444 ], [ 6.534568310133409, 5.186845303418977 ], [ 6.52629852251448, 5.174164771803134 ], [ 6.511361122365258, 5.171964169307955 ], [ 6.493334770117201, 5.163454055525733 ], [ 6.485816002008505, 5.153363227669502 ], [ 6.479144096475295, 5.139541149278045 ], [ 6.472980976287715, 5.128497123774139 ], [ 6.464336872414492, 5.107274055354083 ], [ 6.460498809806666, 5.098048210085551 ], [ 6.451053143388776, 5.082880019779452 ], [ 6.443903922531263, 5.068137168762405 ], [ 6.439036846224269, 5.052887917401222 ], [ 6.429607867817765, 5.038650035727244 ], [ 6.425769806209985, 5.029424191458759 ], [ 6.417273998437452, 5.016098022404208 ], [ 6.411561011555762, 5.004581927579579 ], [ 6.410391807761357, 4.991127014437609 ], [ 6.421666145421739, 4.981634139987648 ], [ 6.418285847124935, 4.972400187713617 ], [ 6.402005196063044, 4.959210872752067 ], [ 6.388965130202905, 4.947824001015249 ], [ 6.374542236403215, 4.935997008979371 ], [ 6.35873699166433, 4.923729896644431 ], [ 6.348971844029336, 4.916003227394526 ], [ 6.337868214484956, 4.910158157423098 ], [ 6.323523997738732, 4.9025120742279 ], [ 6.314682960731659, 4.895233154282209 ], [ 6.304944992115168, 4.888898848978386 ], [ 6.294254779851656, 4.88072395342391 ], [ 6.285476207887029, 4.876697062687811 ], [ 6.275349140006199, 4.874086856914289 ], [ 6.257938862176729, 4.873929976807744 ], [ 6.242722987838249, 4.868622780201747 ], [ 6.238286971824209, 4.851973056889051 ], [ 6.196959018743769, 4.846662045280425 ], [ 6.179998875220178, 4.846032142852437 ], [ 6.156695843386842, 4.849230766025755 ], [ 6.152299881399983, 4.859066962708994 ], [ 6.153099059942974, 4.877175808013135 ], [ 6.147355080040256, 4.940584183096121 ], [ 6.159770966476231, 4.939789771556377 ], [ 6.183907031875549, 4.956556796948746 ], [ 6.207135200658001, 4.973804950668068 ], [ 6.224823951676683, 4.988827228874982 ], [ 6.248579978817816, 5.009782791113309 ], [ 6.261198044391165, 5.02303600311825 ], [ 6.265113831051792, 5.036443233227828 ], [ 6.267603873743667, 5.047087193459902 ], [ 6.273586272808416, 5.056044101545695 ], [ 6.283061981246703, 5.061213017057753 ], [ 6.292538165685301, 5.055182933960566 ], [ 6.291856766222338, 5.045729159537188 ], [ 6.293416376282039, 5.046189817850177 ], [ 6.305215836299226, 5.049674988218214 ], [ 6.311758040744337, 5.056529998875874 ], [ 6.316864236213746, 5.067699671465107 ], [ 6.31634842886325, 5.069880099946602 ], [ 6.316538785992634, 5.070479724354016 ], [ 6.316567340012, 5.0717360802077 ], [ 6.316643483063729, 5.07238329264743 ], [ 6.316795768167196, 5.073040025093633 ], [ 6.317057826345263, 5.073988001737746 ], [ 6.31694170826637, 5.074892197352085 ], [ 6.317192979437095, 5.07605147013976 ], [ 6.320299603547937, 5.08062574624779 ], [ 6.321291093221589, 5.082793746720824 ], [ 6.321924209651741, 5.085625171644665 ], [ 6.330677031598896, 5.088259220434395 ], [ 6.342185974418669, 5.091309070506611 ], [ 6.358265877344195, 5.093811989207211 ], [ 6.358484397492703, 5.09404426236506 ], [ 6.369017123649201, 5.105239867971932 ], [ 6.3738498939328, 5.111141298981693 ], [ 6.376519202746465, 5.114400864196398 ], [ 6.384487152160318, 5.124019145731552 ], [ 6.395430259595685, 5.136942205512185 ], [ 6.395730018799327, 5.137296199752711 ], [ 6.399549961394825, 5.145593166390086 ], [ 6.399871542613312, 5.147516524696925 ], [ 6.401099205447451, 5.154859065685855 ], [ 6.39773178115945, 5.170718193461369 ], [ 6.388543128916183, 5.193649769042281 ], [ 6.400932789334377, 5.194825171840932 ], [ 6.424066067052365, 5.20696306208805 ], [ 6.439308167408626, 5.213664054641072 ], [ 6.451354026593208, 5.220886229548171 ], [ 6.462906837442802, 5.226257801197903 ], [ 6.473561763682369, 5.232575893490775 ], [ 6.486999034812357, 5.240703106012802 ], [ 6.496816158482602, 5.251216888156421 ], [ 6.504765986884138, 5.259905815060165 ], [ 6.512241839963622, 5.267673016337596 ], [ 6.519733906054171, 5.27637004924685 ], [ 6.530881881628659, 5.284537791796424 ], [ 6.532513141737013, 5.273820876514776 ], [ 6.537384987047233, 5.26490593045753 ], [ 6.547786236114405, 5.257751941596723 ], [ 6.566636085921971, 5.236972809478289 ], [ 6.552762032495195, 5.226540565390053 ], [ 6.549230099095439, 5.212652205953532 ], [ 6.558826446615683, 5.198422909285398 ], [ 6.553380965915721, 5.189809799433192 ] ] ] ] } },
{ "type": "Feature", "properties": { "fid": 266.0, "OBJECTID": 266.0, "lganame": "Ogbia", "statecode": "BY", "LGA_UID": "06_05" }, "geometry": { "type": "MultiPolygon", "coordinates": [ [ [ [ 6.422863960235588, 4.777152061051652 ], [ 6.429982185072049, 4.765873909388688 ], [ 6.444660187045088, 4.775567054974715 ], [ 6.444090842658227, 4.760978222062306 ], [ 6.441421985844897, 4.745329857429965 ], [ 6.445941924915985, 4.730044842044549 ], [ 6.459428787079673, 4.72399711593539 ], [ 6.461060047188028, 4.713280200653742 ], [ 6.450611115088464, 4.693482876202381 ], [ 6.439350128437127, 4.679276942550132 ], [ 6.431176022883221, 4.670902173859872 ], [ 6.429541110772391, 4.669227122721736 ], [ 6.422014235658196, 4.658671855549926 ], [ 6.406137942871055, 4.642689227690482 ], [ 6.393486023274647, 4.627577782422975 ], [ 6.386468886506805, 4.619801998139678 ], [ 6.364497184578113, 4.620655059719297 ], [ 6.350300788932316, 4.620904921889064 ], [ 6.338386058836818, 4.620650767716427 ], [ 6.326653956865414, 4.630152225172196 ], [ 6.321376801279825, 4.641861916128391 ], [ 6.314700126743332, 4.652203083154745 ], [ 6.308395770459811, 4.656603693144746 ], [ 6.308419901476213, 4.656616999153755 ], [ 6.307950705157396, 4.656946763377846 ], [ 6.305205822292407, 4.658875941688621 ], [ 6.293621778421596, 4.662142890908342 ], [ 6.292901992932514, 4.662345886046296 ], [ 6.280088902226623, 4.663036822515721 ], [ 6.272655009175651, 4.664075576221535 ], [ 6.26866722146616, 4.664632796600131 ], [ 6.25117015757769, 4.659831047337548 ], [ 6.233982085899186, 4.647122859702961 ], [ 6.224243164282086, 4.64078998640008 ], [ 6.201821804047825, 4.642115116300431 ], [ 6.197978973436818, 4.657052994449998 ], [ 6.196331024317089, 4.666840076099845 ], [ 6.198554992828178, 4.687710762280517 ], [ 6.200579166203511, 4.697898865202831 ], [ 6.204909801145959, 4.708973884727811 ], [ 6.206951140532965, 4.720090866281282 ], [ 6.207133769657048, 4.729846000909447 ], [ 6.206954955535537, 4.74471902801497 ], [ 6.207129954654476, 4.754010201327844 ], [ 6.207012176574437, 4.772133826642005 ], [ 6.208103180315732, 4.781408786943928 ], [ 6.210109233678736, 4.790667057234486 ], [ 6.21396398529788, 4.800821781134118 ], [ 6.220118046479229, 4.811400890322147 ], [ 6.224404812391924, 4.820155144270245 ], [ 6.23098182686067, 4.828866959189497 ], [ 6.235286235785338, 4.838550090768763 ], [ 6.238286971824209, 4.851973056889051 ], [ 6.242722987838249, 4.868622780201747 ], [ 6.257938862176729, 4.873929976807744 ], [ 6.275349140006199, 4.874086856914289 ], [ 6.285476207887029, 4.876697062687811 ], [ 6.294254779851656, 4.88072395342391 ], [ 6.304944992115168, 4.888898848978386 ], [ 6.314682960731659, 4.895233154282209 ], [ 6.323523997738732, 4.9025120742279 ], [ 6.337868214484956, 4.910158157423098 ], [ 6.348971844029336, 4.916003227394526 ], [ 6.35873699166433, 4.923729896644431 ], [ 6.374542236403215, 4.935997008979371 ], [ 6.388965130202905, 4.947824001015249 ], [ 6.402005196063044, 4.959210872752067 ], [ 6.418285847124935, 4.972400187713617 ], [ 6.421666145421739, 4.981634139987648 ], [ 6.430675982543448, 4.973575114511902 ], [ 6.437415123122378, 4.966485976695196 ], [ 6.440402031151848, 4.954815864765862 ], [ 6.440640926314188, 4.943194865869941 ], [ 6.433986186792595, 4.930301189109286 ], [ 6.425559998067399, 4.920691012579653 ], [ 6.420719146778254, 4.906836987166514 ], [ 6.414566039597503, 4.89625692397783 ], [ 6.406606197189205, 4.887104033758874 ], [ 6.400884151301341, 4.875123977619012 ], [ 6.398394107609477, 4.864480019386917 ], [ 6.398606776753979, 4.851465224543972 ], [ 6.399279118210757, 4.838441848695197 ], [ 6.402275085246401, 4.827237129082107 ], [ 6.40886497472394, 4.812250136899195 ], [ 6.412812233405873, 4.802886962537343 ], [ 6.422863960235588, 4.777152061051652 ] ] ] ] } },
{ "type": "Feature", "properties": { "fid": 720.0, "OBJECTID": 720.0, "lganame": "Southern Ijaw", "statecode": "BY", "LGA_UID": "06_07" }, "geometry": { "type": "MultiPolygon", "coordinates": [ [ [ [ 6.106503304283365, 5.008985533571604 ], [ 6.117068110461673, 4.992424485319191 ], [ 6.131466866244921, 4.99372911520561 ], [ 6.14209604346695, 4.998651980550449 ], [ 6.147355080040256, 4.940584183096121 ], [ 6.152929406827752, 4.879048655285601 ], [ 6.153099059942974, 4.877175808013135 ], [ 6.152299881399983, 4.859066962708994 ], [ 6.156695843386842, 4.849230766025755 ], [ 6.179998875220178, 4.846032142852437 ], [ 6.196959018743769, 4.846662045280425 ], [ 6.238286971824209, 4.851973056889051 ], [ 6.235286235785338, 4.838550090768763 ], [ 6.232456039862313, 4.83218333144282 ], [ 6.23098182686067, 4.828866959189497 ], [ 6.224404812391924, 4.820155144270245 ], [ 6.220118046479229, 4.811400890322147 ], [ 6.21396398529788, 4.800821781134118 ], [ 6.210109233678736, 4.790667057234486 ], [ 6.208103180315732, 4.781408786943928 ], [ 6.207012176574437, 4.772133826642005 ], [ 6.207031445587518, 4.769168765627398 ], [ 6.207129954654476, 4.754010201327844 ], [ 6.206954955535537, 4.74471902801497 ], [ 6.207133769657048, 4.729846000909447 ], [ 6.206951140532965, 4.720090866281282 ], [ 6.204909801145959, 4.708973884727811 ], [ 6.200579166203511, 4.697898865202831 ], [ 6.200569718197073, 4.697851310170563 ], [ 6.198554992828178, 4.687710762280517 ], [ 6.196331024317089, 4.666840076099845 ], [ 6.197978973436818, 4.657052994449998 ], [ 6.201821804047825, 4.642115116300431 ], [ 6.193117142133417, 4.617640017670738 ], [ 6.186954020945848, 4.60659599316682 ], [ 6.179451941848527, 4.597434997942401 ], [ 6.173306941673331, 4.587320805070249 ], [ 6.1690292357668, 4.579031944438384 ], [ 6.159706116432176, 4.566572188972543 ], [ 6.138486862014702, 4.53821515970526 ], [ 6.126414775812293, 4.529599189851126 ], [ 6.115873813650182, 4.52931976266126 ], [ 6.105132103351707, 4.518358231213426 ], [ 6.092973232090344, 4.505095959202322 ], [ 6.075696945351922, 4.487742901411764 ], [ 6.064576148795823, 4.480968951809189 ], [ 6.056220055118274, 4.475076198805311 ], [ 6.047431946147185, 4.47058486875369 ], [ 6.035888195303698, 4.46567678541885 ], [ 6.018814086702662, 4.459008216887867 ], [ 6.004996777314432, 4.455070019212087 ], [ 5.994878769439765, 4.452925204754763 ], [ 5.989879608043054, 4.444097041756436 ], [ 5.982494354025107, 4.430711268661469 ], [ 5.978549957345081, 4.412786007482055 ], [ 5.971416473498209, 4.403478146157795 ], [ 5.971416473498209, 4.392400264630908 ], [ 5.973324775794822, 4.378491879180842 ], [ 5.964485167788723, 4.371212959235152 ], [ 5.956541538391377, 4.370013714420281 ], [ 5.953460217297788, 4.369548798104404 ], [ 5.946165562341434, 4.37326383562862 ], [ 5.94211578358977, 4.37532615702986 ], [ 5.927539824686107, 4.379765034045874 ], [ 5.918891906810245, 4.382706165044226 ], [ 5.904316901907237, 4.387145996060895 ], [ 5.885241031946066, 4.395845889972065 ], [ 5.87659215906956, 4.398787021970406 ], [ 5.870225993744043, 4.399467388432697 ], [ 5.843041146273208, 4.402372692406686 ], [ 5.736944199185302, 4.48944377856742 ], [ 5.669444084322151, 4.558332444374059 ], [ 5.604166030968827, 4.629999161068213 ], [ 5.594444275363344, 4.640832901429235 ], [ 5.585277557134987, 4.651944159978768 ], [ 5.579443931171284, 4.659721374263029 ], [ 5.566110611111924, 4.679999352040966 ], [ 5.551088176904898, 4.707393617654077 ], [ 5.545564922152096, 4.717465589497522 ], [ 5.534332863520433, 4.737947889414272 ], [ 5.532057474974408, 4.751592785685375 ], [ 5.545647144207976, 4.749553204299559 ], [ 5.55990600589621, 4.741206645628438 ], [ 5.564774990204455, 4.737380981029105 ], [ 5.566681862500047, 4.727214813121691 ], [ 5.569565773459544, 4.722613810995483 ], [ 5.57799196218474, 4.727269650158917 ], [ 5.583527564945939, 4.727528095334549 ], [ 5.588767528506253, 4.730368137264179 ], [ 5.595687866208266, 4.735066891456768 ], [ 5.596521853774959, 4.740338326038454 ], [ 5.59763002352787, 4.744769573049325 ], [ 5.602060794538374, 4.74440050079852 ], [ 5.605015277545817, 4.739599704536602 ], [ 5.607599735301847, 4.73849201178399 ], [ 5.610184669058185, 4.738861561035094 ], [ 5.610184669058185, 4.730368137264179 ], [ 5.616199017144652, 4.729592799737418 ], [ 5.620523930083209, 4.728891373260808 ], [ 5.621262549585083, 4.732953072020564 ], [ 5.620893478334324, 4.737384319031378 ], [ 5.624456881755464, 4.738062859492402 ], [ 5.627540111850408, 4.732583999769759 ], [ 5.630494117857495, 4.732953072020564 ], [ 5.631246567368748, 4.736355305332211 ], [ 5.626801491348544, 4.740707874289569 ], [ 5.625324726345127, 4.743661880296656 ], [ 5.632462978195235, 4.741853237067801 ], [ 5.644756793548311, 4.737917900393882 ], [ 5.64768791153989, 4.747624873989366 ], [ 5.644182205157904, 4.756051063714551 ], [ 5.642523766031104, 4.765374184049165 ], [ 5.647110939147865, 4.768771648357585 ], [ 5.648652077194981, 4.774559021289804 ], [ 5.66557407369271, 4.783542156393423 ], [ 5.674067497463568, 4.785388469647955 ], [ 5.682929516484876, 4.781326770888199 ], [ 5.68957614900097, 4.778741837131861 ], [ 5.694038391032848, 4.784626484130172 ], [ 5.696592330768112, 4.792773723665846 ], [ 5.6954846380155, 4.80163621868752 ], [ 5.696592330768112, 4.810498237708828 ], [ 5.701392651029721, 4.812344550963303 ], [ 5.704346657036808, 4.809021472705467 ], [ 5.711542129925817, 4.805975913636132 ], [ 5.714316844811094, 4.808651924454352 ], [ 5.720225333825624, 4.806436538949129 ], [ 5.724267005571789, 4.800641060011344 ], [ 5.735364914112267, 4.798312664429318 ], [ 5.755305289660839, 4.796097278924037 ], [ 5.766013621936622, 4.800528048934552 ], [ 5.767859936191144, 4.812344550963303 ], [ 5.771552562700094, 4.814560413468882 ], [ 5.78152275147437, 4.807175159450935 ], [ 5.785584927234424, 4.803482532941985 ], [ 5.79720115712712, 4.805858134556104 ], [ 5.812435150477882, 4.812095164793902 ], [ 5.827633857804699, 4.816473006768433 ], [ 5.836880207087177, 4.82095718381521 ], [ 5.845651150046592, 4.824519157235386 ], [ 5.860426903086022, 4.830763817478328 ], [ 5.878451824333126, 4.839273930260561 ], [ 5.895068168623141, 4.845952033798028 ], [ 5.90433216091759, 4.851364136475297 ], [ 5.917743206029741, 4.858098030050655 ], [ 5.930212020501756, 4.863452910689034 ], [ 5.942688941979213, 4.8692741386443 ], [ 5.953774928511621, 4.874189853984319 ], [ 5.967160224606289, 4.879528998611988 ], [ 5.977787970827364, 4.884452819957517 ], [ 5.992608069896903, 4.893021106779258 ], [ 5.995321234740402, 4.883651275412888 ], [ 5.998462123874447, 4.875727670029164 ], [ 5.999905108854932, 4.866868973010128 ], [ 5.996057987240988, 4.857179165426317 ], [ 5.989272117630264, 4.837316989930912 ], [ 5.988181113889027, 4.828042983629643 ], [ 5.989294051645174, 4.814083099144568 ], [ 6.009434223329492, 4.813262938587343 ], [ 6.028244019109877, 4.814788817624105 ], [ 6.041541100144627, 4.815484047096447 ], [ 6.050725937385266, 4.816716193933644 ], [ 6.061275958553495, 4.817459106438434 ], [ 6.072821140397934, 4.822366237772599 ], [ 6.075477123202518, 4.841835976001335 ], [ 6.074865817787213, 4.858110905059391 ], [ 6.073287009714477, 4.871613979234098 ], [ 6.072218894988737, 4.887897015297654 ], [ 6.073327064741704, 4.898100853230687 ], [ 6.075333118104709, 4.907359122521257 ], [ 6.077330112461539, 4.916152954496226 ], [ 6.081202984093011, 4.927237034027371 ], [ 6.085534096035758, 4.93831300655296 ], [ 6.087662220481718, 4.954073906261783 ], [ 6.090637206503118, 4.966104031435634 ], [ 6.089931011023282, 4.977269173021853 ], [ 6.085604191083405, 4.990820885229596 ], [ 6.079895020204276, 5.003932953138644 ], [ 6.070539950847945, 5.018039226723204 ], [ 6.062489986378409, 5.02840423576572 ], [ 6.054904938224695, 5.039226055118661 ], [ 6.054629803037756, 5.04898881875198 ], [ 6.065717219571127, 5.053905010092308 ], [ 6.074996947876286, 5.060245991400677 ], [ 6.08035278251532, 5.05271720928522 ], [ 6.087038994058275, 5.042840003574156 ], [ 6.094182967912275, 5.032956122858536 ], [ 6.100507062209203, 5.020692481525941 ], [ 6.106503304283365, 5.008985533571604 ] ] ] ] } },
{ "type": "Feature", "properties": { "fid": 726.0, "OBJECTID": 726.0, "lganame": "Kolokuma\/Opokuma", "statecode": "BY", "LGA_UID": "06_03" }, "geometry": { "type": "MultiPolygon", "coordinates": [ [ [ [ 6.388543128916183, 5.193649769042281 ], [ 6.39773178115945, 5.170718193461369 ], [ 6.401099205447451, 5.154859065685855 ], [ 6.399871542613312, 5.147516524696925 ], [ 6.399549961394825, 5.145593166390086 ], [ 6.395730018799327, 5.137296199752711 ], [ 6.395430259595685, 5.136942205512185 ], [ 6.384487152160318, 5.124019145731552 ], [ 6.376519202746465, 5.114400864196398 ], [ 6.3738498939328, 5.111141298981693 ], [ 6.369017123649201, 5.105239867971932 ], [ 6.358484397492703, 5.09404426236506 ], [ 6.358265877344195, 5.093811989207211 ], [ 6.342185974418669, 5.091309070506611 ], [ 6.330677031598896, 5.088259220434395 ], [ 6.321924209651741, 5.085625171644665 ], [ 6.321291093221589, 5.082793746720824 ], [ 6.320299603547937, 5.08062574624779 ], [ 6.317192979437095, 5.07605147013976 ], [ 6.31694170826637, 5.074892197352085 ], [ 6.317057826345263, 5.073988001737746 ], [ 6.316795768167196, 5.073040025093633 ], [ 6.316643483063729, 5.07238329264743 ], [ 6.316567340012, 5.0717360802077 ], [ 6.316538785992634, 5.070479724354016 ], [ 6.31634842886325, 5.069880099946602 ], [ 6.316864236213746, 5.067699671465107 ], [ 6.311758040744337, 5.056529998875874 ], [ 6.305215836299226, 5.049674988218214 ], [ 6.293416376282039, 5.046189817850177 ], [ 6.291856766222338, 5.045729159537188 ], [ 6.292538165685301, 5.055182933960566 ], [ 6.283061981246703, 5.061213017057753 ], [ 6.273586272808416, 5.056044101545695 ], [ 6.267603873743667, 5.047087193459902 ], [ 6.265113831051792, 5.036443233227828 ], [ 6.261198044391165, 5.02303600311825 ], [ 6.248579978817816, 5.009782791113309 ], [ 6.224823951676683, 4.988827228874982 ], [ 6.207135200658001, 4.973804950668068 ], [ 6.183907031875549, 4.956556796948746 ], [ 6.159770966476231, 4.939789771556377 ], [ 6.147355080040256, 4.940584183096121 ], [ 6.14209604346695, 4.998651980550449 ], [ 6.147763158317503, 5.015410077936792 ], [ 6.160897783241865, 5.029258542346156 ], [ 6.164577960742349, 5.049370766011521 ], [ 6.172105788857152, 5.059926033183331 ], [ 6.180618762641359, 5.074180125868281 ], [ 6.186738013799072, 5.082901000793697 ], [ 6.192604941785362, 5.089944212579269 ], [ 6.203141211944285, 5.102592945173456 ], [ 6.213502883984575, 5.117743969467881 ], [ 6.219233989878603, 5.13018894192362 ], [ 6.229051112548859, 5.140704155068249 ], [ 6.238401889902264, 5.150762080902155 ], [ 6.247786999279015, 5.16267776499825 ], [ 6.254354953741597, 5.1709270476033 ], [ 6.265036105998945, 5.178637980842495 ], [ 6.276088237508361, 5.181694983919556 ], [ 6.283166162317457, 5.18289517673503 ], [ 6.288495063938228, 5.183798790349044 ], [ 6.300445080057671, 5.18591213178496 ], [ 6.311013222238273, 5.187583922920851 ], [ 6.323843001955481, 5.187821865082526 ], [ 6.338929176205852, 5.186161994954716 ], [ 6.365991115593147, 5.188006878208228 ], [ 6.379288196627897, 5.188702105680591 ], [ 6.388543128916183, 5.193649769042281 ] ] ] ] } }
]
}
