{
"type": "FeatureCollection",
"name": "Ekiti",
"crs": { "type": "name", "properties": { "name": "urn:ogc:def:crs:OGC:1.3:CRS84" } },
"features": [
{ "type": "Feature", "properties": { "fid": 6.0, "OBJECTID": 6.0, "lganame": "Ekiti West", "statecode": "EK", "LGA_UID": "13_05" }, "geometry": { "type": "MultiPolygon", "coordinates": [ [ [ [ 5.113748549753154, 7.693432807527415 ], [ 5.109232425684695, 7.682518959111917 ], [ 5.107727050661822, 7.671981811952435 ], [ 5.105468750127443, 7.658433436746975 ], [ 5.1017055505705, 7.643003941263373 ], [ 5.099828243295008, 7.639666556995735 ], [ 5.098318577269254, 7.636982441171995 ], [ 5.091168404411007, 7.630960941080673 ], [ 5.084017753552473, 7.621929168944007 ], [ 5.074985981415807, 7.610639095272973 ], [ 5.065577507023193, 7.592951298254945 ], [ 5.061437607210337, 7.582413673095118 ], [ 5.054663657607762, 7.573005675702802 ], [ 5.045631409470786, 7.561338901775798 ], [ 5.034718037055654, 7.547414780315023 ], [ 5.018535614060454, 7.541393280223701 ], [ 4.997837066996794, 7.540640830712448 ], [ 4.980901718489974, 7.543651103757782 ], [ 4.96471929649482, 7.547038078059074 ], [ 4.940257548874172, 7.555694102940436 ], [ 4.925204276646184, 7.560210228008884 ], [ 4.912408828952323, 7.562844275798625 ], [ 4.906387328860944, 7.562844275798625 ], [ 4.910151005418186, 7.567736626122723 ], [ 4.913537978719489, 7.57225275019124 ], [ 4.918806553299248, 7.585424423140751 ], [ 4.92482805339057, 7.594456673277762 ], [ 4.931225776737506, 7.600101471113135 ], [ 4.950042247522447, 7.60950994450576 ], [ 4.957945346892245, 7.615155220341421 ], [ 4.965848446261987, 7.618165493386812 ], [ 4.96923541956329, 7.621929168944007 ], [ 4.972622394864572, 7.626068591756564 ], [ 4.976386070421825, 7.634347916381955 ], [ 4.978643893955905, 7.642627716007723 ], [ 4.981278418745944, 7.653541088422855 ], [ 4.983536243280014, 7.66520738634955 ], [ 4.984665394047227, 7.688540459203296 ], [ 4.988804816859783, 7.705475329709714 ], [ 4.990686417138249, 7.714507579846725 ], [ 4.993320941928289, 7.72316312772773 ], [ 4.995955466718328, 7.732947826376005 ], [ 4.998213291252398, 7.747624874348332 ], [ 4.998213291252398, 7.757786274252567 ], [ 4.992568493417025, 7.769452572179262 ], [ 4.975633143910272, 7.791279793009835 ], [ 4.968106746796423, 7.795043467567041 ], [ 4.956816673125331, 7.79805421761273 ], [ 4.94816064824397, 7.799559592635546 ], [ 4.940257548874172, 7.79767751735676 ], [ 4.931602000993166, 7.795419692822691 ], [ 4.922193526600552, 7.79316186928861 ], [ 4.915257453887818, 7.791219710969017 ], [ 4.915795803253559, 7.79579591807834 ], [ 4.915795803253559, 7.810849190306328 ], [ 4.915795803253559, 7.822114467960546 ], [ 4.908579350350351, 7.829799175181904 ], [ 4.910020828329777, 7.84181165734384 ], [ 4.911100864063599, 7.850109576981879 ], [ 4.914134979125151, 7.850375652162654 ], [ 4.916396140661504, 7.85715913777176 ], [ 4.923782824680416, 7.863490582073666 ], [ 4.924838066397399, 7.868062973180372 ], [ 4.924486160158267, 7.874394417482279 ], [ 4.927299976070117, 7.880373954545121 ], [ 4.932576179655086, 7.885650158130034 ], [ 4.937149047762091, 7.889167785520101 ], [ 4.941370009630077, 7.897609234255697 ], [ 4.949666023266786, 7.890256405259777 ], [ 4.953526496889822, 7.886610507782564 ], [ 4.956439971869372, 7.883858680912795 ], [ 4.965848446261987, 7.876331805798657 ], [ 4.973751544631796, 7.864289283616358 ], [ 4.974127768887399, 7.857514858013417 ], [ 4.974880695399008, 7.845096110575469 ], [ 4.979020119211555, 7.822892189488982 ], [ 4.981953621204696, 7.816853046385631 ], [ 4.985417842558491, 7.809720515539425 ], [ 4.996707916229582, 7.792032718521398 ], [ 5.018158912804495, 7.768323421412049 ], [ 5.030578136242809, 7.755527972718141 ], [ 5.039610386379763, 7.745743275069913 ], [ 5.052029132817722, 7.734829902654781 ], [ 5.060308456443124, 7.730690001841879 ], [ 5.079125404228364, 7.71902370491523 ], [ 5.093426227945088, 7.711120604545442 ], [ 5.103587150848966, 7.705475329709714 ], [ 5.111114024963115, 7.695690632061485 ], [ 5.113748549753154, 7.693432807527415 ] ] ] ] } },
{ "type": "Feature", "properties": { "fid": 17.0, "OBJECTID": 17.0, "lganame": "Ado-Ekiti", "statecode": "EK", "LGA_UID": "13_01" }, "geometry": { "type": "MultiPolygon", "coordinates": [ [ [ [ 5.236111770893217, 7.686359403721326 ], [ 5.238134312267448, 7.685467106115084 ], [ 5.242774261420095, 7.687787080691407 ], [ 5.246283965804764, 7.688143999933914 ], [ 5.251280834199918, 7.685288646993797 ], [ 5.253898241978277, 7.684634294549198 ], [ 5.258419217050118, 7.682135860851645 ], [ 5.263356599404801, 7.679815886275321 ], [ 5.268888846163691, 7.679399480992402 ], [ 5.275153537420294, 7.677046794393846 ], [ 5.275706064795713, 7.675435254298918 ], [ 5.276622086418115, 7.673707099124726 ], [ 5.279021152048131, 7.669181050049474 ], [ 5.275214014461369, 7.666414927170024 ], [ 5.273221216107345, 7.659782178663363 ], [ 5.27151746294976, 7.657841633344844 ], [ 5.269306444447466, 7.65409626880006 ], [ 5.276818637551628, 7.659271336316294 ], [ 5.291095404252019, 7.666885611489818 ], [ 5.313206196275246, 7.672734261463688 ], [ 5.330893993293273, 7.672358036208095 ], [ 5.334366030652404, 7.672358036208095 ], [ 5.339247037968789, 7.672358036208095 ], [ 5.354602814402313, 7.672358036208095 ], [ 5.365892887073414, 7.671605109696486 ], [ 5.373043536931959, 7.66784191113959 ], [ 5.378312110511672, 7.665960311861113 ], [ 5.376665115392598, 7.663760185366243 ], [ 5.371793270082435, 7.65436506298272 ], [ 5.366573810536067, 7.645317553835355 ], [ 5.362398147698912, 7.634531020506415 ], [ 5.36100625975314, 7.624787806886332 ], [ 5.364833832353838, 7.61922025710345 ], [ 5.373533249264653, 7.615044594266294 ], [ 5.384320258593959, 7.611912727138304 ], [ 5.393367289740979, 7.608085154537662 ], [ 5.397891044814628, 7.603213787227787 ], [ 5.399282931760354, 7.596602439735705 ], [ 5.397542952578135, 7.589991093243611 ], [ 5.386755943248886, 7.576768398259389 ], [ 5.372141361318938, 7.561109542619931 ], [ 5.363790034644637, 7.550323009290992 ], [ 5.362746238935415, 7.542319297852885 ], [ 5.361834049315632, 7.537303448444845 ], [ 5.359819888947072, 7.537245274405279 ], [ 5.346739769059752, 7.540579795670965 ], [ 5.328645228765367, 7.54197168361668 ], [ 5.313019276148282, 7.543030739336245 ], [ 5.308115481816344, 7.543363570562406 ], [ 5.286193370921353, 7.544755458508121 ], [ 5.270534992282194, 7.545103072744325 ], [ 5.264271736026615, 7.547191143163047 ], [ 5.254180431170028, 7.549974918054488 ], [ 5.242349625131567, 7.554498196127838 ], [ 5.218339919818106, 7.570852757240004 ], [ 5.207901000725315, 7.579204081914327 ], [ 5.190154551667433, 7.594862460553486 ], [ 5.187885284125628, 7.596259116502438 ], [ 5.181107520520413, 7.600430012336346 ], [ 5.169624328718157, 7.606693267591936 ], [ 5.161273479044155, 7.606693267591936 ], [ 5.150834083951054, 7.60704135882844 ], [ 5.138307571439896, 7.605997562119228 ], [ 5.121604919091226, 7.604257583936999 ], [ 5.113949775889921, 7.608433246774212 ], [ 5.107686519634285, 7.616784573448513 ], [ 5.106438636786436, 7.622524738348716 ], [ 5.108199716982995, 7.622708094473296 ], [ 5.122404098634206, 7.624186993478133 ], [ 5.134070395560911, 7.62343454396688 ], [ 5.13896274588501, 7.624939918989696 ], [ 5.145360470231992, 7.629832268313805 ], [ 5.152134417834588, 7.631337643336622 ], [ 5.162295817738766, 7.632090091847886 ], [ 5.171703815131025, 7.632842541359139 ], [ 5.18111228852365, 7.636229991660741 ], [ 5.187133788614972, 7.6445093152862 ], [ 5.184423389773428, 7.657541577140989 ], [ 5.185565530549411, 7.659016843143377 ], [ 5.188563651586492, 7.661491482824772 ], [ 5.193786569135227, 7.663204694988792 ], [ 5.195166656072956, 7.664394424797194 ], [ 5.198259955174706, 7.664061300570836 ], [ 5.204446554378194, 7.66339505111813 ], [ 5.207730209609281, 7.662538445536143 ], [ 5.208586816191314, 7.663728176344478 ], [ 5.208301280997318, 7.666012458896546 ], [ 5.208301280997318, 7.669962363580339 ], [ 5.206159765542225, 7.674388160587455 ], [ 5.206540479800935, 7.679337439950245 ], [ 5.208396459061987, 7.681288598275955 ], [ 5.210585562549397, 7.681812079631641 ], [ 5.212393953778076, 7.681145831178981 ], [ 5.217343233140866, 7.678861547626923 ], [ 5.221293137824659, 7.678623602465223 ], [ 5.223958133635392, 7.679385028982608 ], [ 5.224814740217425, 7.682763864278343 ], [ 5.224286499858522, 7.684781448649176 ], [ 5.224952749311228, 7.686732606974942 ], [ 5.22657078241059, 7.688540997203631 ], [ 5.226903906636949, 7.691729475370039 ], [ 5.226475604345922, 7.695108308665795 ], [ 5.224809981214207, 7.69667875373284 ], [ 5.227843144275084, 7.697126465037059 ], [ 5.233018470791478, 7.689809623065628 ], [ 5.236111770893217, 7.686359403721326 ] ] ] ] } },
{ "type": "Feature", "properties": { "fid": 99.0, "OBJECTID": 99.0, "lganame": "Ekiti South-West", "statecode": "EK", "LGA_UID": "13_04" }, "geometry": { "type": "MultiPolygon", "coordinates": [ [ [ [ 5.113949775889921, 7.608433246774212 ], [ 5.121604919091226, 7.604257583936999 ], [ 5.138307571439896, 7.605997562119228 ], [ 5.150834083951054, 7.60704135882844 ], [ 5.161273479044155, 7.606693267591936 ], [ 5.169624328718157, 7.606693267591936 ], [ 5.181107520520413, 7.600430012336346 ], [ 5.187885284125628, 7.596259116502438 ], [ 5.186675072303331, 7.592426776898549 ], [ 5.184935093121112, 7.58407545122418 ], [ 5.182695865599612, 7.580605506866561 ], [ 5.180025100784974, 7.574818610934642 ], [ 5.175454616679531, 7.565982341930805 ], [ 5.170274258159736, 7.556536197512571 ], [ 5.167531967296497, 7.551355838992777 ], [ 5.164180279019149, 7.544652462438137 ], [ 5.152601242151775, 7.529721260293115 ], [ 5.141022205284344, 7.515095234355385 ], [ 5.136755943385594, 7.509610175628552 ], [ 5.129747867623962, 7.502906799073912 ], [ 5.126091003139265, 7.499249934589272 ], [ 5.123653412483065, 7.495593548104921 ], [ 5.118473052963225, 7.491023063999478 ], [ 5.112988472236736, 7.488280296135883 ], [ 5.103847027025552, 7.480053424546099 ], [ 5.098667144506067, 7.475177765233354 ], [ 5.085564136603182, 7.45933294346753 ], [ 5.084746361047564, 7.456950664848875 ], [ 5.078227996618637, 7.459343910475013 ], [ 5.070805549575425, 7.460226059074387 ], [ 5.065242289795435, 7.460195065053313 ], [ 5.058757305389236, 7.459235668401448 ], [ 5.053199290612781, 7.458281993753474 ], [ 5.0485682494662, 7.457332611108427 ], [ 5.045802115586753, 7.454547405215976 ], [ 5.043031215704048, 7.452685355950791 ], [ 5.038420676571434, 7.448042869796438 ], [ 5.03287792180538, 7.444318771266126 ], [ 5.022725104907011, 7.435952186581403 ], [ 5.019958973027542, 7.433166503688653 ], [ 5.015203390796387, 7.430313954750488 ], [ 5.011699334415539, 7.427669383953628 ], [ 5.008897819512015, 7.425555032517025 ], [ 5.005685547329449, 7.418178702505145 ], [ 5.004573458573816, 7.413932547620107 ], [ 4.997020245441774, 7.415041924373895 ], [ 4.987108706707374, 7.419235229223034 ], [ 4.984821320153173, 7.426478386144424 ], [ 4.975672244936789, 7.433721066065459 ], [ 4.967667103497718, 7.43867683443267 ], [ 4.95241880413721, 7.447825908649065 ], [ 4.94784402802884, 7.454688072311569 ], [ 4.938885688942094, 7.47870397562923 ], [ 4.92592430113541, 7.505007743501437 ], [ 4.920206070250174, 7.517206191789683 ], [ 4.917919158696293, 7.529786587337469 ], [ 4.909968376294103, 7.555020332482627 ], [ 4.906387328860944, 7.562844275798625 ], [ 4.912408828952323, 7.562844275798625 ], [ 4.925204276646184, 7.560210228008884 ], [ 4.940257548874172, 7.555694102940436 ], [ 4.96471929649482, 7.547038078059074 ], [ 4.980901718489974, 7.543651103757782 ], [ 4.997837066996794, 7.540640830712448 ], [ 5.018535614060454, 7.541393280223701 ], [ 5.034718037055654, 7.547414780315023 ], [ 5.045631409470786, 7.561338901775798 ], [ 5.054663657607762, 7.573005675702802 ], [ 5.061437607210337, 7.582413673095118 ], [ 5.065577507023193, 7.592951298254945 ], [ 5.074985981415807, 7.610639095272973 ], [ 5.084017753552473, 7.621929168944007 ], [ 5.091168404411007, 7.630960941080673 ], [ 5.098318577269254, 7.636982441171995 ], [ 5.099828243295008, 7.639666556995735 ], [ 5.101893424698176, 7.636013030513368 ], [ 5.103587150848966, 7.626445293012523 ], [ 5.106438636786436, 7.622524738348716 ], [ 5.107686519634285, 7.616784573448513 ], [ 5.113949775889921, 7.608433246774212 ] ] ] ] } },
{ "type": "Feature", "properties": { "fid": 124.0, "OBJECTID": 124.0, "lganame": "Moba", "statecode": "EK", "LGA_UID": "13_15" }, "geometry": { "type": "MultiPolygon", "coordinates": [ [ [ [ 5.162611484953231, 8.049506187462498 ], [ 5.164929866528496, 8.047187804887301 ], [ 5.17697286571115, 8.038908958262198 ], [ 5.181865215035259, 8.036273956471859 ], [ 5.188262939382184, 8.029500007869274 ], [ 5.191649913683477, 8.022350311011394 ], [ 5.195789337496024, 8.018210411198481 ], [ 5.202939987354569, 8.017081261431315 ], [ 5.220251083116636, 8.020844459988211 ], [ 5.230788708276464, 8.021973609755435 ], [ 5.2444515225597, 8.020535468778291 ], [ 5.240949631180342, 8.014070511385626 ], [ 5.234928131089021, 8.005414962504631 ], [ 5.230412483020814, 7.996382713367609 ], [ 5.227401732975181, 7.987350941230943 ], [ 5.221004008628199, 7.979447841861145 ], [ 5.208208560934338, 7.971544743491393 ], [ 5.192778587450391, 7.964394092632858 ], [ 5.180736065268036, 7.956114769007456 ], [ 5.170951365619771, 7.946706294614842 ], [ 5.166811465806916, 7.940685271523819 ], [ 5.164706707376865, 7.938229560855291 ], [ 5.160037518204376, 7.940685271523819 ], [ 5.152510643090181, 7.945201396592324 ], [ 5.138586520629417, 7.950469971172083 ], [ 5.129554272492442, 7.952351570450503 ], [ 5.12089872361139, 7.948588370893617 ], [ 5.111114024963115, 7.943319321313538 ], [ 5.103587150848966, 7.934287548176883 ], [ 5.098694800524868, 7.929395198852774 ], [ 5.094156265441143, 7.922412395108267 ], [ 5.08589935283095, 7.932029246642458 ], [ 5.079125404228364, 7.939179896501003 ], [ 5.068588257068882, 7.953104018961767 ], [ 5.058426857164704, 7.962512493354382 ], [ 5.046384334982349, 7.973426341769823 ], [ 5.036599636334131, 7.979447841861145 ], [ 5.033235073048047, 7.982283591787905 ], [ 5.033235073048047, 7.989907741968182 ], [ 5.032854079789161, 7.99676942763034 ], [ 5.035522460602238, 8.005156517328999 ], [ 5.039715767451355, 8.01011180869591 ], [ 5.053058146516889, 8.023454665761733 ], [ 5.056488990847981, 8.031078338941654 ], [ 5.05763292262526, 8.039464950639967 ], [ 5.061813831465997, 8.038155555750279 ], [ 5.072351455625778, 8.031005858892399 ], [ 5.075738429927071, 8.024984359801067 ], [ 5.084393977808134, 8.02423191128986 ], [ 5.087197303712856, 8.02789688078002 ], [ 5.089286327132243, 8.03062915763644 ], [ 5.097189425502052, 8.039284705517503 ], [ 5.104340076360586, 8.046812056632007 ], [ 5.114124775008804, 8.058101654302732 ], [ 5.117887973565701, 8.062618256371536 ], [ 5.127672672213976, 8.062994002626851 ], [ 5.142349720186303, 8.061864852859628 ], [ 5.150629043811762, 8.055843352768306 ], [ 5.157026768158687, 8.052456856467359 ], [ 5.162611484953231, 8.049506187462498 ] ] ] ] } },
{ "type": "Feature", "properties": { "fid": 126.0, "OBJECTID": 126.0, "lganame": "Ido-Osi", "statecode": "EK", "LGA_UID": "13_08" }, "geometry": { "type": "MultiPolygon", "coordinates": [ [ [ [ 5.164706707376865, 7.938229560855291 ], [ 5.168316840829789, 7.932029246642458 ], [ 5.173209190153898, 7.926760674062734 ], [ 5.17923069024522, 7.921492100482965 ], [ 5.189391613149098, 7.917728900926022 ], [ 5.1976709367745, 7.912459850345954 ], [ 5.207079411167115, 7.909449100300321 ], [ 5.224767208185142, 7.906438828254977 ], [ 5.249605179061348, 7.904556750976212 ], [ 5.258539200131622, 7.904277801786634 ], [ 5.258261203942709, 7.89815902662923 ], [ 5.256755828919893, 7.881224155122766 ], [ 5.257884978687116, 7.866170882894778 ], [ 5.255250453897077, 7.854880810223733 ], [ 5.254497528385514, 7.842837811041079 ], [ 5.254497528385514, 7.834934710671291 ], [ 5.257508278431146, 7.818376064420477 ], [ 5.262400626755266, 7.801817417169616 ], [ 5.264282703034041, 7.794666767311128 ], [ 5.265653132965213, 7.789870262052091 ], [ 5.263906001778082, 7.788269519964501 ], [ 5.259766578965582, 7.783753394895996 ], [ 5.250358104572967, 7.782624245128773 ], [ 5.236433506111837, 7.779989719338744 ], [ 5.221004008628199, 7.780366420594703 ], [ 5.198423862286063, 7.778484344315928 ], [ 5.17659616545518, 7.778108120060267 ], [ 5.155521393135871, 7.775474072270583 ], [ 5.146113395743555, 7.773968697247767 ], [ 5.141597270675049, 7.770957947202078 ], [ 5.13933897014067, 7.772087096969301 ], [ 5.140468120907883, 7.780366420594703 ], [ 5.139715672396619, 7.786764144941628 ], [ 5.13933897014067, 7.803699017448082 ], [ 5.13896274588501, 7.813483715096368 ], [ 5.13896274588501, 7.825150013023062 ], [ 5.139715672396619, 7.838321685972574 ], [ 5.139715672396619, 7.847730160365188 ], [ 5.138210297373803, 7.860525608059106 ], [ 5.127672672213976, 7.879718781099939 ], [ 5.119017124332913, 7.892890453049461 ], [ 5.108479500173075, 7.906815051510591 ], [ 5.100576400803334, 7.91471815088039 ], [ 5.094156265441143, 7.922412395108267 ], [ 5.098694800524868, 7.929395198852774 ], [ 5.103587150848966, 7.934287548176883 ], [ 5.111114024963115, 7.943319321313538 ], [ 5.12089872361139, 7.948588370893617 ], [ 5.129554272492442, 7.952351570450503 ], [ 5.138586520629417, 7.950469971172083 ], [ 5.152510643090181, 7.945201396592324 ], [ 5.160037518204376, 7.940685271523819 ], [ 5.164706707376865, 7.938229560855291 ] ] ] ] } },
{ "type": "Feature", "properties": { "fid": 132.0, "OBJECTID": 132.0, "lganame": "Gbonyin", "statecode": "EK", "LGA_UID": "13_07" }, "geometry": { "type": "MultiPolygon", "coordinates": [ [ [ [ 5.43964719818598, 7.668283463439593 ], [ 5.447302341387285, 7.662020206184025 ], [ 5.45808935171658, 7.657148837874161 ], [ 5.478619098665547, 7.655756949928389 ], [ 5.499149322614869, 7.659236431292584 ], [ 5.516199589199744, 7.66619586902118 ], [ 5.542645454168451, 7.682550430133347 ], [ 5.549952507133241, 7.688465595152422 ], [ 5.554128646970753, 7.692150592656162 ], [ 5.554645393321834, 7.691915713496599 ], [ 5.559173584398536, 7.689857483098137 ], [ 5.563986777668902, 7.687815665710787 ], [ 5.570656776200849, 7.684986114788273 ], [ 5.588402748258375, 7.671763419804051 ], [ 5.602669715952118, 7.65436506298272 ], [ 5.616936206645562, 7.635226726979113 ], [ 5.629115104920515, 7.624091625413314 ], [ 5.638510227304096, 7.616088389975516 ], [ 5.642978668340163, 7.612056732236169 ], [ 5.642061709717154, 7.610205172978112 ], [ 5.638383865218202, 7.604644775200086 ], [ 5.634706019719317, 7.599083900421761 ], [ 5.631032944223591, 7.592600346016468 ], [ 5.629199504977862, 7.588896751500045 ], [ 5.624599456852366, 7.582407951091227 ], [ 5.621859073990379, 7.575005531061606 ], [ 5.620030402747886, 7.570378779917974 ], [ 5.618211745512212, 7.56390523851951 ], [ 5.616414070290773, 7.553738116611385 ], [ 5.613699436446325, 7.541719437445295 ], [ 5.61279773683367, 7.537097931305198 ], [ 5.613771439495224, 7.528792857662268 ], [ 5.612900256903288, 7.518630980757791 ], [ 5.601103782888174, 7.525269032268 ], [ 5.589620590085872, 7.534664153651534 ], [ 5.581617354648017, 7.546147346453836 ], [ 5.571874619028335, 7.556238174310067 ], [ 5.560391426226033, 7.555542468837359 ], [ 5.552736282024682, 7.554846287364342 ], [ 5.544733046586884, 7.553454399418627 ], [ 5.521419047746122, 7.550323009290992 ], [ 5.49288606635929, 7.548234939872259 ], [ 5.466788291627097, 7.544407368271607 ], [ 5.446523257857962, 7.542698317110364 ], [ 5.437907219003762, 7.54197168361668 ], [ 5.425944912875934, 7.541825586517405 ], [ 5.404850482543281, 7.537796020779524 ], [ 5.381884574939022, 7.535707951360735 ], [ 5.381505919681729, 7.535738082381215 ], [ 5.361834049315632, 7.537303448444845 ], [ 5.362746238935415, 7.542319297852885 ], [ 5.363790034644637, 7.550323009290992 ], [ 5.372141361318938, 7.561109542619931 ], [ 5.386755943248886, 7.576768398259389 ], [ 5.397542952578135, 7.589991093243611 ], [ 5.399282931760354, 7.596602439735705 ], [ 5.397891044814628, 7.603213787227787 ], [ 5.393367289740979, 7.608085154537662 ], [ 5.384320258593959, 7.611912727138304 ], [ 5.373533249264653, 7.615044594266294 ], [ 5.364833832353838, 7.61922025710345 ], [ 5.36100625975314, 7.624787806886332 ], [ 5.362398147698912, 7.634531020506415 ], [ 5.366573810536067, 7.645317553835355 ], [ 5.371793270082435, 7.65436506298272 ], [ 5.376665115392598, 7.663760185366243 ], [ 5.378312110511672, 7.665960311861113 ], [ 5.385797951597965, 7.663554366226379 ], [ 5.398171150004941, 7.670216856753257 ], [ 5.403881855885118, 7.677355239603457 ], [ 5.407213101148557, 7.688776653363732 ], [ 5.408155917789145, 7.70099258366389 ], [ 5.413375378335502, 7.710735798283963 ], [ 5.41689252872527, 7.716513634209718 ], [ 5.423292637073814, 7.710735798283963 ], [ 5.426772118437952, 7.70099258366389 ], [ 5.432687759457394, 7.683246135605998 ], [ 5.43964719818598, 7.668283463439593 ] ] ] ] } },
{ "type": "Feature", "properties": { "fid": 164.0, "OBJECTID": 164.0, "lganame": "Irepodun\/Ifelodun", "statecode": "EK", "LGA_UID": "13_13" }, "geometry": { "type": "MultiPolygon", "coordinates": [ [ [ [ 5.265653132965213, 7.789870262052091 ], [ 5.273314476170697, 7.778484344315928 ], [ 5.281593799796156, 7.771334171457681 ], [ 5.302668571115476, 7.75590467497409 ], [ 5.317956909503152, 7.746986241914442 ], [ 5.320732594389085, 7.745367049814263 ], [ 5.322688241717856, 7.744522568240484 ], [ 5.349990630268564, 7.732732927229961 ], [ 5.353850364891059, 7.731066227097529 ], [ 5.361524040104996, 7.7284571933248 ], [ 5.372667312676299, 7.724668502750603 ], [ 5.383956909347035, 7.724668502750603 ], [ 5.387426375704422, 7.723801136161228 ], [ 5.391483784461229, 7.722786903472127 ], [ 5.400674819706069, 7.719782829430983 ], [ 5.409373759616585, 7.719782829430983 ], [ 5.41689252872527, 7.716513634209718 ], [ 5.413375378335502, 7.710735798283963 ], [ 5.408155917789145, 7.70099258366389 ], [ 5.407213101148557, 7.688776653363732 ], [ 5.403881855885118, 7.677355239603457 ], [ 5.398171150004941, 7.670216856753257 ], [ 5.385797951597965, 7.663554366226379 ], [ 5.378312110511672, 7.665960311861113 ], [ 5.373043536931959, 7.66784191113959 ], [ 5.365892887073414, 7.671605109696486 ], [ 5.354602814402313, 7.672358036208095 ], [ 5.339247037968789, 7.672358036208095 ], [ 5.334366030652404, 7.672358036208095 ], [ 5.330893993293273, 7.672358036208095 ], [ 5.313206196275246, 7.672734261463688 ], [ 5.291095404252019, 7.666885611489818 ], [ 5.276818637551628, 7.659271336316294 ], [ 5.269306444447466, 7.65409626880006 ], [ 5.27151746294976, 7.657841633344844 ], [ 5.273221216107345, 7.659782178663363 ], [ 5.275214014461369, 7.666414927170024 ], [ 5.279021152048131, 7.669181050049474 ], [ 5.276622086418115, 7.673707099124726 ], [ 5.275706064795713, 7.675435254298918 ], [ 5.275153537420294, 7.677046794393846 ], [ 5.268888846163691, 7.679399480992402 ], [ 5.263356599404801, 7.679815886275321 ], [ 5.258419217050118, 7.682135860851645 ], [ 5.253898241978277, 7.684634294549198 ], [ 5.251280834199918, 7.685288646993797 ], [ 5.246283965804764, 7.688143999933914 ], [ 5.242774261420095, 7.687787080691407 ], [ 5.238134312267448, 7.685467106115084 ], [ 5.236111770893217, 7.686359403721326 ], [ 5.233018470791478, 7.689809623065628 ], [ 5.227843144275084, 7.697126465037059 ], [ 5.224809981214207, 7.69667875373284 ], [ 5.226475604345922, 7.695108308665795 ], [ 5.226903906636949, 7.691729475370039 ], [ 5.22657078241059, 7.688540997203631 ], [ 5.224952749311228, 7.686732606974942 ], [ 5.224286499858522, 7.684781448649176 ], [ 5.224814740217425, 7.682763864278343 ], [ 5.223958133635392, 7.679385028982608 ], [ 5.221293137824659, 7.678623602465223 ], [ 5.217343233140866, 7.678861547626923 ], [ 5.212393953778076, 7.681145831178981 ], [ 5.210585562549397, 7.681812079631641 ], [ 5.208396459061987, 7.681288598275955 ], [ 5.206540479800935, 7.679337439950245 ], [ 5.206159765542225, 7.674388160587455 ], [ 5.208301280997318, 7.669962363580339 ], [ 5.208301280997318, 7.666012458896546 ], [ 5.208586816191314, 7.663728176344478 ], [ 5.207730209609281, 7.662538445536143 ], [ 5.204446554378194, 7.66339505111813 ], [ 5.198259955174706, 7.664061300570836 ], [ 5.195166656072956, 7.664394424797194 ], [ 5.193786569135227, 7.663204694988792 ], [ 5.188563651586492, 7.661491482824772 ], [ 5.185565530549411, 7.659016843143377 ], [ 5.184423389773428, 7.657541577140989 ], [ 5.187133788614972, 7.6445093152862 ], [ 5.18111228852365, 7.636229991660741 ], [ 5.171703815131025, 7.632842541359139 ], [ 5.162295817738766, 7.632090091847886 ], [ 5.152134417834588, 7.631337643336622 ], [ 5.145360470231992, 7.629832268313805 ], [ 5.13896274588501, 7.624939918989696 ], [ 5.134070395560911, 7.62343454396688 ], [ 5.122404098634206, 7.624186993478133 ], [ 5.108199716982995, 7.622708094473296 ], [ 5.106438636786436, 7.622524738348716 ], [ 5.103587150848966, 7.626445293012523 ], [ 5.101893424698176, 7.636013030513368 ], [ 5.099828243295008, 7.639666556995735 ], [ 5.1017055505705, 7.643003941263373 ], [ 5.105468750127443, 7.658433436746975 ], [ 5.107727050661822, 7.671981811952435 ], [ 5.109232425684695, 7.682518959111917 ], [ 5.113748549753154, 7.693432807527415 ], [ 5.115530934964227, 7.698335002858187 ], [ 5.116758822798488, 7.701712132152807 ], [ 5.119769572844177, 7.713002204823852 ], [ 5.125414847679849, 7.727679252796236 ], [ 5.127991749430748, 7.735409683048715 ], [ 5.129930972748355, 7.741227150001407 ], [ 5.132188797282481, 7.748001574604302 ], [ 5.135951995839378, 7.758162497508181 ], [ 5.13933897014067, 7.772087096969301 ], [ 5.141597270675049, 7.770957947202078 ], [ 5.146113395743555, 7.773968697247767 ], [ 5.155521393135871, 7.775474072270583 ], [ 5.17659616545518, 7.778108120060267 ], [ 5.198423862286063, 7.778484344315928 ], [ 5.221004008628199, 7.780366420594703 ], [ 5.236433506111837, 7.779989719338744 ], [ 5.244505691596487, 7.781516972376437 ], [ 5.250358104572967, 7.782624245128773 ], [ 5.259766578965582, 7.783753394895996 ], [ 5.263906001778082, 7.788269519964501 ], [ 5.265653132965213, 7.789870262052091 ] ] ] ] } },
{ "type": "Feature", "properties": { "fid": 177.0, "OBJECTID": 177.0, "lganame": "Efon", "statecode": "EK", "LGA_UID": "13_02" }, "geometry": { "type": "MultiPolygon", "coordinates": [ [ [ [ 4.906387328860944, 7.562844275798625 ], [ 4.902247906048444, 7.576392651004085 ], [ 4.89283943165583, 7.592951298254945 ], [ 4.88757085807606, 7.60461759618164 ], [ 4.883054733007555, 7.61139154378418 ], [ 4.868001460779567, 7.616283894108335 ], [ 4.863861560966711, 7.62268161845526 ], [ 4.868377686035217, 7.635477066149178 ], [ 4.873270035359326, 7.651283263888729 ], [ 4.880796909473474, 7.66784191113959 ], [ 4.883807181518819, 7.678755759555031 ], [ 4.88794708333171, 7.691927432504542 ], [ 4.890957832377353, 7.709615230522559 ], [ 4.891234397565256, 7.713911057441408 ], [ 4.891615390824143, 7.718485831549742 ], [ 4.893228530920169, 7.730335235600876 ], [ 4.895473957445859, 7.734076977143218 ], [ 4.898226738316225, 7.739858150071257 ], [ 4.903000354559651, 7.749883174882768 ], [ 4.904205799378701, 7.757354735959325 ], [ 4.909398078906634, 7.766441822133572 ], [ 4.914290428230743, 7.783000469384433 ], [ 4.915257453887818, 7.791219710969017 ], [ 4.922193526600552, 7.79316186928861 ], [ 4.931602000993166, 7.795419692822691 ], [ 4.940257548874172, 7.79767751735676 ], [ 4.94816064824397, 7.799559592635546 ], [ 4.956816673125331, 7.79805421761273 ], [ 4.968106746796423, 7.795043467567041 ], [ 4.975633143910272, 7.791279793009835 ], [ 4.992568493417025, 7.769452572179262 ], [ 4.998213291252398, 7.757786274252567 ], [ 4.998213291252398, 7.747624874348332 ], [ 4.995955466718328, 7.732947826376005 ], [ 4.993320941928289, 7.72316312772773 ], [ 4.990686417138249, 7.714507579846725 ], [ 4.988804816859783, 7.705475329709714 ], [ 4.984665394047227, 7.688540459203296 ], [ 4.983536243280014, 7.66520738634955 ], [ 4.981278418745944, 7.653541088422855 ], [ 4.978643893955905, 7.642627716007723 ], [ 4.976386070421825, 7.634347916381955 ], [ 4.972622394864572, 7.626068591756564 ], [ 4.96923541956329, 7.621929168944007 ], [ 4.965848446261987, 7.618165493386812 ], [ 4.957945346892245, 7.615155220341421 ], [ 4.950042247522447, 7.60950994450576 ], [ 4.931225776737506, 7.600101471113135 ], [ 4.92482805339057, 7.594456673277762 ], [ 4.918806553299248, 7.585424423140751 ], [ 4.913537978719489, 7.57225275019124 ], [ 4.910151005418186, 7.567736626122723 ], [ 4.906387328860944, 7.562844275798625 ] ] ] ] } },
{ "type": "Feature", "properties": { "fid": 194.0, "OBJECTID": 194.0, "lganame": "Ikere", "statecode": "EK", "LGA_UID": "13_10" }, "geometry": { "type": "MultiPolygon", "coordinates": [ [ [ [ 5.313019276148282, 7.543030739336245 ], [ 5.311943054417043, 7.536752224070312 ], [ 5.310551167471317, 7.533620357942368 ], [ 5.307767390579841, 7.529096602868663 ], [ 5.305871487291654, 7.526064872808718 ], [ 5.304042816049162, 7.521189213495973 ], [ 5.302824020221067, 7.518446921632687 ], [ 5.302214621807025, 7.516009330976487 ], [ 5.299777031150768, 7.512048244285097 ], [ 5.297339439494579, 7.505953789144201 ], [ 5.296425342873476, 7.500164509210663 ], [ 5.297339439494579, 7.495593548104921 ], [ 5.296730042080526, 7.49163246241352 ], [ 5.296425342873476, 7.488585472343232 ], [ 5.297339439494579, 7.484623908651542 ], [ 5.299777031150768, 7.480967522167191 ], [ 5.305566788084661, 7.476091861854457 ], [ 5.308309077947911, 7.472435474370116 ], [ 5.308004378740861, 7.469388485299817 ], [ 5.303738116842169, 7.463598728365923 ], [ 5.300995826978919, 7.457504749225336 ], [ 5.302519321014017, 7.453847884740696 ], [ 5.306253909551515, 7.440543651701091 ], [ 5.299021243637242, 7.438406467248967 ], [ 5.294395447494253, 7.436533927976654 ], [ 5.286978245454634, 7.436492919948819 ], [ 5.279565811418195, 7.435528278293361 ], [ 5.268424033847907, 7.43823671313362 ], [ 5.259157657551839, 7.43726205847139 ], [ 5.251750468518992, 7.435374260188723 ], [ 5.245270252115972, 7.433491706909649 ], [ 5.235998630816368, 7.433440207874639 ], [ 5.224867344253198, 7.434301853460113 ], [ 5.220231056103046, 7.434276104442574 ], [ 5.217449665213223, 7.43426084543222 ], [ 5.208167552906446, 7.436056136652041 ], [ 5.200745105863234, 7.436938286251404 ], [ 5.192399979193112, 7.436892033219976 ], [ 5.187743664029369, 7.44055986371211 ], [ 5.181248187616006, 7.441447258315065 ], [ 5.173830985576387, 7.441406250287173 ], [ 5.167345524169775, 7.440446853635308 ], [ 5.159923077126621, 7.441329002234681 ], [ 5.150640964819843, 7.443124294454492 ], [ 5.145077705039853, 7.443093300433475 ], [ 5.138582229626479, 7.443981171036739 ], [ 5.132086754213105, 7.44486808763935 ], [ 5.126518726429936, 7.44576072724584 ], [ 5.12001800501298, 7.447571754476371 ], [ 5.114449978229743, 7.448463917082563 ], [ 5.10795450181638, 7.449351787685828 ], [ 5.102385998032844, 7.450243950291963 ], [ 5.095885753616244, 7.452054976522504 ], [ 5.089379787195753, 7.454788685379924 ], [ 5.084746361047564, 7.456950664848875 ], [ 5.085564136603182, 7.45933294346753 ], [ 5.098667144506067, 7.475177765233354 ], [ 5.103847027025552, 7.480053424546099 ], [ 5.112988472236736, 7.488280296135883 ], [ 5.118473052963225, 7.491023063999478 ], [ 5.123653412483065, 7.495593548104921 ], [ 5.126091003139265, 7.499249934589272 ], [ 5.129747867623962, 7.502906799073912 ], [ 5.136755943385594, 7.509610175628552 ], [ 5.141022205284344, 7.515095234355385 ], [ 5.152601242151775, 7.529721260293115 ], [ 5.164180279019149, 7.544652462438137 ], [ 5.167531967296497, 7.551355838992777 ], [ 5.170274258159736, 7.556536197512571 ], [ 5.175454616679531, 7.565982341930805 ], [ 5.180025100784974, 7.574818610934642 ], [ 5.182695865599612, 7.580605506866561 ], [ 5.184935093121112, 7.58407545122418 ], [ 5.186675072303331, 7.592426776898549 ], [ 5.187885284125628, 7.596259116502438 ], [ 5.190154551667433, 7.594862460553486 ], [ 5.207901000725315, 7.579204081914327 ], [ 5.218339919818106, 7.570852757240004 ], [ 5.242349625131567, 7.554498196127838 ], [ 5.254180431170028, 7.549974918054488 ], [ 5.264271736026615, 7.547191143163047 ], [ 5.270534992282194, 7.545103072744325 ], [ 5.286193370921353, 7.544755458508121 ], [ 5.308115481816344, 7.543363570562406 ], [ 5.313019276148282, 7.543030739336245 ] ] ] ] } },
{ "type": "Feature", "properties": { "fid": 215.0, "OBJECTID": 215.0, "lganame": "Ekiti East", "statecode": "EK", "LGA_UID": "13_03" }, "geometry": { "type": "MultiPolygon", "coordinates": [ [ [ [ 5.737289429419889, 7.821079254257143 ], [ 5.741160393050052, 7.812342167320708 ], [ 5.746031761359916, 7.805034637355561 ], [ 5.755774974979943, 7.795639514972038 ], [ 5.767953873254953, 7.78763627953424 ], [ 5.791615486331921, 7.782068728751312 ], [ 5.773028373702857, 7.747318745140376 ], [ 5.76760578201845, 7.737181187252361 ], [ 5.756123066216446, 7.728481770341489 ], [ 5.742552279995778, 7.719782829430983 ], [ 5.728285789302333, 7.71038770704746 ], [ 5.716454983263873, 7.70099258366389 ], [ 5.707059859880303, 7.690553664571155 ], [ 5.699404239678699, 7.682898045369541 ], [ 5.69488096160535, 7.671763419804051 ], [ 5.694324493227214, 7.66452836988816 ], [ 5.69314098442311, 7.658888340056023 ], [ 5.692097186713909, 7.651581287091233 ], [ 5.691401005240891, 7.642881870180418 ], [ 5.691401005240891, 7.638010501870554 ], [ 5.688617229349404, 7.632442951087626 ], [ 5.680962086148099, 7.623744011177109 ], [ 5.675742625601742, 7.623744011177109 ], [ 5.669479370346153, 7.626179694832047 ], [ 5.659388065489566, 7.628963469723487 ], [ 5.655056476546463, 7.628722667559884 ], [ 5.653100967217767, 7.625963687685271 ], [ 5.646656512839115, 7.617617607014552 ], [ 5.642978668340163, 7.612056732236169 ], [ 5.638510227304096, 7.616088389975516 ], [ 5.629115104920515, 7.624091625413314 ], [ 5.616936206645562, 7.635226726979113 ], [ 5.602669715952118, 7.65436506298272 ], [ 5.588402748258375, 7.671763419804051 ], [ 5.570656776200849, 7.684986114788273 ], [ 5.563986777668902, 7.687815665710787 ], [ 5.559173584398536, 7.689857483098137 ], [ 5.554645393321834, 7.691915713496599 ], [ 5.555021853577671, 7.692453514861995 ], [ 5.558526196958667, 7.696766551792507 ], [ 5.563108798072335, 7.702157847455624 ], [ 5.567960964369149, 7.70943609640085 ], [ 5.572813129665974, 7.716714345346077 ], [ 5.576047906863835, 7.721836075826104 ], [ 5.579821814428044, 7.727766500855523 ], [ 5.581169638343852, 7.730192583503936 ], [ 5.589256580838537, 7.735314314983896 ], [ 5.598152218882717, 7.740705610647012 ], [ 5.602734819996385, 7.743401258478627 ], [ 5.608665246025794, 7.747714295409082 ], [ 5.612978281956316, 7.751218636790156 ], [ 5.616752188520479, 7.755262108537522 ], [ 5.620795661267834, 7.763349052032197 ], [ 5.624569566832065, 7.771435994526882 ], [ 5.629152168945723, 7.778983808655255 ], [ 5.632656511326729, 7.785183798867877 ], [ 5.642360842920368, 7.796505519560469 ], [ 5.646134750484578, 7.802435944589888 ], [ 5.648291267949844, 7.807288110886702 ], [ 5.650178222231943, 7.809175064168812 ], [ 5.652334739697153, 7.816453314114028 ], [ 5.654221692979263, 7.819688091311946 ], [ 5.656917340810821, 7.824540256608714 ], [ 5.65853318490872, 7.827769885803093 ], [ 5.658838749116342, 7.827678203740845 ], [ 5.668435096636586, 7.829044341669032 ], [ 5.688617229349404, 7.829740524142096 ], [ 5.710191250007938, 7.83008813937829 ], [ 5.728981494775041, 7.82834863719637 ], [ 5.737289429419889, 7.821079254257143 ] ] ] ] } },
{ "type": "Feature", "properties": { "fid": 217.0, "OBJECTID": 217.0, "lganame": "Ikole", "statecode": "EK", "LGA_UID": "13_11" }, "geometry": { "type": "MultiPolygon", "coordinates": [ [ [ [ 5.643636226786953, 8.0739679340831 ], [ 5.648949146396831, 8.074360847350079 ], [ 5.656256676361977, 8.074708938586582 ], [ 5.65973615572608, 8.069837570276718 ], [ 5.653820514706695, 8.064270020493836 ], [ 5.645817280268886, 8.060790062129399 ], [ 5.643033504377399, 8.05905055994748 ], [ 5.639902115249811, 8.053831100401112 ], [ 5.643033504377399, 8.048263549618184 ], [ 5.647209167214612, 8.040956496653394 ], [ 5.648949146396831, 8.032605170979082 ], [ 5.65068912457906, 8.023557662831706 ], [ 5.656328201410531, 8.019577026127081 ], [ 5.66251993161751, 8.015206337157395 ], [ 5.667391299927431, 8.008595466665611 ], [ 5.668087482400438, 8.002331734409722 ], [ 5.663215637090218, 8.000244140991299 ], [ 5.656952380834639, 7.994328975972223 ], [ 5.650732993608869, 7.990740775534164 ], [ 5.649573325820938, 7.987886428594777 ], [ 5.647557259451105, 7.986158371420629 ], [ 5.647557259451105, 7.974146843259405 ], [ 5.647209167214612, 7.96614360782155 ], [ 5.645469666032682, 7.963011741693606 ], [ 5.634334564466883, 7.958487987619947 ], [ 5.627027034501793, 7.957096099674231 ], [ 5.614152430754075, 7.962316036220898 ], [ 5.609628676680416, 7.96614360782155 ], [ 5.601625443242597, 7.963707447166314 ], [ 5.598841667351167, 7.958487987619947 ], [ 5.598841667351167, 7.951876640127807 ], [ 5.6019735344791, 7.942829608980787 ], [ 5.604061603897833, 7.926475047868621 ], [ 5.608584880971193, 7.910816669229519 ], [ 5.612412452571846, 7.876368045823313 ], [ 5.614152430754075, 7.865581036494007 ], [ 5.623199462901141, 7.842963219126261 ], [ 5.630506991866241, 7.834959983688464 ], [ 5.642685890141252, 7.828696251432518 ], [ 5.656604289598135, 7.82834863719637 ], [ 5.65853318490872, 7.827769885803093 ], [ 5.656917340810821, 7.824540256608714 ], [ 5.654221692979263, 7.819688091311946 ], [ 5.652334739697153, 7.816453314114028 ], [ 5.650178222231943, 7.809175064168812 ], [ 5.648291267949844, 7.807288110886702 ], [ 5.646134750484578, 7.802435944589888 ], [ 5.642360842920368, 7.796505519560469 ], [ 5.632656511326729, 7.785183798867877 ], [ 5.629152168945723, 7.778983808655255 ], [ 5.624569566832065, 7.771435994526882 ], [ 5.620795661267834, 7.763349052032197 ], [ 5.616752188520479, 7.755262108537522 ], [ 5.612978281956316, 7.751218636790156 ], [ 5.608665246025794, 7.747714295409082 ], [ 5.602734819996385, 7.743401258478627 ], [ 5.598152218882717, 7.740705610647012 ], [ 5.589256580838537, 7.735314314983896 ], [ 5.581169638343852, 7.730192583503936 ], [ 5.579821814428044, 7.727766500855523 ], [ 5.576047906863835, 7.721836075826104 ], [ 5.572813129665974, 7.716714345346077 ], [ 5.567960964369149, 7.70943609640085 ], [ 5.563108798072335, 7.702157847455624 ], [ 5.558526196958667, 7.696766551792507 ], [ 5.555021853577671, 7.692453514861995 ], [ 5.554645393321834, 7.691915713496599 ], [ 5.554128646970753, 7.692150592656162 ], [ 5.549952507133241, 7.688465595152422 ], [ 5.542645454168451, 7.682550430133347 ], [ 5.516199589199744, 7.66619586902118 ], [ 5.499149322614869, 7.659236431292584 ], [ 5.478619098665547, 7.655756949928389 ], [ 5.45808935171658, 7.657148837874161 ], [ 5.447302341387285, 7.662020206184025 ], [ 5.43964719818598, 7.668283463439593 ], [ 5.432687759457394, 7.683246135605998 ], [ 5.426772118437952, 7.70099258366389 ], [ 5.423292637073814, 7.710735798283963 ], [ 5.41689252872527, 7.716513634209718 ], [ 5.409373759616585, 7.719782829430983 ], [ 5.400674819706069, 7.719782829430983 ], [ 5.391483784461229, 7.722786903472127 ], [ 5.387426375704422, 7.723801136161228 ], [ 5.391801356676979, 7.73161363646949 ], [ 5.39239263507875, 7.733767032932576 ], [ 5.396673202987188, 7.749360084527325 ], [ 5.396325110750695, 7.766758442348703 ], [ 5.396499633869269, 7.77565193239144 ], [ 5.396673202987188, 7.784504414406285 ], [ 5.401196480060548, 7.80399084064635 ], [ 5.407460213316426, 7.824172974359215 ], [ 5.412679671862804, 7.833916186979252 ], [ 5.414733410258236, 7.838170527869863 ], [ 5.414733410258236, 7.843968867809565 ], [ 5.416811942670506, 7.851762295104834 ], [ 5.416855334700017, 7.871844291749596 ], [ 5.417899132409218, 7.879847527187451 ], [ 5.421378612773367, 7.886458873679544 ], [ 5.423814297428294, 7.896202087299571 ], [ 5.426598072319734, 7.914992332066674 ], [ 5.430078029684182, 7.924387455450244 ], [ 5.435993194703258, 7.932390689888052 ], [ 5.437036991412469, 7.942133903508079 ], [ 5.436341285939761, 7.951180934655156 ], [ 5.440865040013477, 7.958140373383742 ], [ 5.44469261161413, 7.963011741693606 ], [ 5.447476386505571, 7.968231201239973 ], [ 5.450955867869709, 7.973798752022901 ], [ 5.450955867869709, 7.979714394042276 ], [ 5.44469261161413, 7.986673354770573 ], [ 5.437733172885487, 7.989805221898507 ], [ 5.419638633591092, 7.997808456336315 ], [ 5.403632163715486, 8.007551192956043 ], [ 5.388669967549333, 8.019034385758346 ], [ 5.374402999855647, 8.027385712432704 ], [ 5.359210013532675, 8.036108017359084 ], [ 5.360624313493645, 8.038532257006239 ], [ 5.361377239005208, 8.043424606330348 ], [ 5.360248089238041, 8.053586006234582 ], [ 5.358742714215168, 8.0633707048828 ], [ 5.358742714215168, 8.073907852042282 ], [ 5.360624313493645, 8.082940102179293 ], [ 5.364011287794938, 8.090466499293143 ], [ 5.371161937653483, 8.096487999384465 ], [ 5.387344359648694, 8.102132797219838 ], [ 5.398257732063769, 8.10363864924301 ], [ 5.421214580661911, 8.10552024752144 ], [ 5.449063300583816, 8.105895995776734 ], [ 5.475030422227235, 8.10815429731116 ], [ 5.497963904809467, 8.110664368016614 ], [ 5.506978511934449, 8.111246109411866 ], [ 5.513937949663045, 8.111246109411866 ], [ 5.514633656135743, 8.104982376155988 ], [ 5.513937949663045, 8.096631050481619 ], [ 5.51289415395388, 8.089672088753332 ], [ 5.513589859426531, 8.083756446733958 ], [ 5.51254606171733, 8.076796532005005 ], [ 5.510458469298896, 8.066705704148774 ], [ 5.507326603170952, 8.045479773726754 ], [ 5.507326603170952, 8.037128448052442 ], [ 5.505580901984843, 8.032327651790524 ], [ 5.504542828279511, 8.029473304851138 ], [ 5.503847121806814, 8.023557662831706 ], [ 5.505934715225237, 8.018686294521842 ], [ 5.508718491116667, 8.017642974812986 ], [ 5.516025543081469, 8.02216625188629 ], [ 5.525768756701552, 8.030865668797162 ], [ 5.531684398720927, 8.035040854634019 ], [ 5.537599563740002, 8.040608406416879 ], [ 5.545255183941663, 8.044088363781384 ], [ 5.550822257724235, 8.051047324509625 ], [ 5.555031775584382, 8.05455493889292 ], [ 5.559173584398536, 8.058006287237959 ], [ 5.572744369619272, 8.068446159331359 ], [ 5.576571941219925, 8.071229935222789 ], [ 5.599189757587681, 8.073665618877726 ], [ 5.624591350846856, 8.072621346168205 ], [ 5.639554024013307, 8.073665618877726 ], [ 5.643636226786953, 8.0739679340831 ] ] ] ] } },
{ "type": "Feature", "properties": { "fid": 221.0, "OBJECTID": 221.0, "lganame": "Ise\/Orun", "statecode": "EK", "LGA_UID": "13_14" }, "geometry": { "type": "MultiPolygon", "coordinates": [ [ [ [ 5.545776844296086, 7.540927886907468 ], [ 5.54160118145893, 7.532228469996596 ], [ 5.539591312093307, 7.530568599868843 ], [ 5.536945343295486, 7.524835586973495 ], [ 5.531858443839212, 7.514482020938715 ], [ 5.528726577711268, 7.511350631811126 ], [ 5.52315902692834, 7.507523060210474 ], [ 5.518983364091184, 7.503347397373261 ], [ 5.514460087017824, 7.499171733536116 ], [ 5.505760670107009, 7.49499607069896 ], [ 5.499497413851373, 7.490472316625301 ], [ 5.488710402522145, 7.485600948315437 ], [ 5.475487708537912, 7.479685307295995 ], [ 5.469920157755041, 7.477945805114075 ], [ 5.466029379111433, 7.460291504118857 ], [ 5.451098260966432, 7.462433018573904 ], [ 5.446267314684064, 7.462305443487196 ], [ 5.444631858572848, 7.459034531264763 ], [ 5.443707985945082, 7.457186785009299 ], [ 5.445513221171666, 7.454968801502332 ], [ 5.445513221171666, 7.452825002045699 ], [ 5.444588086543092, 7.451561413187164 ], [ 5.442143099881832, 7.453002809166492 ], [ 5.442143058881811, 7.453002575166352 ], [ 5.441611656520763, 7.449990524119812 ], [ 5.441341400337137, 7.448458672078971 ], [ 5.439541427114136, 7.438258539148478 ], [ 5.439299106949477, 7.436885357215431 ], [ 5.440690993895203, 7.426098346886192 ], [ 5.443822384022837, 7.413223743138474 ], [ 5.450781821751434, 7.400349140390801 ], [ 5.45495748458859, 7.386778355170122 ], [ 5.45808935171658, 7.369031906112241 ], [ 5.457045078007013, 7.356504916600727 ], [ 5.450433730514931, 7.345717907271478 ], [ 5.449389934805708, 7.33110332534153 ], [ 5.450781821751434, 7.315444945702382 ], [ 5.452521800933653, 7.306049824318848 ], [ 5.454043864967844, 7.300614356625715 ], [ 5.450928210850918, 7.29982042308626 ], [ 5.44537019707451, 7.298866272437976 ], [ 5.438889979671501, 7.296983719158845 ], [ 5.435851096606712, 7.296033858513454 ], [ 5.426857471495964, 7.293223380603877 ], [ 5.417595863203132, 7.291325569314438 ], [ 5.412964821056562, 7.290376662669701 ], [ 5.410194950174571, 7.290361309659261 ], [ 5.404620171386796, 7.290330409638273 ], [ 5.398140429984096, 7.288447857359131 ], [ 5.388226032247701, 7.283186912784572 ], [ 5.381466388654871, 7.285584927413936 ], [ 5.377747536128084, 7.287411212654774 ], [ 5.372174263341321, 7.289227008888531 ], [ 5.36752796218434, 7.29104805012588 ], [ 5.362881660027426, 7.292869091363173 ], [ 5.35823011386691, 7.295613289227731 ], [ 5.35634517658616, 7.301143168984993 ], [ 5.355397223942077, 7.304831505491052 ], [ 5.354439259291212, 7.310366154251597 ], [ 5.354403496266912, 7.316829680643252 ], [ 5.35437774724943, 7.321446418780113 ], [ 5.355263709851386, 7.32883787180225 ], [ 5.355233191830621, 7.334378241566696 ], [ 5.354249477162227, 7.344529629464091 ], [ 5.353306769521737, 7.347294331342539 ], [ 5.351400852226732, 7.356517314609164 ], [ 5.350442885575831, 7.362051964369698 ], [ 5.349479674921383, 7.368510722758117 ], [ 5.348521709270528, 7.374045371518662 ], [ 5.346626281982651, 7.381421565530388 ], [ 5.344746112705138, 7.386028289660487 ], [ 5.342865944427672, 7.390634536790174 ], [ 5.340048312513204, 7.397082329171155 ], [ 5.337236403602674, 7.402606963924882 ], [ 5.33349657106163, 7.408126353675073 ], [ 5.331616878784473, 7.412732600804816 ], [ 5.328809260876824, 7.417334079931265 ], [ 5.326919078592539, 7.42378711731584 ], [ 5.325028896308254, 7.430240153700368 ], [ 5.322216511397357, 7.435764790454073 ], [ 5.320331097116309, 7.441294670211391 ], [ 5.314757824329547, 7.443110466445148 ], [ 5.311981201442961, 7.442171573807173 ], [ 5.308277606926538, 7.441227913166017 ], [ 5.306253909551515, 7.440543651701091 ], [ 5.302519321014017, 7.453847884740696 ], [ 5.300995826978919, 7.457504749225336 ], [ 5.303738116842169, 7.463598728365923 ], [ 5.308004378740861, 7.469388485299817 ], [ 5.308309077947911, 7.472435474370116 ], [ 5.305566788084661, 7.476091861854457 ], [ 5.299777031150768, 7.480967522167191 ], [ 5.297339439494579, 7.484623908651542 ], [ 5.296425342873476, 7.488585472343232 ], [ 5.296730042080526, 7.49163246241352 ], [ 5.297339439494579, 7.495593548104921 ], [ 5.296425342873476, 7.500164509210663 ], [ 5.297339439494579, 7.505953789144201 ], [ 5.299777031150768, 7.512048244285097 ], [ 5.302214621807025, 7.516009330976487 ], [ 5.302824020221067, 7.518446921632687 ], [ 5.304042816049162, 7.521189213495973 ], [ 5.305871487291654, 7.526064872808718 ], [ 5.307767390579841, 7.529096602868663 ], [ 5.310551167471317, 7.533620357942368 ], [ 5.311943054417043, 7.536752224070312 ], [ 5.313019276148282, 7.543030739336245 ], [ 5.328645228765367, 7.54197168361668 ], [ 5.346739769059752, 7.540579795670965 ], [ 5.359819888947072, 7.537245274405279 ], [ 5.361834049315632, 7.537303448444845 ], [ 5.381505919681729, 7.535738082381215 ], [ 5.381884574939022, 7.535707951360735 ], [ 5.404850482543281, 7.537796020779524 ], [ 5.425944912875934, 7.541825586517405 ], [ 5.437907219003762, 7.54197168361668 ], [ 5.446523257857962, 7.542698317110364 ], [ 5.466788291627097, 7.544407368271607 ], [ 5.49288606635929, 7.548234939872259 ], [ 5.521419047746122, 7.550323009290992 ], [ 5.544733046586884, 7.553454399418627 ], [ 5.552736282024682, 7.554846287364342 ], [ 5.548212527951023, 7.547191143163047 ], [ 5.545776844296086, 7.540927886907468 ] ] ] ] } },
{ "type": "Feature", "properties": { "fid": 394.0, "OBJECTID": 394.0, "lganame": "Emure", "statecode": "EK", "LGA_UID": "13_06" }, "geometry": { "type": "MultiPolygon", "coordinates": [ [ [ [ 5.603910922795478, 7.467796326217979 ], [ 5.601191043947438, 7.456700801679119 ], [ 5.599372863712063, 7.450227261280645 ], [ 5.592938900340471, 7.440034866355404 ], [ 5.588349342222102, 7.431698798691457 ], [ 5.58281183245964, 7.427051543533821 ], [ 5.580973148210319, 7.424271583645009 ], [ 5.575445652454675, 7.417777061232243 ], [ 5.571773051959269, 7.411293029826652 ], [ 5.567173003833773, 7.404804230417824 ], [ 5.561655998085257, 7.396463393750651 ], [ 5.557071685970413, 7.387204170459427 ], [ 5.552476882848453, 7.379792213423343 ], [ 5.546017170459379, 7.374216079634607 ], [ 5.54234456996403, 7.367732048229016 ], [ 5.536838055222631, 7.357544899307356 ], [ 5.533149718716572, 7.353830813783816 ], [ 5.53040409085105, 7.347352028381749 ], [ 5.525809287729089, 7.339939594345367 ], [ 5.521214484607128, 7.332527637309283 ], [ 5.508306025836418, 7.319529057477382 ], [ 5.504433632205348, 7.316193104210754 ], [ 5.496288299670937, 7.312998772040316 ], [ 5.489818573275102, 7.309269427506422 ], [ 5.481499671622771, 7.304606438338169 ], [ 5.473170279963369, 7.301790237424655 ], [ 5.465752601923384, 7.301749229396819 ], [ 5.458335399883765, 7.301708221368926 ], [ 5.454043864967844, 7.300614356625715 ], [ 5.452521800933653, 7.306049824318848 ], [ 5.450781821751434, 7.315444945702382 ], [ 5.449389934805708, 7.33110332534153 ], [ 5.450433730514931, 7.345717907271478 ], [ 5.457045078007013, 7.356504916600727 ], [ 5.45808935171658, 7.369031906112241 ], [ 5.45495748458859, 7.386778355170122 ], [ 5.450781821751434, 7.400349140390801 ], [ 5.443822384022837, 7.413223743138474 ], [ 5.440690993895203, 7.426098346886192 ], [ 5.439299106949477, 7.436885357215431 ], [ 5.439541427114136, 7.438258539148478 ], [ 5.441341400337137, 7.448458672078971 ], [ 5.441611656520763, 7.449990524119812 ], [ 5.442143058881811, 7.453002575166352 ], [ 5.442143099881832, 7.453002809166492 ], [ 5.444588086543092, 7.451561413187164 ], [ 5.445513221171666, 7.452825002045699 ], [ 5.445513221171666, 7.454968801502332 ], [ 5.443707985945082, 7.457186785009299 ], [ 5.444631858572848, 7.459034531264763 ], [ 5.446267314684064, 7.462305443487196 ], [ 5.451098260966432, 7.462433018573904 ], [ 5.466029379111433, 7.460291504118857 ], [ 5.469920157755041, 7.477945805114075 ], [ 5.475487708537912, 7.479685307295995 ], [ 5.488710402522145, 7.485600948315437 ], [ 5.499497413851373, 7.490472316625301 ], [ 5.505760670107009, 7.49499607069896 ], [ 5.514460087017824, 7.499171733536116 ], [ 5.518983364091184, 7.503347397373261 ], [ 5.52315902692834, 7.507523060210474 ], [ 5.528726577711268, 7.511350631811126 ], [ 5.531858443839212, 7.514482020938715 ], [ 5.536945343295486, 7.524835586973495 ], [ 5.539591312093307, 7.530568599868843 ], [ 5.54160118145893, 7.532228469996596 ], [ 5.545776844296086, 7.540927886907468 ], [ 5.548212527951023, 7.547191143163047 ], [ 5.552736282024682, 7.554846287364342 ], [ 5.560391426226033, 7.555542468837359 ], [ 5.571874619028335, 7.556238174310067 ], [ 5.581617354648017, 7.546147346453836 ], [ 5.589620590085872, 7.534664153651534 ], [ 5.601103782888174, 7.525269032268 ], [ 5.612900256903288, 7.518630980757791 ], [ 5.612029552311697, 7.508469104853248 ], [ 5.612071037339888, 7.501082419834347 ], [ 5.611185073737886, 7.4936904908119 ], [ 5.610309124142759, 7.484452247534932 ], [ 5.607496738231873, 7.480200290645939 ], [ 5.603910922795478, 7.467796326217979 ] ] ] ] } },
{ "type": "Feature", "properties": { "fid": 528.0, "OBJECTID": 528.0, "lganame": "Ijero", "statecode": "EK", "LGA_UID": "13_09" }, "geometry": { "type": "MultiPolygon", "coordinates": [ [ [ [ 5.094156265441143, 7.922412395108267 ], [ 5.100576400803334, 7.91471815088039 ], [ 5.108479500173075, 7.906815051510591 ], [ 5.119017124332913, 7.892890453049461 ], [ 5.127672672213976, 7.879718781099939 ], [ 5.138210297373803, 7.860525608059106 ], [ 5.139715672396619, 7.847730160365188 ], [ 5.139715672396619, 7.838321685972574 ], [ 5.13896274588501, 7.825150013023062 ], [ 5.13896274588501, 7.813483715096368 ], [ 5.13933897014067, 7.803699017448082 ], [ 5.139715672396619, 7.786764144941628 ], [ 5.140468120907883, 7.780366420594703 ], [ 5.13933897014067, 7.772087096969301 ], [ 5.135951995839378, 7.758162497508181 ], [ 5.132188797282481, 7.748001574604302 ], [ 5.129930972748355, 7.741227150001407 ], [ 5.125414847679849, 7.727679252796236 ], [ 5.119769572844177, 7.713002204823852 ], [ 5.116758822798488, 7.701712132152807 ], [ 5.113748549753154, 7.693432807527415 ], [ 5.111114024963115, 7.695690632061485 ], [ 5.103587150848966, 7.705475329709714 ], [ 5.093426227945088, 7.711120604545442 ], [ 5.079125404228364, 7.71902370491523 ], [ 5.060308456443124, 7.730690001841879 ], [ 5.052029132817722, 7.734829902654781 ], [ 5.039610386379763, 7.745743275069913 ], [ 5.030578136242809, 7.755527972718141 ], [ 5.018158912804495, 7.768323421412049 ], [ 4.996707916229582, 7.792032718521398 ], [ 4.985417842558491, 7.809720515539425 ], [ 4.981953621204696, 7.816853046385631 ], [ 4.979020119211555, 7.822892189488982 ], [ 4.974880695399008, 7.845096110575469 ], [ 4.974127768887399, 7.857514858013417 ], [ 4.973751544631796, 7.864289283616358 ], [ 4.965848446261987, 7.876331805798657 ], [ 4.956439971869372, 7.883858680912795 ], [ 4.953526496889822, 7.886610507782564 ], [ 4.949666023266786, 7.890256405259777 ], [ 4.941370009630077, 7.897609234255697 ], [ 4.94203519808201, 7.899925708829585 ], [ 4.949749947323824, 7.903372765171753 ], [ 4.967285633238532, 7.915952681719205 ], [ 4.978341102750164, 7.923195838640595 ], [ 4.990539551038466, 7.931201458080011 ], [ 4.996639252182888, 7.939206599519139 ], [ 5.001213551290903, 7.946068287181333 ], [ 5.008075236953118, 7.951024054548554 ], [ 5.016461848651431, 7.955217361397672 ], [ 5.020274162241719, 7.960935593282954 ], [ 5.031329154753053, 7.976946354161498 ], [ 5.033235073048047, 7.982283591787905 ], [ 5.036599636334131, 7.979447841861145 ], [ 5.046384334982349, 7.973426341769823 ], [ 5.058426857164704, 7.962512493354382 ], [ 5.068588257068882, 7.953104018961767 ], [ 5.079125404228364, 7.939179896501003 ], [ 5.08589935283095, 7.932029246642458 ], [ 5.094156265441143, 7.922412395108267 ] ] ] ] } },
{ "type": "Feature", "properties": { "fid": 631.0, "OBJECTID": 631.0, "lganame": "Oye", "statecode": "EK", "LGA_UID": "13_16" }, "geometry": { "type": "MultiPolygon", "coordinates": [ [ [ [ 5.387426375704422, 7.723801136161228 ], [ 5.383956909347035, 7.724668502750603 ], [ 5.372667312676299, 7.724668502750603 ], [ 5.353850364891059, 7.731066227097529 ], [ 5.320732594389085, 7.745367049814263 ], [ 5.302668571115476, 7.75590467497409 ], [ 5.281593799796156, 7.771334171457681 ], [ 5.273314476170697, 7.778484344315928 ], [ 5.265653132965213, 7.789870262052091 ], [ 5.264282703034041, 7.794666767311128 ], [ 5.262400626755266, 7.801817417169616 ], [ 5.257508278431146, 7.818376064420477 ], [ 5.254497528385514, 7.834934710671291 ], [ 5.254497528385514, 7.842837811041079 ], [ 5.255250453897077, 7.854880810223733 ], [ 5.257884978687116, 7.866170882894778 ], [ 5.256755828919893, 7.881224155122766 ], [ 5.258261203942709, 7.89815902662923 ], [ 5.258539200131622, 7.904277801786634 ], [ 5.258637428198369, 7.906438828254977 ], [ 5.258637428198369, 7.916599751158856 ], [ 5.26089525173245, 7.926760674062734 ], [ 5.266164303312507, 7.936169147455303 ], [ 5.273314476170697, 7.95423316972898 ], [ 5.277454375983609, 7.97305011651423 ], [ 5.278754710867133, 7.981633663346315 ], [ 5.279335976262075, 7.985468863952178 ], [ 5.280841351284892, 8.001651763947677 ], [ 5.282862185657962, 8.008471488581392 ], [ 5.29777622179131, 8.007673264038999 ], [ 5.317722321343751, 8.007673264038999 ], [ 5.332399368316146, 8.009554863317476 ], [ 5.340302466685898, 8.015575409408143 ], [ 5.345947265521261, 8.020092010476958 ], [ 5.351968764612593, 8.02573680931232 ], [ 5.357989787703616, 8.034016608938089 ], [ 5.359210013532675, 8.036108017359084 ], [ 5.374402999855647, 8.027385712432704 ], [ 5.388669967549333, 8.019034385758346 ], [ 5.403632163715486, 8.007551192956043 ], [ 5.419638633591092, 7.997808456336315 ], [ 5.437733172885487, 7.989805221898507 ], [ 5.44469261161413, 7.986673354770573 ], [ 5.450955867869709, 7.979714394042276 ], [ 5.450955867869709, 7.973798752022901 ], [ 5.447476386505571, 7.968231201239973 ], [ 5.44469261161413, 7.963011741693606 ], [ 5.440865040013477, 7.958140373383742 ], [ 5.436341285939761, 7.951180934655156 ], [ 5.437036991412469, 7.942133903508079 ], [ 5.435993194703258, 7.932390689888052 ], [ 5.430078029684182, 7.924387455450244 ], [ 5.426598072319734, 7.914992332066674 ], [ 5.423814297428294, 7.896202087299571 ], [ 5.421378612773367, 7.886458873679544 ], [ 5.417899132409218, 7.879847527187451 ], [ 5.416855334700017, 7.871844291749596 ], [ 5.416811942670506, 7.851762295104834 ], [ 5.414733410258236, 7.843968867809565 ], [ 5.414733410258236, 7.838170527869863 ], [ 5.412679671862804, 7.833916186979252 ], [ 5.407460213316426, 7.824172974359215 ], [ 5.401196480060548, 7.80399084064635 ], [ 5.396673202987188, 7.784504414406285 ], [ 5.396499633869269, 7.77565193239144 ], [ 5.396325110750695, 7.766758442348703 ], [ 5.396673202987188, 7.749360084527325 ], [ 5.39239263507875, 7.733767032932576 ], [ 5.391801356676979, 7.73161363646949 ], [ 5.387426375704422, 7.723801136161228 ] ] ] ] } },
{ "type": "Feature", "properties": { "fid": 725.0, "OBJECTID": 725.0, "lganame": "Ilejemeje", "statecode": "EK", "LGA_UID": "13_12" }, "geometry": { "type": "MultiPolygon", "coordinates": [ [ [ [ 5.282862185657962, 8.008471488581392 ], [ 5.280841351284892, 8.001651763947677 ], [ 5.279335976262075, 7.985468863952178 ], [ 5.278754710867133, 7.981633663346315 ], [ 5.277454375983609, 7.97305011651423 ], [ 5.273314476170697, 7.95423316972898 ], [ 5.266164303312507, 7.936169147455303 ], [ 5.26089525173245, 7.926760674062734 ], [ 5.258637428198369, 7.916599751158856 ], [ 5.258637428198369, 7.906438828254977 ], [ 5.258539200131622, 7.904277801786634 ], [ 5.249605179061348, 7.904556750976212 ], [ 5.224767208185142, 7.906438828254977 ], [ 5.207079411167115, 7.909449100300321 ], [ 5.1976709367745, 7.912459850345954 ], [ 5.189391613149098, 7.917728900926022 ], [ 5.17923069024522, 7.921492100482965 ], [ 5.173209190153898, 7.926760674062734 ], [ 5.168316840829789, 7.932029246642458 ], [ 5.164706707376865, 7.938229560855291 ], [ 5.166811465806916, 7.940685271523819 ], [ 5.170951365619771, 7.946706294614842 ], [ 5.180736065268036, 7.956114769007456 ], [ 5.192778587450391, 7.964394092632858 ], [ 5.208208560934338, 7.971544743491393 ], [ 5.221004008628199, 7.979447841861145 ], [ 5.227401732975181, 7.987350941230943 ], [ 5.230412483020814, 7.996382713367609 ], [ 5.234928131089021, 8.005414962504631 ], [ 5.240949631180342, 8.014070511385626 ], [ 5.2444515225597, 8.020535468778291 ], [ 5.256755828919893, 8.018210411198481 ], [ 5.262400626755266, 8.012941359618424 ], [ 5.269551276613811, 8.011059761339993 ], [ 5.282862185657962, 8.008471488581392 ] ] ] ] } }
]
}
