{
"type": "FeatureCollection",
"name": "Enugu",
"crs": { "type": "name", "properties": { "name": "urn:ogc:def:crs:OGC:1.3:CRS84" } },
"features": [
{ "type": "Feature", "properties": { "fid": 50.0, "OBJECTID": 50.0, "lganame": "Igbo-Eze-North", "statecode": "EN", "LGA_UID": "14_08" }, "geometry": { "type": "MultiPolygon", "coordinates": [ [ [ [ 7.530513762831561, 7.032278061303828 ], [ 7.538271427102529, 7.020157814068682 ], [ 7.542210101778664, 7.00834178904023 ], [ 7.545361041919591, 7.001251698222859 ], [ 7.549300193596025, 6.99101114326487 ], [ 7.552451133736952, 6.984708785982718 ], [ 7.557177543948342, 6.977619171165657 ], [ 7.558879375104652, 6.971568108054271 ], [ 7.544797896536977, 6.955633640227518 ], [ 7.524280070596035, 6.939918040549514 ], [ 7.515549182663847, 6.930314541024416 ], [ 7.505945683138691, 6.920710564498961 ], [ 7.493722438833572, 6.913289070456358 ], [ 7.490959166956088, 6.909144401640276 ], [ 7.484118462308118, 6.916345118532831 ], [ 7.471895218002999, 6.921583652092181 ], [ 7.455743313028563, 6.927258491947953 ], [ 7.437408446570885, 6.931187629617625 ], [ 7.418200492519986, 6.930750847320837 ], [ 7.406414031511645, 6.935116291286931 ], [ 7.398992538469088, 6.943410396922388 ], [ 7.395936966392924, 6.955197333931096 ], [ 7.388515472350377, 6.966983794939438 ], [ 7.381967544901386, 6.987501143880024 ], [ 7.373236655969151, 7.009765148007318 ], [ 7.370617390189466, 7.021987915312138 ], [ 7.371054173486243, 7.030282496947905 ], [ 7.368434905706579, 7.036830425396943 ], [ 7.366837024620907, 7.039865971459449 ], [ 7.370479584095847, 7.041427134520177 ], [ 7.38465928973028, 7.051668167478454 ], [ 7.38938569994167, 7.065060138577678 ], [ 7.387810229871207, 7.083178519888293 ], [ 7.397263527294285, 7.090268134705354 ], [ 7.416169643140108, 7.090268134705354 ], [ 7.429561138238967, 7.090268134705354 ], [ 7.445316314943909, 7.097357749522416 ], [ 7.455557345902207, 7.103660106804568 ], [ 7.469736575536331, 7.099720955128078 ], [ 7.478402138424144, 7.089480400170089 ], [ 7.491006373988114, 7.073725224465193 ], [ 7.502034664481357, 7.06899881425386 ], [ 7.515426635580582, 7.050092697408047 ], [ 7.525667190538513, 7.035912990773568 ], [ 7.530513762831561, 7.032278061303828 ] ] ] ] } },
{ "type": "Feature", "properties": { "fid": 173.0, "OBJECTID": 173.0, "lganame": "Ezeagu", "statecode": "EN", "LGA_UID": "14_06" }, "geometry": { "type": "MultiPolygon", "coordinates": [ [ [ [ 7.245460987151603, 6.275623322192473 ], [ 7.242055892837982, 6.277684211592771 ], [ 7.225903987863546, 6.276811122999504 ], [ 7.194472789507529, 6.280740260669177 ], [ 7.184432506685596, 6.28379583374533 ], [ 7.166533946524396, 6.298638343830078 ], [ 7.160283089277186, 6.303468704112106 ], [ 7.16219901957902, 6.304745673979767 ], [ 7.159148215506093, 6.314768790789969 ], [ 7.154354572249076, 6.321305752231524 ], [ 7.150868415880382, 6.334379196114355 ], [ 7.147382258511698, 6.343094826036179 ], [ 7.141934871810463, 6.359654903288003 ], [ 7.135833739665031, 6.372728348170767 ], [ 7.127989769335443, 6.386673449645798 ], [ 7.115351676748446, 6.401490210713121 ], [ 7.096612930016306, 6.422408103925818 ], [ 7.088768958686728, 6.430252075255453 ], [ 7.064800739401448, 6.437224864993141 ], [ 7.038653373635555, 6.440275192065712 ], [ 7.029937743713674, 6.44289016684246 ], [ 7.027468204035756, 6.443563461299902 ], [ 7.029719829565636, 6.447247981803343 ], [ 7.032770156638151, 6.451605796764284 ], [ 7.032770156638151, 6.45683527031747 ], [ 7.033205985934273, 6.466858387127729 ], [ 7.036256313006845, 6.473830699865061 ], [ 7.045408249225147, 6.471216202088669 ], [ 7.049659252113543, 6.474356651222422 ], [ 7.056307315630534, 6.473691462770489 ], [ 7.069839953825351, 6.474564552363688 ], [ 7.08206319813047, 6.476747512846885 ], [ 7.098651886401683, 6.483295441295923 ], [ 7.10694599203714, 6.48984384474528 ], [ 7.116986751859372, 6.503376483940031 ], [ 7.134011745427074, 6.534807682296048 ], [ 7.1492905618083, 6.554015160346637 ], [ 7.150443553591685, 6.560241221576973 ], [ 7.155838966257647, 6.553142070753438 ], [ 7.159331321630532, 6.536990165778946 ], [ 7.165006161486303, 6.530442238329954 ], [ 7.179848670571118, 6.528696060143488 ], [ 7.193381309765925, 6.517782210728058 ], [ 7.212589263816824, 6.50948810609259 ], [ 7.218700885969383, 6.510361194685856 ], [ 7.239218234909913, 6.508178234202603 ], [ 7.248822212435414, 6.504249572533297 ], [ 7.260172367147277, 6.497264861787471 ], [ 7.266283989299836, 6.492899417821377 ], [ 7.277634144011756, 6.48897075715206 ], [ 7.28811121013041, 6.484168529889132 ], [ 7.304699421401324, 6.473255157474 ], [ 7.316486359410021, 6.465833664431443 ], [ 7.331765174791258, 6.452301025236693 ], [ 7.345297812986018, 6.438331603745098 ], [ 7.367125033816592, 6.423489093660294 ], [ 7.380658150011698, 6.411702632651952 ], [ 7.38633298886748, 6.398169994457191 ], [ 7.389388560943587, 6.383327484372387 ], [ 7.387206078460736, 6.366738796101174 ], [ 7.378911971825289, 6.352333069313147 ], [ 7.366251945223382, 6.342729091787703 ], [ 7.357521057291137, 6.337490559228343 ], [ 7.336130618757352, 6.33356189655899 ], [ 7.320415020079338, 6.324831008626802 ], [ 7.301643848325227, 6.31479024880457 ], [ 7.286801338240423, 6.304313182685917 ], [ 7.268030167486302, 6.290780544491099 ], [ 7.254933833587927, 6.281176566965655 ], [ 7.245460987151603, 6.275623322192473 ] ] ] ] } },
{ "type": "Feature", "properties": { "fid": 193.0, "OBJECTID": 193.0, "lganame": "Nsukka", "statecode": "EN", "LGA_UID": "14_13" }, "geometry": { "type": "MultiPolygon", "coordinates": [ [ [ [ 7.453174114282888, 6.86578464517936 ], [ 7.453124046248888, 6.86221361175302 ], [ 7.456179619324985, 6.856538772897238 ], [ 7.460981845587867, 6.845625401482096 ], [ 7.474077702485886, 6.83733081784635 ], [ 7.49066638875712, 6.835584640659874 ], [ 7.508128165621599, 6.834711552066665 ], [ 7.519914626629941, 6.833402157176977 ], [ 7.545670986130176, 6.823361397354745 ], [ 7.553528309468845, 6.821178912871858 ], [ 7.5631322859943, 6.819432734685392 ], [ 7.585832596418129, 6.810701846753204 ], [ 7.588322163109638, 6.809612751013219 ], [ 7.585832596418129, 6.805463314193844 ], [ 7.582340240045198, 6.79498624807519 ], [ 7.57360935211301, 6.786255360142945 ], [ 7.56225919740109, 6.782763003770071 ], [ 7.533884048121479, 6.781016826583596 ], [ 7.517295360850255, 6.779270649397176 ], [ 7.497214794206457, 6.779270649397176 ], [ 7.478006840155558, 6.776651858617811 ], [ 7.464622021061189, 6.772019863470575 ], [ 7.455743313028563, 6.770540237465241 ], [ 7.442646980130235, 6.766611098795579 ], [ 7.429986953528328, 6.75875330045659 ], [ 7.41121578177416, 6.749149322931146 ], [ 7.388515472350377, 6.740418433998911 ], [ 7.376292706045604, 6.736053467033116 ], [ 7.361886501257231, 6.727322578100882 ], [ 7.348353863062471, 6.721210956948312 ], [ 7.332398891221828, 6.724825859404518 ], [ 7.328709601715104, 6.733434200253441 ], [ 7.319978713782859, 6.745656966558272 ], [ 7.311684132147093, 6.754387856490496 ], [ 7.298151492952286, 6.766174793499147 ], [ 7.295095920876179, 6.778397559803921 ], [ 7.297278404359076, 6.79498624807519 ], [ 7.29946136484233, 6.807646274677097 ], [ 7.299897671138751, 6.825544356837952 ], [ 7.298151492952286, 6.833838463473455 ], [ 7.290293693613307, 6.84999084544819 ], [ 7.281562804681073, 6.858721733380435 ], [ 7.257553101367591, 6.873563766464883 ], [ 7.241837501689588, 6.883167743990384 ], [ 7.216954707782918, 6.893208503812559 ], [ 7.209887980981421, 6.902819157342549 ], [ 7.219230652329315, 6.905933380458521 ], [ 7.234985828034212, 6.91066026667022 ], [ 7.238136768175139, 6.921688557163463 ], [ 7.242863655386827, 6.92799043744526 ], [ 7.238924502710347, 6.941382407544495 ], [ 7.238136768175139, 6.957925319784636 ], [ 7.241288185316364, 6.97131729088386 ], [ 7.257830619556159, 6.980770111306583 ], [ 7.293279647642123, 6.994162083405797 ], [ 7.310143948100631, 7.00399971009 ], [ 7.31299400303709, 6.999724388185143 ], [ 7.315176486519988, 6.986191749990326 ], [ 7.312120914443881, 6.977460861058091 ], [ 7.303826808808424, 6.960435867490446 ], [ 7.302953720215214, 6.948648930481738 ], [ 7.305136203698112, 6.938172340363394 ], [ 7.31299400303709, 6.923766135575079 ], [ 7.327836514121884, 6.911979674566737 ], [ 7.359704017774334, 6.906741142007377 ], [ 7.374109744562361, 6.903248786634492 ], [ 7.393754004909738, 6.901938914744505 ], [ 7.408160209698053, 6.899756432261597 ], [ 7.427367686748653, 6.891462325626151 ], [ 7.435225487087678, 6.886660099363269 ], [ 7.447012424096329, 6.874000548761671 ], [ 7.453174114282888, 6.86578464517936 ] ] ] ] } },
{ "type": "Feature", "properties": { "fid": 297.0, "OBJECTID": 297.0, "lganame": "Igbo-Etiti", "statecode": "EN", "LGA_UID": "14_07" }, "geometry": { "type": "MultiPolygon", "coordinates": [ [ [ [ 7.543806552863373, 6.631067275699934 ], [ 7.540868758867305, 6.628664017067024 ], [ 7.528209209265697, 6.627790928473814 ], [ 7.513366699180949, 6.627354145177037 ], [ 7.49590492231647, 6.626917838880615 ], [ 7.482808590418131, 6.626044750287349 ], [ 7.471895218002999, 6.619496345838058 ], [ 7.459235668401448, 6.616877079058384 ], [ 7.448321818986017, 6.613821506982276 ], [ 7.42867755863864, 6.611202240202601 ], [ 7.410342693180951, 6.611202240202601 ], [ 7.393317698613259, 6.615131377872217 ], [ 7.385023593977849, 6.623425483507674 ], [ 7.376292706045604, 6.630846499549932 ], [ 7.364942551333684, 6.636085033109282 ], [ 7.349663257952159, 6.641323565668586 ], [ 7.339186667833815, 6.642633437558629 ], [ 7.32434415774901, 6.653546809973705 ], [ 7.31299400303709, 6.660094738422742 ], [ 7.29946136484233, 6.665770054278823 ], [ 7.285315990231197, 6.66936159071912 ], [ 7.284618854757525, 6.676683425693966 ], [ 7.28287267657106, 6.684978008329722 ], [ 7.281562804681073, 6.691962719075548 ], [ 7.281126499384641, 6.701129913304214 ], [ 7.290730475910095, 6.708114624049983 ], [ 7.299024581545552, 6.713789462905766 ], [ 7.317359447003241, 6.723393440431209 ], [ 7.332398891221828, 6.724825859404518 ], [ 7.348353863062471, 6.721210956948312 ], [ 7.361886501257231, 6.727322578100882 ], [ 7.376292706045604, 6.736053467033116 ], [ 7.388515472350377, 6.740418433998911 ], [ 7.41121578177416, 6.749149322931146 ], [ 7.429986953528328, 6.75875330045659 ], [ 7.442646980130235, 6.766611098795579 ], [ 7.455743313028563, 6.770540237465241 ], [ 7.464622021061189, 6.772019863470575 ], [ 7.466656685443695, 6.768357276982044 ], [ 7.47014903981659, 6.760936259939797 ], [ 7.477570056858781, 6.75351476689724 ], [ 7.486737728087803, 6.751768588710831 ], [ 7.498960972392922, 6.749149322931146 ], [ 7.508128165621599, 6.740855217295689 ], [ 7.509874343808065, 6.732561110660242 ], [ 7.511620521994473, 6.722957134134788 ], [ 7.516422272257046, 6.713353156609344 ], [ 7.519914626629941, 6.705931663566787 ], [ 7.527336120672487, 6.695455074448432 ], [ 7.530828476045372, 6.685851096922988 ], [ 7.529955387452162, 6.681485652956837 ], [ 7.529955387452162, 6.672317981727872 ], [ 7.53213787093506, 6.662277698905939 ], [ 7.536067008604732, 6.653983593270482 ], [ 7.541741848460504, 6.640014171778944 ], [ 7.543806552863373, 6.631067275699934 ] ] ] ] } },
{ "type": "Feature", "properties": { "fid": 309.0, "OBJECTID": 309.0, "lganame": "Awgu", "statecode": "EN", "LGA_UID": "14_02" }, "geometry": { "type": "MultiPolygon", "coordinates": [ [ [ [ 7.512400626524538, 6.231348038109502 ], [ 7.519696712481903, 6.224862575702957 ], [ 7.531876086757165, 6.209060191965932 ], [ 7.529736996303768, 6.204782009059159 ], [ 7.528427124413781, 6.191248893864042 ], [ 7.523625374151209, 6.17422390029634 ], [ 7.517513751998649, 6.161127567398012 ], [ 7.510092734956402, 6.149777411686102 ], [ 7.510965823549668, 6.146285057313207 ], [ 7.515767573812241, 6.136681079787763 ], [ 7.522315979261521, 6.121402264406527 ], [ 7.52799081811736, 6.098265647686276 ], [ 7.528863906710569, 6.084296227194727 ], [ 7.531919478786676, 6.066398144033826 ], [ 7.532356262083454, 6.049373150466124 ], [ 7.526244639930894, 6.037149906161005 ], [ 7.520060061728771, 6.020018577521057 ], [ 7.510541916261616, 6.021446228491072 ], [ 7.49388599394473, 6.016687393257655 ], [ 7.475801944657462, 6.012404442347645 ], [ 7.461525439957256, 6.014783858964336 ], [ 7.451531410166751, 6.013832092317614 ], [ 7.430592059939443, 6.006217957144202 ], [ 7.415839671915876, 6.006217957144202 ], [ 7.404417992155402, 6.012404442347645 ], [ 7.395852089335278, 6.024777411754485 ], [ 7.386810303191794, 6.036674975838309 ], [ 7.384793281821317, 6.037316799274379 ], [ 7.390043736388748, 6.046317101389661 ], [ 7.392226218871656, 6.057230472804804 ], [ 7.391789912575234, 6.07076358799992 ], [ 7.389606953092027, 6.077748298745689 ], [ 7.388297558202339, 6.084296227194727 ], [ 7.386114596719096, 6.095209598609813 ], [ 7.386987686312352, 6.106996535618521 ], [ 7.391789912575234, 6.121402264406527 ], [ 7.393536090761643, 6.129696846042293 ], [ 7.393972397058121, 6.137554169380962 ], [ 7.390916823982025, 6.147594929203194 ], [ 7.386551380015874, 6.158945083915114 ], [ 7.380002974566537, 6.172041415813453 ], [ 7.374764442007233, 6.181208611042109 ], [ 7.372581958524336, 6.191248893864042 ], [ 7.371041298477508, 6.204072951577359 ], [ 7.376292706045604, 6.208274364432043 ], [ 7.381094456308176, 6.217004776363922 ], [ 7.385896205570702, 6.227481842482632 ], [ 7.387642383757168, 6.237958907601296 ], [ 7.391134739130052, 6.246689795533484 ], [ 7.396373271689413, 6.254547595872509 ], [ 7.406414031511645, 6.263278483804754 ], [ 7.410779476477728, 6.270699500846945 ], [ 7.418637275816764, 6.282049655558865 ], [ 7.422129631189648, 6.295582293753682 ], [ 7.426494598155443, 6.309988498541998 ], [ 7.431296825418315, 6.320465564660651 ], [ 7.439590931053772, 6.334871292448668 ], [ 7.443956375019866, 6.338799953118041 ], [ 7.449631690876004, 6.326140403516433 ], [ 7.460326672142742, 6.306496143169113 ], [ 7.466001986998833, 6.295582293753682 ], [ 7.476915359413965, 6.280740260669177 ], [ 7.485209942049721, 6.269826412253735 ], [ 7.496123314464853, 6.251492022796413 ], [ 7.503108025210622, 6.237958907601296 ], [ 7.512400626524538, 6.231348038109502 ] ] ] ] } },
{ "type": "Feature", "properties": { "fid": 340.0, "OBJECTID": 340.0, "lganame": "Nkanu East", "statecode": "EN", "LGA_UID": "14_11" }, "geometry": { "type": "MultiPolygon", "coordinates": [ [ [ [ 7.725004672978969, 6.242600917755283 ], [ 7.733001709412576, 6.226606368887758 ], [ 7.73708820318916, 6.202993869844192 ], [ 7.738904953423571, 6.172115325863672 ], [ 7.726190089784438, 6.114899634988262 ], [ 7.713799477365569, 6.08392333994135 ], [ 7.698036193655184, 6.074031353220221 ], [ 7.686230182633551, 6.071306705368954 ], [ 7.669428349217469, 6.063587189123893 ], [ 7.668315411461322, 6.060618877107061 ], [ 7.661354541731725, 6.069453716109933 ], [ 7.65960836354526, 6.078621387338899 ], [ 7.654369830985956, 6.098701953982697 ], [ 7.649567603723028, 6.106559753321733 ], [ 7.64083671579084, 6.132316112821968 ], [ 7.63035964967213, 6.152396679465767 ], [ 7.622065544036673, 6.157198905728649 ], [ 7.60460376717225, 6.158071995321848 ], [ 7.595436572943527, 6.155889033838662 ], [ 7.584959506824873, 6.152833461762555 ], [ 7.571426867630066, 6.155452727542183 ], [ 7.558766842028206, 6.162873744584431 ], [ 7.549162864502762, 6.16898536673699 ], [ 7.546107292426655, 6.175970078482806 ], [ 7.544797896536977, 6.186883449897891 ], [ 7.53737640449441, 6.198233603609822 ], [ 7.531876086757165, 6.209060191965932 ], [ 7.519696712481903, 6.224862575702957 ], [ 7.512400626524538, 6.231348038109502 ], [ 7.525153160189291, 6.238395690898074 ], [ 7.533447741825057, 6.244070529753856 ], [ 7.546544074723386, 6.244070529753856 ], [ 7.553965091765633, 6.241888046270958 ], [ 7.560949801511413, 6.24232435156739 ], [ 7.567497729960451, 6.245816707940264 ], [ 7.57448244070622, 6.255420685465708 ], [ 7.577538489782626, 6.260659218025069 ], [ 7.583650111935185, 6.269826412253735 ], [ 7.585832596418129, 6.27943038877919 ], [ 7.590634345680655, 6.295145988457193 ], [ 7.589324950790967, 6.304313182685917 ], [ 7.58801507890098, 6.317409514584256 ], [ 7.591071128977433, 6.325704098220001 ], [ 7.5993652336129, 6.343165398084125 ], [ 7.601984501392565, 6.352333069313147 ], [ 7.601984501392565, 6.359754086355395 ], [ 7.595872879240005, 6.371104240067268 ], [ 7.587142467308126, 6.389002323228169 ], [ 7.581467152451978, 6.396860122567205 ], [ 7.584959506824873, 6.397733212160404 ], [ 7.590634345680655, 6.401225566533299 ], [ 7.602421283689353, 6.408210278279057 ], [ 7.619009971960566, 6.419996738287409 ], [ 7.621192455443463, 6.428727627219644 ], [ 7.625557899409557, 6.433529854482572 ], [ 7.630680083889843, 6.448190689443891 ], [ 7.632105826858606, 6.457102776499255 ], [ 7.644329071163725, 6.471072196990804 ], [ 7.651750565206271, 6.486351490372385 ], [ 7.656552315468844, 6.503812790236509 ], [ 7.657425404062053, 6.512980461465474 ], [ 7.655242919579166, 6.523457526584195 ], [ 7.651313781909494, 6.533497810406061 ], [ 7.650004387019806, 6.541791916041518 ], [ 7.652186870502703, 6.552705765456949 ], [ 7.651750565206271, 6.565802097355345 ], [ 7.650004387019806, 6.575406074880789 ], [ 7.649131298426596, 6.582390307626213 ], [ 7.650877475613015, 6.591121196558447 ], [ 7.65349674239269, 6.601598262677157 ], [ 7.681871890672312, 6.603344439863577 ], [ 7.68972969101128, 6.605527401346819 ], [ 7.703923701655469, 6.607056141385499 ], [ 7.717108249613716, 6.585340022630419 ], [ 7.730731009869771, 6.559910774352431 ], [ 7.746851443822834, 6.472724915113758 ], [ 7.74912166636534, 6.447295665835782 ], [ 7.750030040982551, 6.423228741483399 ], [ 7.751392364908213, 6.385539054875039 ], [ 7.738677502269013, 6.353752613277663 ], [ 7.720968246236453, 6.331048011850953 ], [ 7.70802640944305, 6.298353194636377 ], [ 7.708934784060261, 6.277919291752482 ], [ 7.721649169699106, 6.249311447314767 ], [ 7.725004672978969, 6.242600917755283 ] ] ] ] } },
{ "type": "Feature", "properties": { "fid": 351.0, "OBJECTID": 351.0, "lganame": "Udenu", "statecode": "EN", "LGA_UID": "14_15" }, "geometry": { "type": "MultiPolygon", "coordinates": [ [ [ [ 7.692279815743973, 6.851824283693929 ], [ 7.691039084900979, 6.849117755854991 ], [ 7.686673640934828, 6.840386867922746 ], [ 7.669211864070405, 6.821178912871858 ], [ 7.654806137282378, 6.815504074016076 ], [ 7.639090537604375, 6.815504074016076 ], [ 7.625121593113136, 6.815940380312497 ], [ 7.601548195096086, 6.815504074016076 ], [ 7.589761257087446, 6.812011718643191 ], [ 7.588322163109638, 6.809612751013219 ], [ 7.585832596418129, 6.810701846753204 ], [ 7.5631322859943, 6.819432734685392 ], [ 7.553528309468845, 6.821178912871858 ], [ 7.545670986130176, 6.823361397354745 ], [ 7.519914626629941, 6.833402157176977 ], [ 7.508128165621599, 6.834711552066665 ], [ 7.49066638875712, 6.835584640659874 ], [ 7.474077702485886, 6.83733081784635 ], [ 7.460981845587867, 6.845625401482096 ], [ 7.456179619324985, 6.856538772897238 ], [ 7.453124046248888, 6.86221361175302 ], [ 7.453174114282888, 6.86578464517936 ], [ 7.463601112367542, 6.877056121837825 ], [ 7.468402862630114, 6.883604527287105 ], [ 7.476696968265571, 6.890152453736164 ], [ 7.485864639494594, 6.901502609448016 ], [ 7.490959166956088, 6.909144401640276 ], [ 7.493722438833572, 6.913289070456358 ], [ 7.505945683138691, 6.920710564498961 ], [ 7.515549182663847, 6.930314541024416 ], [ 7.524280070596035, 6.939918040549514 ], [ 7.544797896536977, 6.955633640227518 ], [ 7.558879375104652, 6.971568108054271 ], [ 7.564267158765404, 6.952411175038037 ], [ 7.571357249582775, 6.939806938474021 ], [ 7.577659129864628, 6.93271732265697 ], [ 7.599716186851367, 6.924839497304333 ], [ 7.620197772767654, 6.919325351557745 ], [ 7.635952950472529, 6.90357017485286 ], [ 7.646193981430827, 6.885451793542245 ], [ 7.658010006459278, 6.868121146766896 ], [ 7.674552916699383, 6.855517387203236 ], [ 7.692279815743973, 6.851824283693929 ] ] ] ] } },
{ "type": "Feature", "properties": { "fid": 353.0, "OBJECTID": 353.0, "lganame": "Enugu East", "statecode": "EN", "LGA_UID": "14_03" }, "geometry": { "type": "MultiPolygon", "coordinates": [ [ [ [ 7.65349674239269, 6.601598262677157 ], [ 7.650877475613015, 6.591121196558447 ], [ 7.649131298426596, 6.582390307626213 ], [ 7.650004387019806, 6.575406074880789 ], [ 7.651750565206271, 6.565802097355345 ], [ 7.652186870502703, 6.552705765456949 ], [ 7.650004387019806, 6.541791916041518 ], [ 7.651313781909494, 6.533497810406061 ], [ 7.655242919579166, 6.523457526584195 ], [ 7.657425404062053, 6.512980461465474 ], [ 7.656552315468844, 6.503812790236509 ], [ 7.651750565206271, 6.486351490372385 ], [ 7.644329071163725, 6.471072196990804 ], [ 7.632105826858606, 6.457102776499255 ], [ 7.630680083889843, 6.448190689443891 ], [ 7.625557899409557, 6.450554848050217 ], [ 7.615517615587692, 6.456666470202777 ], [ 7.603294373282552, 6.462341309058559 ], [ 7.596309661536793, 6.465833664431443 ], [ 7.584523200528452, 6.46670675302471 ], [ 7.576665401189416, 6.46670675302471 ], [ 7.570553780036846, 6.464524268541766 ], [ 7.5631322859943, 6.464524268541766 ], [ 7.550472736392749, 6.465397358135021 ], [ 7.532574654231837, 6.465833664431443 ], [ 7.511183738697696, 6.46670675302471 ], [ 7.495468616020048, 6.465833664431443 ], [ 7.490230083460688, 6.471072196990804 ], [ 7.481062412231665, 6.480676173516258 ], [ 7.472768306596208, 6.485041618482342 ], [ 7.462728023774332, 6.484168529889132 ], [ 7.460135460012793, 6.480928420687633 ], [ 7.460981845587867, 6.502503395346821 ], [ 7.461854935181123, 6.538299560668634 ], [ 7.463164330070754, 6.564492226465347 ], [ 7.462728023774332, 6.581517220032993 ], [ 7.460545063291136, 6.604654311753563 ], [ 7.460545063291136, 6.612075328795811 ], [ 7.459235668401448, 6.616877079058384 ], [ 7.471895218002999, 6.619496345838058 ], [ 7.482808590418131, 6.626044750287349 ], [ 7.49590492231647, 6.626917838880615 ], [ 7.513366699180949, 6.627354145177037 ], [ 7.528209209265697, 6.627790928473814 ], [ 7.540868758867305, 6.628664017067024 ], [ 7.543806552863373, 6.631067275699934 ], [ 7.545670986130176, 6.632592677736397 ], [ 7.548289775909495, 6.636085033109282 ], [ 7.548726559206273, 6.641323565668586 ], [ 7.557457447138518, 6.65005445460082 ], [ 7.572299957223322, 6.653983593270482 ], [ 7.584959506824873, 6.651364326490807 ], [ 7.600238323206099, 6.643506527151828 ], [ 7.627304076596033, 6.61818695094837 ], [ 7.643455981570469, 6.609019755719657 ], [ 7.65349674239269, 6.601598262677157 ] ] ] ] } },
{ "type": "Feature", "properties": { "fid": 357.0, "OBJECTID": 357.0, "lganame": "Nkanu West", "statecode": "EN", "LGA_UID": "14_12" }, "geometry": { "type": "MultiPolygon", "coordinates": [ [ [ [ 7.581467152451978, 6.396860122567205 ], [ 7.587142467308126, 6.389002323228169 ], [ 7.595872879240005, 6.371104240067268 ], [ 7.601984501392565, 6.359754086355395 ], [ 7.601984501392565, 6.352333069313147 ], [ 7.5993652336129, 6.343165398084125 ], [ 7.591071128977433, 6.325704098220001 ], [ 7.58801507890098, 6.317409514584256 ], [ 7.589324950790967, 6.304313182685917 ], [ 7.590634345680655, 6.295145988457193 ], [ 7.585832596418129, 6.27943038877919 ], [ 7.583650111935185, 6.269826412253735 ], [ 7.577538489782626, 6.260659218025069 ], [ 7.57448244070622, 6.255420685465708 ], [ 7.567497729960451, 6.245816707940264 ], [ 7.560949801511413, 6.24232435156739 ], [ 7.553965091765633, 6.241888046270958 ], [ 7.546544074723386, 6.244070529753856 ], [ 7.533447741825057, 6.244070529753856 ], [ 7.525153160189291, 6.238395690898074 ], [ 7.512400626524538, 6.231348038109502 ], [ 7.503108025210622, 6.237958907601296 ], [ 7.496123314464853, 6.251492022796413 ], [ 7.485209942049721, 6.269826412253735 ], [ 7.476915359413965, 6.280740260669177 ], [ 7.466001986998833, 6.295582293753682 ], [ 7.460326672142742, 6.306496143169113 ], [ 7.449631690876004, 6.326140403516433 ], [ 7.443956375019866, 6.338799953118041 ], [ 7.440027714350549, 6.343602180380913 ], [ 7.435225487087678, 6.352769374609579 ], [ 7.431733130714747, 6.362810135431801 ], [ 7.432606220308003, 6.380271435295924 ], [ 7.435225487087678, 6.397733212160404 ], [ 7.436971664274097, 6.406464100092649 ], [ 7.440865516919814, 6.410357474738021 ], [ 7.44744873039275, 6.403408527016495 ], [ 7.460108756994657, 6.391621590007844 ], [ 7.465347289554018, 6.384200572965597 ], [ 7.475387573375883, 6.379835128999503 ], [ 7.488047122977491, 6.378088950813037 ], [ 7.50114345587582, 6.375032901736631 ], [ 7.509874343808065, 6.37677907892305 ], [ 7.529518604155385, 6.371977328660478 ], [ 7.545670986130176, 6.370231152474048 ], [ 7.559203625324983, 6.376342772626629 ], [ 7.566188335070763, 6.386819838745282 ], [ 7.574919224002997, 6.393804550491041 ], [ 7.581467152451978, 6.396860122567205 ] ] ] ] } },
{ "type": "Feature", "properties": { "fid": 360.0, "OBJECTID": 360.0, "lganame": "Isi-Uzo", "statecode": "EN", "LGA_UID": "14_10" }, "geometry": { "type": "MultiPolygon", "coordinates": [ [ [ [ 7.882596970055545, 6.858291626088203 ], [ 7.888034343750007, 6.853941917132772 ], [ 7.890397549355669, 6.843700886174474 ], [ 7.888822079285205, 6.821643829187735 ], [ 7.886458873679544, 6.805100917947641 ], [ 7.886458873679544, 6.794072628454387 ], [ 7.887640476482375, 6.789345741242698 ], [ 7.890003681088047, 6.785407065566574 ], [ 7.900244713046334, 6.786194801101828 ], [ 7.90339565318726, 6.781468390890439 ], [ 7.894730091299436, 6.774378777073366 ], [ 7.888428211017583, 6.766500949720751 ], [ 7.878187656059652, 6.760199070438944 ], [ 7.867158889566099, 6.751533507551073 ], [ 7.855342387537348, 6.742868422663548 ], [ 7.84510183257936, 6.721599102212053 ], [ 7.841163157903225, 6.714509010394693 ], [ 7.830134392409718, 6.689301014267016 ], [ 7.821469306522147, 6.674333572097339 ], [ 7.815166950240041, 6.659366607928007 ], [ 7.810440540028651, 6.649913310504928 ], [ 7.804926395282052, 6.640460491082194 ], [ 7.807140826786622, 6.633817195568383 ], [ 7.80225086246412, 6.632111549409501 ], [ 7.77591323856899, 6.633473873335106 ], [ 7.747305393131285, 6.633473873335106 ], [ 7.724146843396113, 6.634836197260768 ], [ 7.705756186900544, 6.636198521186373 ], [ 7.698944569272385, 6.630749226483829 ], [ 7.701669216123662, 6.610769271908396 ], [ 7.703923701655469, 6.607056141385499 ], [ 7.68972969101128, 6.605527401346819 ], [ 7.681871890672312, 6.603344439863577 ], [ 7.65349674239269, 6.601598262677157 ], [ 7.643455981570469, 6.609019755719657 ], [ 7.627304076596033, 6.61818695094837 ], [ 7.600238323206099, 6.643506527151828 ], [ 7.584959506824873, 6.651364326490807 ], [ 7.572299957223322, 6.653983593270482 ], [ 7.557457447138518, 6.65005445460082 ], [ 7.548726559206273, 6.641323565668586 ], [ 7.548289775909495, 6.636085033109282 ], [ 7.545670986130176, 6.632592677736397 ], [ 7.543806552863373, 6.631067275699934 ], [ 7.541741848460504, 6.640014171778944 ], [ 7.536067008604732, 6.653983593270482 ], [ 7.53213787093506, 6.662277698905939 ], [ 7.529955387452162, 6.672317981727872 ], [ 7.529955387452162, 6.681485652956837 ], [ 7.530828476045372, 6.685851096922988 ], [ 7.527336120672487, 6.695455074448432 ], [ 7.519914626629941, 6.705931663566787 ], [ 7.516422272257046, 6.713353156609344 ], [ 7.511620521994473, 6.722957134134788 ], [ 7.509874343808065, 6.732561110660242 ], [ 7.508128165621599, 6.740855217295689 ], [ 7.498960972392922, 6.749149322931146 ], [ 7.486737728087803, 6.751768588710831 ], [ 7.477570056858781, 6.75351476689724 ], [ 7.47014903981659, 6.760936259939797 ], [ 7.466656685443695, 6.768357276982044 ], [ 7.464622021061189, 6.772019863470575 ], [ 7.478006840155558, 6.776651858617811 ], [ 7.497214794206457, 6.779270649397176 ], [ 7.517295360850255, 6.779270649397176 ], [ 7.533884048121479, 6.781016826583596 ], [ 7.56225919740109, 6.782763003770071 ], [ 7.57360935211301, 6.786255360142945 ], [ 7.582340240045198, 6.79498624807519 ], [ 7.585832596418129, 6.805463314193844 ], [ 7.588322163109638, 6.809612751013219 ], [ 7.589761257087446, 6.812011718643191 ], [ 7.601548195096086, 6.815504074016076 ], [ 7.625121593113136, 6.815940380312497 ], [ 7.639090537604375, 6.815504074016076 ], [ 7.654806137282378, 6.815504074016076 ], [ 7.669211864070405, 6.821178912871858 ], [ 7.686673640934828, 6.840386867922746 ], [ 7.691039084900979, 6.849117755854991 ], [ 7.692279815743973, 6.851824283693929 ], [ 7.720242499743335, 6.862607002020297 ], [ 7.734422207377747, 6.863394736555506 ], [ 7.750177383082644, 6.878362178725183 ], [ 7.76278161964666, 6.879937648795647 ], [ 7.776034354651244, 6.875824928001236 ], [ 7.785626411168607, 6.872848033978585 ], [ 7.800593853338285, 6.872848033978585 ], [ 7.817924023113335, 6.878362178725183 ], [ 7.834466934353429, 6.880725384330901 ], [ 7.854948521269705, 6.880725384330901 ], [ 7.863614082157596, 6.879937648795647 ], [ 7.874642371650793, 6.868908882302151 ], [ 7.876217841721257, 6.863394736555506 ], [ 7.882596970055545, 6.858291626088203 ] ] ] ] } },
{ "type": "Feature", "properties": { "fid": 362.0, "OBJECTID": 362.0, "lganame": "Enugu North", "statecode": "EN", "LGA_UID": "14_04" }, "geometry": { "type": "MultiPolygon", "coordinates": [ [ [ [ 7.630680083889843, 6.448190689443891 ], [ 7.625557899409557, 6.433529854482572 ], [ 7.621192455443463, 6.428727627219644 ], [ 7.619009971960566, 6.419996738287409 ], [ 7.602421283689353, 6.408210278279057 ], [ 7.590634345680655, 6.401225566533299 ], [ 7.584959506824873, 6.397733212160404 ], [ 7.581467152451978, 6.396860122567205 ], [ 7.568807601850438, 6.408210278279057 ], [ 7.553092003172424, 6.416941166211302 ], [ 7.54348802564698, 6.423925876957071 ], [ 7.53213787093506, 6.427418232330012 ], [ 7.519478321333509, 6.428291320923222 ], [ 7.50027036728261, 6.426108360439969 ], [ 7.483245372714919, 6.423925876957071 ], [ 7.468402862630114, 6.422616005067084 ], [ 7.452397822755472, 6.423397063597804 ], [ 7.449194907579226, 6.433966159779004 ], [ 7.44744873039275, 6.450554848050217 ], [ 7.453124046248888, 6.46670675302471 ], [ 7.457489491214972, 6.47762060244014 ], [ 7.460135460012793, 6.480928420687633 ], [ 7.462728023774332, 6.484168529889132 ], [ 7.472768306596208, 6.485041618482342 ], [ 7.481062412231665, 6.480676173516258 ], [ 7.490230083460688, 6.471072196990804 ], [ 7.495468616020048, 6.465833664431443 ], [ 7.511183738697696, 6.46670675302471 ], [ 7.532574654231837, 6.465833664431443 ], [ 7.550472736392749, 6.465397358135021 ], [ 7.5631322859943, 6.464524268541766 ], [ 7.570553780036846, 6.464524268541766 ], [ 7.576665401189416, 6.46670675302471 ], [ 7.584523200528452, 6.46670675302471 ], [ 7.596309661536793, 6.465833664431443 ], [ 7.603294373282552, 6.462341309058559 ], [ 7.615517615587692, 6.456666470202777 ], [ 7.625557899409557, 6.450554848050217 ], [ 7.630680083889843, 6.448190689443891 ] ] ] ] } },
{ "type": "Feature", "properties": { "fid": 368.0, "OBJECTID": 368.0, "lganame": "Aninri", "statecode": "EN", "LGA_UID": "14_01" }, "geometry": { "type": "MultiPolygon", "coordinates": [ [ [ [ 7.668315411461322, 6.060618877107061 ], [ 7.663979529515245, 6.049056530250994 ], [ 7.667158126674963, 6.030438422600866 ], [ 7.675786017537234, 6.010004519716972 ], [ 7.697128296038329, 5.988661766215614 ], [ 7.711205005602778, 5.970952511182986 ], [ 7.714838028071256, 5.94597721121346 ], [ 7.704847813283322, 5.929175853797688 ], [ 7.691889286478613, 5.924640178715947 ], [ 7.678964614696952, 5.928721905489283 ], [ 7.664433478823696, 5.930084229414888 ], [ 7.635371685077587, 5.943252563362194 ], [ 7.589054107606955, 5.961416244703514 ], [ 7.573160647808095, 5.969135760948575 ], [ 7.559083939243635, 5.985483170055886 ], [ 7.547191620163403, 5.994943142483464 ], [ 7.533384799782311, 6.010976791377573 ], [ 7.520060061728771, 6.020018577521057 ], [ 7.526244639930894, 6.037149906161005 ], [ 7.532356262083454, 6.049373150466124 ], [ 7.531919478786676, 6.066398144033826 ], [ 7.528863906710569, 6.084296227194727 ], [ 7.52799081811736, 6.098265647686276 ], [ 7.522315979261521, 6.121402264406527 ], [ 7.515767573812241, 6.136681079787763 ], [ 7.510965823549668, 6.146285057313207 ], [ 7.510092734956402, 6.149777411686102 ], [ 7.517513751998649, 6.161127567398012 ], [ 7.523625374151209, 6.17422390029634 ], [ 7.528427124413781, 6.191248893864042 ], [ 7.529736996303768, 6.204782009059159 ], [ 7.531876086757165, 6.209060191965932 ], [ 7.53737640449441, 6.198233603609822 ], [ 7.544797896536977, 6.186883449897891 ], [ 7.546107292426655, 6.175970078482806 ], [ 7.549162864502762, 6.16898536673699 ], [ 7.558766842028206, 6.162873744584431 ], [ 7.571426867630066, 6.155452727542183 ], [ 7.584959506824873, 6.152833461762555 ], [ 7.595436572943527, 6.155889033838662 ], [ 7.60460376717225, 6.158071995321848 ], [ 7.622065544036673, 6.157198905728649 ], [ 7.63035964967213, 6.152396679465767 ], [ 7.64083671579084, 6.132316112821968 ], [ 7.649567603723028, 6.106559753321733 ], [ 7.654369830985956, 6.098701953982697 ], [ 7.65960836354526, 6.078621387338899 ], [ 7.661354541731725, 6.069453716109933 ], [ 7.668315411461322, 6.060618877107061 ] ] ] ] } },
{ "type": "Feature", "properties": { "fid": 406.0, "OBJECTID": 406.0, "lganame": "Oji-River", "statecode": "EN", "LGA_UID": "14_14" }, "geometry": { "type": "MultiPolygon", "coordinates": [ [ [ [ 7.245460987151603, 6.275623322192473 ], [ 7.258644581109252, 6.267643928770838 ], [ 7.278288841456572, 6.257603167948616 ], [ 7.289202212871714, 6.244943619347055 ], [ 7.298806190397158, 6.236649512711608 ], [ 7.308410167922602, 6.23010110926225 ], [ 7.313212395185474, 6.221807002626804 ], [ 7.316704749558369, 6.20609140394879 ], [ 7.317577839151625, 6.199106693203021 ], [ 7.32237958941414, 6.196051121126914 ], [ 7.328927516863189, 6.197797298313333 ], [ 7.338968276685421, 6.20521831535558 ], [ 7.349881649100496, 6.209147453025253 ], [ 7.367343425964975, 6.207401275838777 ], [ 7.371041298477508, 6.204072951577359 ], [ 7.372581958524336, 6.191248893864042 ], [ 7.374764442007233, 6.181208611042109 ], [ 7.380002974566537, 6.172041415813453 ], [ 7.386551380015874, 6.158945083915114 ], [ 7.390916823982025, 6.147594929203194 ], [ 7.393972397058121, 6.137554169380962 ], [ 7.393536090761643, 6.129696846042293 ], [ 7.391789912575234, 6.121402264406527 ], [ 7.386987686312352, 6.106996535618521 ], [ 7.386114596719096, 6.095209598609813 ], [ 7.388297558202339, 6.084296227194727 ], [ 7.389606953092027, 6.077748298745689 ], [ 7.391789912575234, 6.07076358799992 ], [ 7.392226218871656, 6.057230472804804 ], [ 7.390043736388748, 6.046317101389661 ], [ 7.384793281821317, 6.037316799274379 ], [ 7.376340389077995, 6.040006161101701 ], [ 7.361588001054429, 6.040482044425005 ], [ 7.339062690749529, 6.042149543558025 ], [ 7.328451156539529, 6.042402266729709 ], [ 7.310148239103512, 6.045017241506457 ], [ 7.301868439477801, 6.045017241506457 ], [ 7.289230346890804, 6.048939228171264 ], [ 7.273106574935468, 6.057219027797032 ], [ 7.268748759974528, 6.060705185165716 ], [ 7.263083458125209, 6.070728301975919 ], [ 7.259596824756215, 6.087724208523866 ], [ 7.254803181499199, 6.104719639071448 ], [ 7.249721050046105, 6.106487751272823 ], [ 7.248377800133426, 6.108726024793611 ], [ 7.239712715245901, 6.11424016954021 ], [ 7.229471684287603, 6.127632140639435 ], [ 7.223957538541015, 6.142599582809112 ], [ 7.221594333935343, 6.157567023978743 ], [ 7.224745274076213, 6.178836346430273 ], [ 7.223957538541015, 6.191440104993944 ], [ 7.218442916794061, 6.196166992205633 ], [ 7.208990097371327, 6.202468872487486 ], [ 7.204263687159937, 6.208770751769293 ], [ 7.203475951624739, 6.218224049192372 ], [ 7.199536799948248, 6.234766960432523 ], [ 7.189296245990306, 6.239493369643867 ], [ 7.172753333750165, 6.233979224897269 ], [ 7.156998158045269, 6.230040073220778 ], [ 7.150997638968192, 6.232611655968071 ], [ 7.147720336741429, 6.242456435657118 ], [ 7.146946430215564, 6.244606972118333 ], [ 7.146946430215564, 6.252451420448267 ], [ 7.14912509869589, 6.26247453725847 ], [ 7.145203114031062, 6.274676322549055 ], [ 7.142588615254624, 6.289057255320188 ], [ 7.150432586584259, 6.296901702650132 ], [ 7.160283089277186, 6.303468704112106 ], [ 7.166533946524396, 6.298638343830078 ], [ 7.184432506685596, 6.28379583374533 ], [ 7.194472789507529, 6.280740260669177 ], [ 7.225903987863546, 6.276811122999504 ], [ 7.242055892837982, 6.277684211592771 ], [ 7.245460987151603, 6.275623322192473 ] ] ] ] } },
{ "type": "Feature", "properties": { "fid": 440.0, "OBJECTID": 440.0, "lganame": "Udi", "statecode": "EN", "LGA_UID": "14_16" }, "geometry": { "type": "MultiPolygon", "coordinates": [ [ [ [ 7.285315990231197, 6.66936159071912 ], [ 7.29946136484233, 6.665770054278823 ], [ 7.31299400303709, 6.660094738422742 ], [ 7.32434415774901, 6.653546809973705 ], [ 7.339186667833815, 6.642633437558629 ], [ 7.349663257952159, 6.641323565668586 ], [ 7.364942551333684, 6.636085033109282 ], [ 7.376292706045604, 6.630846499549932 ], [ 7.385023593977849, 6.623425483507674 ], [ 7.393317698613259, 6.615131377872217 ], [ 7.410342693180951, 6.611202240202601 ], [ 7.42867755863864, 6.611202240202601 ], [ 7.448321818986017, 6.613821506982276 ], [ 7.459235668401448, 6.616877079058384 ], [ 7.460545063291136, 6.612075328795811 ], [ 7.460545063291136, 6.604654311753563 ], [ 7.462728023774332, 6.581517220032993 ], [ 7.463164330070754, 6.564492226465347 ], [ 7.461854935181123, 6.538299560668634 ], [ 7.460981845587867, 6.502503395346821 ], [ 7.460135460012793, 6.480928420687633 ], [ 7.457489491214972, 6.47762060244014 ], [ 7.453124046248888, 6.46670675302471 ], [ 7.44744873039275, 6.450554848050217 ], [ 7.449194907579226, 6.433966159779004 ], [ 7.452397822755472, 6.423397063597804 ], [ 7.444829463613075, 6.414321899431627 ], [ 7.440865516919814, 6.410357474738021 ], [ 7.436971664274097, 6.406464100092649 ], [ 7.435225487087678, 6.397733212160404 ], [ 7.432606220308003, 6.380271435295924 ], [ 7.431733130714747, 6.362810135431801 ], [ 7.435225487087678, 6.352769374609579 ], [ 7.440027714350549, 6.343602180380913 ], [ 7.443956375019866, 6.338799953118041 ], [ 7.439590931053772, 6.334871292448668 ], [ 7.431296825418315, 6.320465564660651 ], [ 7.426494598155443, 6.309988498541998 ], [ 7.422129631189648, 6.295582293753682 ], [ 7.418637275816764, 6.282049655558865 ], [ 7.410779476477728, 6.270699500846945 ], [ 7.406414031511645, 6.263278483804754 ], [ 7.396373271689413, 6.254547595872509 ], [ 7.391134739130052, 6.246689795533484 ], [ 7.387642383757168, 6.237958907601296 ], [ 7.385896205570702, 6.227481842482632 ], [ 7.381094456308176, 6.217004776363922 ], [ 7.376292706045604, 6.208274364432043 ], [ 7.371041298477508, 6.204072951577359 ], [ 7.367343425964975, 6.207401275838777 ], [ 7.349881649100496, 6.209147453025253 ], [ 7.338968276685421, 6.20521831535558 ], [ 7.328927516863189, 6.197797298313333 ], [ 7.32237958941414, 6.196051121126914 ], [ 7.317577839151625, 6.199106693203021 ], [ 7.316704749558369, 6.20609140394879 ], [ 7.313212395185474, 6.221807002626804 ], [ 7.308410167922602, 6.23010110926225 ], [ 7.298806190397158, 6.236649512711608 ], [ 7.289202212871714, 6.244943619347055 ], [ 7.278288841456572, 6.257603167948616 ], [ 7.258644581109252, 6.267643928770838 ], [ 7.245460987151603, 6.275623322192473 ], [ 7.254933833587927, 6.281176566965655 ], [ 7.268030167486302, 6.290780544491099 ], [ 7.286801338240423, 6.304313182685917 ], [ 7.301643848325227, 6.31479024880457 ], [ 7.320415020079338, 6.324831008626802 ], [ 7.336130618757352, 6.33356189655899 ], [ 7.357521057291137, 6.337490559228343 ], [ 7.366251945223382, 6.342729091787703 ], [ 7.378911971825289, 6.352333069313147 ], [ 7.387206078460736, 6.366738796101174 ], [ 7.389388560943587, 6.383327484372387 ], [ 7.38633298886748, 6.398169994457191 ], [ 7.380658150011698, 6.411702632651952 ], [ 7.367125033816592, 6.423489093660294 ], [ 7.345297812986018, 6.438331603745098 ], [ 7.331765174791258, 6.452301025236693 ], [ 7.316486359410021, 6.465833664431443 ], [ 7.304699421401324, 6.473255157474 ], [ 7.28811121013041, 6.484168529889132 ], [ 7.277634144011756, 6.48897075715206 ], [ 7.266283989299836, 6.492899417821377 ], [ 7.260172367147277, 6.497264861787471 ], [ 7.248822212435414, 6.504249572533297 ], [ 7.239218234909913, 6.508178234202603 ], [ 7.218700885969383, 6.510361194685856 ], [ 7.212589263816824, 6.50948810609259 ], [ 7.193381309765925, 6.517782210728058 ], [ 7.179848670571118, 6.528696060143488 ], [ 7.165006161486303, 6.530442238329954 ], [ 7.159331321630532, 6.536990165778946 ], [ 7.155838966257647, 6.553142070753438 ], [ 7.150443553591685, 6.560241221576973 ], [ 7.153656005774394, 6.577588558363686 ], [ 7.155402183960859, 6.603344439863577 ], [ 7.163259983299895, 6.615567684168695 ], [ 7.175483226604968, 6.628227233770247 ], [ 7.18552351042689, 6.637394904999269 ], [ 7.19076204298625, 6.650927544194076 ], [ 7.196000575545554, 6.662714005202417 ], [ 7.211279868927136, 6.675374030804278 ], [ 7.221320151749012, 6.677120208990743 ], [ 7.244020462172841, 6.677993297583953 ], [ 7.272831916748828, 6.669698714948197 ], [ 7.285315990231197, 6.66936159071912 ] ] ] ] } },
{ "type": "Feature", "properties": { "fid": 501.0, "OBJECTID": 501.0, "lganame": "Enugu South", "statecode": "EN", "LGA_UID": "14_05" }, "geometry": { "type": "MultiPolygon", "coordinates": [ [ [ [ 7.581467152451978, 6.396860122567205 ], [ 7.574919224002997, 6.393804550491041 ], [ 7.566188335070763, 6.386819838745282 ], [ 7.559203625324983, 6.376342772626629 ], [ 7.545670986130176, 6.370231152474048 ], [ 7.529518604155385, 6.371977328660478 ], [ 7.509874343808065, 6.37677907892305 ], [ 7.50114345587582, 6.375032901736631 ], [ 7.488047122977491, 6.378088950813037 ], [ 7.475387573375883, 6.379835128999503 ], [ 7.465347289554018, 6.384200572965597 ], [ 7.460108756994657, 6.391621590007844 ], [ 7.44744873039275, 6.403408527016495 ], [ 7.440865516919814, 6.410357474738021 ], [ 7.444829463613075, 6.414321899431627 ], [ 7.452397822755472, 6.423397063597804 ], [ 7.468402862630114, 6.422616005067084 ], [ 7.483245372714919, 6.423925876957071 ], [ 7.50027036728261, 6.426108360439969 ], [ 7.519478321333509, 6.428291320923222 ], [ 7.53213787093506, 6.427418232330012 ], [ 7.54348802564698, 6.423925876957071 ], [ 7.553092003172424, 6.416941166211302 ], [ 7.568807601850438, 6.408210278279057 ], [ 7.581467152451978, 6.396860122567205 ] ] ] ] } },
{ "type": "Feature", "properties": { "fid": 664.0, "OBJECTID": 664.0, "lganame": "Igbo-Eze-South", "statecode": "EN", "LGA_UID": "14_09" }, "geometry": { "type": "MultiPolygon", "coordinates": [ [ [ [ 7.490959166956088, 6.909144401640276 ], [ 7.485864639494594, 6.901502609448016 ], [ 7.476696968265571, 6.890152453736164 ], [ 7.468402862630114, 6.883604527287105 ], [ 7.463601112367542, 6.877056121837825 ], [ 7.453174114282888, 6.86578464517936 ], [ 7.447012424096329, 6.874000548761671 ], [ 7.435225487087678, 6.886660099363269 ], [ 7.427367686748653, 6.891462325626151 ], [ 7.408160209698053, 6.899756432261597 ], [ 7.393754004909738, 6.901938914744505 ], [ 7.374109744562361, 6.903248786634492 ], [ 7.359704017774334, 6.906741142007377 ], [ 7.327836514121884, 6.911979674566737 ], [ 7.31299400303709, 6.923766135575079 ], [ 7.305136203698112, 6.938172340363394 ], [ 7.302953720215214, 6.948648930481738 ], [ 7.303826808808424, 6.960435867490446 ], [ 7.312120914443881, 6.977460861058091 ], [ 7.315176486519988, 6.986191749990326 ], [ 7.31299400303709, 6.999724388185143 ], [ 7.310143948100631, 7.00399971009 ], [ 7.312185764487936, 7.005190371899005 ], [ 7.327153205657623, 7.024096488744817 ], [ 7.353936671855706, 7.034337520703104 ], [ 7.366837024620907, 7.039865971459449 ], [ 7.368434905706579, 7.036830425396943 ], [ 7.371054173486243, 7.030282496947905 ], [ 7.370617390189466, 7.021987915312138 ], [ 7.373236655969151, 7.009765148007318 ], [ 7.381967544901386, 6.987501143880024 ], [ 7.388515472350377, 6.966983794939438 ], [ 7.395936966392924, 6.955197333931096 ], [ 7.398992538469088, 6.943410396922388 ], [ 7.406414031511645, 6.935116291286931 ], [ 7.418200492519986, 6.930750847320837 ], [ 7.437408446570885, 6.931187629617625 ], [ 7.455743313028563, 6.927258491947953 ], [ 7.471895218002999, 6.921583652092181 ], [ 7.484118462308118, 6.916345118532831 ], [ 7.490959166956088, 6.909144401640276 ] ] ] ] } },
{ "type": "Feature", "properties": { "fid": 732.0, "OBJECTID": 732.0, "lganame": "Uzo-Uwani", "statecode": "EN", "LGA_UID": "14_17" }, "geometry": { "type": "MultiPolygon", "coordinates": [ [ [ [ 7.332398891221828, 6.724825859404518 ], [ 7.317359447003241, 6.723393440431209 ], [ 7.299024581545552, 6.713789462905766 ], [ 7.290730475910095, 6.708114624049983 ], [ 7.281126499384641, 6.701129913304214 ], [ 7.281562804681073, 6.691962719075548 ], [ 7.28287267657106, 6.684978008329722 ], [ 7.284618854757525, 6.676683425693966 ], [ 7.285315990231197, 6.66936159071912 ], [ 7.272831916748828, 6.669698714948197 ], [ 7.244020462172841, 6.677993297583953 ], [ 7.221320151749012, 6.677120208990743 ], [ 7.211279868927136, 6.675374030804278 ], [ 7.196000575545554, 6.662714005202417 ], [ 7.19076204298625, 6.650927544194076 ], [ 7.18552351042689, 6.637394904999269 ], [ 7.175483226604968, 6.628227233770247 ], [ 7.163259983299895, 6.615567684168695 ], [ 7.155402183960859, 6.603344439863577 ], [ 7.153656005774394, 6.577588558363686 ], [ 7.150443553591685, 6.560241221576973 ], [ 7.1492905618083, 6.554015160346637 ], [ 7.134011745427074, 6.534807682296048 ], [ 7.116986751859372, 6.503376483940031 ], [ 7.10694599203714, 6.48984384474528 ], [ 7.098651886401683, 6.483295441295923 ], [ 7.08206319813047, 6.476747512846885 ], [ 7.069839953825351, 6.474564552363688 ], [ 7.056307315630534, 6.473691462770489 ], [ 7.049659252113543, 6.474356651222422 ], [ 7.048458576297719, 6.4851613035637 ], [ 7.046279429817105, 6.500849724223258 ], [ 7.046279429817105, 6.51217985192153 ], [ 7.048458576297719, 6.527432442284919 ], [ 7.055431366035407, 6.545300007425112 ], [ 7.063275337364985, 6.554887294939249 ], [ 7.078092098432307, 6.557501792715641 ], [ 7.08419322957775, 6.562295436972704 ], [ 7.088551043538644, 6.568832397414269 ], [ 7.092037200907328, 6.575804710151601 ], [ 7.109468459751042, 6.593236445995672 ], [ 7.115569591896474, 6.603259562805931 ], [ 7.117748737377099, 6.615461349096449 ], [ 7.124721050114488, 6.625920296202821 ], [ 7.128643035779305, 6.635507583716901 ], [ 7.131693839852176, 6.643351555046536 ], [ 7.132565498444421, 6.652067660968726 ], [ 7.129078865075428, 6.659475803002181 ], [ 7.116877078784853, 6.666448592739869 ], [ 7.101624489421454, 6.675600051957872 ], [ 7.090293883722836, 6.677342892142065 ], [ 7.070247650102374, 6.685623168768132 ], [ 7.060660361588248, 6.684315680879706 ], [ 7.050637721778344, 6.682572364695204 ], [ 7.046279429817105, 6.687366008952267 ], [ 7.031898499045894, 6.696517467170281 ], [ 7.016646384682815, 6.706104754684361 ], [ 7.007494450464492, 6.708719730461155 ], [ 6.990934849213033, 6.713077545422038 ], [ 6.982655047587286, 6.713077545422038 ], [ 6.968709469111957, 6.711334229237536 ], [ 6.956507682821382, 6.710027218349524 ], [ 6.94387006823473, 6.706104754684361 ], [ 6.931667804943856, 6.698696612650906 ], [ 6.932539462536113, 6.710898398941424 ], [ 6.932975291832236, 6.722664832936175 ], [ 6.933411121128358, 6.735302447522827 ], [ 6.932072639218916, 6.767693519531065 ], [ 6.93957805631851, 6.773591041538111 ], [ 6.949030875741244, 6.7885580057075 ], [ 6.952182292882526, 6.808251858088511 ], [ 6.952182292882526, 6.827945709469589 ], [ 6.960817336749585, 6.840898991270706 ], [ 6.963210583375712, 6.84448862070974 ], [ 6.978178023545354, 6.850002766456328 ], [ 6.986843109432925, 6.84448862070974 ], [ 6.989994525574161, 6.833460331216486 ], [ 6.989994525574161, 6.823219299258199 ], [ 6.987630843968134, 6.812978745300256 ], [ 6.986843109432925, 6.806676388018104 ], [ 6.985267639362462, 6.798799037665788 ], [ 6.986055373897671, 6.7885580057075 ], [ 6.990782261109359, 6.785407065566574 ], [ 7.004961490743483, 6.785407065566574 ], [ 7.020716667448369, 6.789345741242698 ], [ 7.030169963871458, 6.785407065566574 ], [ 7.04198598889991, 6.783043860960902 ], [ 7.055377959999134, 6.786194801101828 ], [ 7.060104370210468, 6.794860362989652 ], [ 7.074284076844947, 6.798799037665788 ], [ 7.081373691662009, 6.800374507736251 ], [ 7.09319019269077, 6.819280623582074 ], [ 7.10106754304303, 6.828733444004797 ], [ 7.11288404507178, 6.837399005892678 ], [ 7.119973659888842, 6.848427296385864 ], [ 7.134153365523275, 6.854729651668038 ], [ 7.146757603087281, 6.864182472090761 ], [ 7.152271747833879, 6.875998974119511 ], [ 7.156210422510014, 6.883088588936573 ], [ 7.170390129144494, 6.883876324471828 ], [ 7.175904273891092, 6.896480560035798 ], [ 7.187720775919843, 6.901206970247188 ], [ 7.209887980981421, 6.902819157342549 ], [ 7.216954707782918, 6.893208503812559 ], [ 7.241837501689588, 6.883167743990384 ], [ 7.257553101367591, 6.873563766464883 ], [ 7.281562804681073, 6.858721733380435 ], [ 7.290293693613307, 6.84999084544819 ], [ 7.298151492952286, 6.833838463473455 ], [ 7.299897671138751, 6.825544356837952 ], [ 7.29946136484233, 6.807646274677097 ], [ 7.297278404359076, 6.79498624807519 ], [ 7.295095920876179, 6.778397559803921 ], [ 7.298151492952286, 6.766174793499147 ], [ 7.311684132147093, 6.754387856490496 ], [ 7.319978713782859, 6.745656966558272 ], [ 7.328709601715104, 6.733434200253441 ], [ 7.332398891221828, 6.724825859404518 ] ] ] ] } }
]
}
