{
"type": "FeatureCollection",
"name": "Abuja",
"crs": { "type": "name", "properties": { "name": "urn:ogc:def:crs:OGC:1.3:CRS84" } },
"features": [
{ "type": "Feature", "properties": { "fid": 292.0, "OBJECTID": 292.0, "lganame": "Abaji", "statecode": "FC", "LGA_UID": "37_01" }, "geometry": { "type": "MultiPolygon", "coordinates": [ [ [ [ 7.025403499632887, 9.247902869716768 ], [ 7.013661860654963, 9.244166374177951 ], [ 7.005655766215227, 9.246301650628766 ], [ 6.996207361795484, 9.238570730376011 ], [ 6.993914127237304, 9.236694336101095 ], [ 6.991245747424273, 9.231890677837214 ], [ 6.983773708347371, 9.231890677837214 ], [ 6.98003768880892, 9.229756355387053 ], [ 6.97950363244604, 9.223885536398086 ], [ 6.974700451182514, 9.224952698123161 ], [ 6.974166392819654, 9.229222298024183 ], [ 6.972031593369195, 9.232958793562943 ], [ 6.968295573830744, 9.231890677837214 ], [ 6.963492392567161, 9.228155136299108 ], [ 6.959756374028757, 9.223885536398086 ], [ 6.962424754841777, 9.219081879134251 ], [ 6.966160774380228, 9.216946601683389 ], [ 6.965093612655153, 9.210542679332264 ], [ 6.961357594116691, 9.206806182793457 ], [ 6.958155154940755, 9.203070641255351 ], [ 6.952817917314405, 9.204137801980437 ], [ 6.949615479138458, 9.205204963705512 ], [ 6.945879458600018, 9.202002524529632 ], [ 6.93734025979802, 9.198801041354386 ], [ 6.93093538344624, 9.199868202079472 ], [ 6.924530983094712, 9.19773292462861 ], [ 6.920794963556261, 9.19773292462861 ], [ 6.918126582743241, 9.19826698299147 ], [ 6.912789345116835, 9.19559860217845 ], [ 6.906384467765008, 9.196665763903525 ], [ 6.897845267963021, 9.204671860343296 ], [ 6.892508030336671, 9.205204963705512 ], [ 6.88877201079822, 9.19826698299147 ], [ 6.889839171523306, 9.189727783189483 ], [ 6.885569571622284, 9.184924125925647 ], [ 6.880766392358737, 9.177986145211605 ], [ 6.877563953182857, 9.171581267859779 ], [ 6.877563953182857, 9.163042068057791 ], [ 6.878631114907932, 9.159305572519031 ], [ 6.879165173270792, 9.149699210991969 ], [ 6.877030372820286, 9.138490677376296 ], [ 6.880766392358737, 9.132619858387329 ], [ 6.890906811248669, 9.133687019112415 ], [ 6.892508030336671, 9.12888336184858 ], [ 6.889305592160724, 9.124613761947614 ], [ 6.886103152984845, 9.119811057684387 ], [ 6.889305592160724, 9.109669684793801 ], [ 6.88877201079822, 9.097928046815923 ], [ 6.886637211347704, 9.092057227826956 ], [ 6.881833553083823, 9.092057227826956 ], [ 6.881299972721308, 9.086186408837989 ], [ 6.881299972721308, 9.081916808937024 ], [ 6.878097533545372, 9.078714370761134 ], [ 6.877030372820286, 9.072309494409296 ], [ 6.874361515006967, 9.066972732783199 ], [ 6.873827933644407, 9.0611019127943 ], [ 6.874361515006967, 9.054163933080247 ], [ 6.873827933644407, 9.05096149390431 ], [ 6.870625496468506, 9.04775905572842 ], [ 6.867423534292925, 9.046157836640475 ], [ 6.866355895567494, 9.04135417937664 ], [ 6.873827933644407, 9.026410103222815 ], [ 6.875962734094912, 9.019472121508784 ], [ 6.877030372820286, 9.011466026069002 ], [ 6.879698752633317, 9.005061149717221 ], [ 6.880766392358737, 8.994920730827289 ], [ 6.881833553083823, 8.991718291651353 ], [ 6.88770437207279, 8.989583969201192 ], [ 6.892508030336671, 8.983179091849365 ], [ 6.893041610699186, 8.975173950410237 ], [ 6.896777630237636, 8.973038672959433 ], [ 6.898912429688153, 8.968235015695598 ], [ 6.898912429688153, 8.963951326785036 ], [ 6.898912429688153, 8.963431358431706 ], [ 6.901047230138602, 8.96022987425647 ], [ 6.902114867864043, 8.954892158629718 ], [ 6.898912429688153, 8.950622558728753 ], [ 6.897311210600208, 8.944217682376916 ], [ 6.897845267963021, 8.939948082475951 ], [ 6.897845267963021, 8.935144424212069 ], [ 6.898378849325582, 8.929807662585972 ], [ 6.892508030336671, 8.927139281772952 ], [ 6.88877201079822, 8.921801567146247 ], [ 6.883968352534339, 8.914329529069335 ], [ 6.882856238778686, 8.908572872157947 ], [ 6.88249931953618, 8.903576003762794 ], [ 6.883170962992551, 8.902792469230462 ], [ 6.88651221426278, 8.898894584582024 ], [ 6.88689275652132, 8.898450645280377 ], [ 6.887835940162176, 8.897931893927932 ], [ 6.890319180849417, 8.896566110999913 ], [ 6.885035992259759, 8.892447472201525 ], [ 6.880232333995878, 8.888177872300503 ], [ 6.878097533545372, 8.882840156673808 ], [ 6.874895096369471, 8.879638672498515 ], [ 6.872226714556462, 8.872166634421603 ], [ 6.873827933644407, 8.863626479618972 ], [ 6.874361515006967, 8.857755660630062 ], [ 6.872226714556462, 8.851350784278225 ], [ 6.872226714556462, 8.844946860927053 ], [ 6.869024277380561, 8.843878746201312 ], [ 6.860485076578527, 8.847615241740129 ], [ 6.855147838952178, 8.844946860927053 ], [ 6.851411819413727, 8.835339546399325 ], [ 6.845264267236701, 8.833802543355034 ], [ 6.845007420062188, 8.83373832731138 ], [ 6.840203761798364, 8.83160400386123 ], [ 6.837535380985287, 8.826266289234525 ], [ 6.833265305084012, 8.823063850058588 ], [ 6.82339191437552, 8.818794250157623 ], [ 6.821256637924648, 8.812390326806451 ], [ 6.819121838474189, 8.801715850553649 ], [ 6.815385817935748, 8.792642593388791 ], [ 6.809514998946781, 8.787838936124899 ], [ 6.802042960869869, 8.78730487776204 ], [ 6.797239779606343, 8.784103393586804 ], [ 6.795638560518398, 8.777164458872107 ], [ 6.800975800144784, 8.76915931743298 ], [ 6.814318657210663, 8.76809120170725 ], [ 6.820189476199573, 8.761153220993208 ], [ 6.814318657210663, 8.753681182916353 ], [ 6.80898141858421, 8.753147124553493 ], [ 6.803644179957814, 8.755282402004298 ], [ 6.79990816141941, 8.751545906465537 ], [ 6.799374580056849, 8.74620914483944 ], [ 6.792969703705012, 8.744073868388625 ], [ 6.794570922792957, 8.739271164125398 ], [ 6.80257654223243, 8.740872383213343 ], [ 6.810048580309342, 8.736601830311713 ], [ 6.816453456661122, 8.733400345136431 ], [ 6.816440889652597, 8.733337519093766 ], [ 6.815385817935748, 8.728062629509736 ], [ 6.810582637672212, 8.725928307059576 ], [ 6.810048580309342, 8.719523429707749 ], [ 6.810048580309342, 8.715253829806727 ], [ 6.803644179957814, 8.711517334267967 ], [ 6.798840522693979, 8.705646515279057 ], [ 6.801509379507365, 8.698708533565025 ], [ 6.808447838221696, 8.692837714576058 ], [ 6.811649799397287, 8.691769599850318 ], [ 6.818054675749067, 8.696040153751937 ], [ 6.823925494738035, 8.697640418839285 ], [ 6.827127933913914, 8.693370818938263 ], [ 6.824992657463099, 8.687499999949353 ], [ 6.82285785701265, 8.684831619136276 ], [ 6.818588257111628, 8.682163239323245 ], [ 6.812183856760157, 8.677359581059363 ], [ 6.807380199496265, 8.676292419334288 ], [ 6.803644179957814, 8.675758361971418 ], [ 6.79990816141941, 8.673089981158398 ], [ 6.8031105995953, 8.664550781356411 ], [ 6.807913779858836, 8.657078743279499 ], [ 6.8031105995953, 8.652275085015674 ], [ 6.804177761320375, 8.646404266026707 ], [ 6.812183856760157, 8.646404266026707 ], [ 6.814852237573177, 8.638932227949795 ], [ 6.811116219034716, 8.635729789773904 ], [ 6.804177761320375, 8.635195732411034 ], [ 6.8031105995953, 8.630926131510023 ], [ 6.807913779858836, 8.626122475246177 ], [ 6.814318657210663, 8.625589370883972 ], [ 6.816453456661122, 8.62131977098295 ], [ 6.815919876298608, 8.616516112719125 ], [ 6.813251019485222, 8.61438083626831 ], [ 6.813251019485222, 8.610645293730158 ], [ 6.817520618386197, 8.609044074642213 ], [ 6.822324275650089, 8.607442855554268 ], [ 6.82552671382598, 8.604774474741248 ], [ 6.829796313727002, 8.602106093928171 ], [ 6.834866524171957, 8.599970818477345 ], [ 6.836467743259902, 8.593565941125576 ], [ 6.833799362446882, 8.586093903048663 ], [ 6.832731723721452, 8.582358359510522 ], [ 6.835934161897342, 8.581290244784782 ], [ 6.845007420062188, 8.581824303147641 ], [ 6.850878239051156, 8.579689979697491 ], [ 6.852479458139101, 8.577020644883817 ], [ 6.856215476677562, 8.576487540521555 ], [ 6.863687514754474, 8.579155922334621 ], [ 6.869558333743385, 8.583425522235586 ], [ 6.875904771055502, 8.579450507534773 ], [ 6.880520759191882, 8.576559313570328 ], [ 6.904315369359153, 8.563353304597513 ], [ 6.919900837948774, 8.542176102208543 ], [ 6.939602459335106, 8.532543388663612 ], [ 6.95029845260251, 8.527661390346509 ], [ 6.956643704913802, 8.525424956826953 ], [ 6.964813165464591, 8.522545548870539 ], [ 6.977662254194911, 8.519809169011296 ], [ 6.984124518585759, 8.499631333301409 ], [ 6.985769732703602, 8.494494129810903 ], [ 6.980273388969067, 8.47656944063192 ], [ 6.982036594167084, 8.465648138211407 ], [ 6.983051086856392, 8.45936415194177 ], [ 6.983532159183255, 8.456384282917043 ], [ 6.982538363508013, 8.451755304771893 ], [ 6.980814909337028, 8.443727661317496 ], [ 6.977416201027779, 8.443944556464828 ], [ 6.947562636743669, 8.45612112073826 ], [ 6.940821987163702, 8.458870419606285 ], [ 6.921116401774668, 8.458640028449736 ], [ 6.887284070787189, 8.458244470180944 ], [ 6.834390161848262, 8.457626047760755 ], [ 6.833537612269026, 8.457616079754018 ], [ 6.827889919431698, 8.457550048709152 ], [ 6.827500058166777, 8.457550048709152 ], [ 6.798217668270752, 8.457550048709152 ], [ 6.784563738993597, 8.457550048709152 ], [ 6.778522490888804, 8.457550048709152 ], [ 6.779962081866984, 8.580278119097102 ], [ 6.779961294866439, 8.580278139097118 ], [ 6.780033094915211, 8.586400301256845 ], [ 6.781168502686683, 8.683212509036196 ], [ 6.781214014717591, 8.687093208672934 ], [ 6.781879031169467, 8.743796772200312 ], [ 6.783795389471493, 8.907107526162349 ], [ 6.784782887142455, 8.991261482340974 ], [ 6.785022831305525, 9.011721931242903 ], [ 6.785022879305529, 9.011721931242903 ], [ 6.786707401450087, 9.155335425821534 ], [ 6.788054466365338, 9.270166396843763 ], [ 7.015266894745537, 9.268970490031222 ], [ 7.030075072806994, 9.257713318382457 ], [ 7.025403499632887, 9.247902869716768 ] ] ] ] } },
{ "type": "Feature", "properties": { "fid": 296.0, "OBJECTID": 296.0, "lganame": "Kwali", "statecode": "FC", "LGA_UID": "37_05" }, "geometry": { "type": "MultiPolygon", "coordinates": [ [ [ [ 7.02507074840679, 8.932248279244277 ], [ 7.021953449288731, 8.926785798532762 ], [ 7.021287404836187, 8.925823734879089 ], [ 7.022358162563705, 8.924181906763579 ], [ 7.026298550240995, 8.924924298267968 ], [ 7.034179324595641, 8.923725050453129 ], [ 7.037891284117734, 8.925495368656016 ], [ 7.041203494368233, 8.925780903850011 ], [ 7.043880387187073, 8.929707014517589 ], [ 7.04577205947237, 8.930599313123878 ], [ 7.047735113806141, 8.92959993944487 ], [ 7.049091406727712, 8.927672576135308 ], [ 7.049269866848931, 8.92545967663176 ], [ 7.047520962660656, 8.923282470152458 ], [ 7.046878508224154, 8.920748344430592 ], [ 7.047142629403595, 8.918870950154997 ], [ 7.051054462061472, 8.915758615040318 ], [ 7.055563541125196, 8.911896749416371 ], [ 7.059489651792831, 8.909517287799645 ], [ 7.061393220086188, 8.91029061332506 ], [ 7.063415762460409, 8.908684477233805 ], [ 7.06581663809169, 8.910866442716326 ], [ 7.068886143177281, 8.909867069037318 ], [ 7.073169173087422, 8.912579654880403 ], [ 7.076809747561015, 8.912936574122909 ], [ 7.08002202074357, 8.916577148596502 ], [ 7.08013019281708, 8.917049534917453 ], [ 7.083768357289046, 8.917650418325707 ], [ 7.085079472179871, 8.917810963434817 ], [ 7.088863264750785, 8.917839342454101 ], [ 7.088954257812645, 8.917840024454563 ], [ 7.09705336431557, 8.917930868516294 ], [ 7.103537394721172, 8.917603693293984 ], [ 7.105530194075186, 8.916800624748305 ], [ 7.105619424135796, 8.913201690303026 ], [ 7.102944646318463, 8.906130085498205 ], [ 7.120918273530663, 8.900915145954912 ], [ 7.123073577995115, 8.89725112946536 ], [ 7.132146835159972, 8.884975433124623 ], [ 7.15029287348932, 8.866828917794919 ], [ 7.156697749841157, 8.860958098805952 ], [ 7.1636357305552, 8.858822823355126 ], [ 7.178046227346442, 8.848149300102989 ], [ 7.187119483511253, 8.838007927212402 ], [ 7.191389084412265, 8.823063850058588 ], [ 7.190228074623406, 8.815226997733816 ], [ 7.189254283961759, 8.808653831267691 ], [ 7.180181025796912, 8.796912193289756 ], [ 7.174843788170506, 8.792642593388791 ], [ 7.154562950390641, 8.785170555311879 ], [ 7.15432225622709, 8.785117897276109 ], [ 7.137484073786368, 8.781434058773129 ], [ 7.128410815621521, 8.777698517234967 ], [ 7.117202759006148, 8.767558098345035 ], [ 7.105994701390784, 8.754215240279223 ], [ 7.102792263214894, 8.741939544938418 ], [ 7.100778148846416, 8.732204898324198 ], [ 7.100301708522693, 8.7299021117596 ], [ 7.099589825039004, 8.726461411421781 ], [ 7.110732823610135, 8.716658691761268 ], [ 7.12649675432101, 8.705356253081789 ], [ 7.12572898279933, 8.685394506518719 ], [ 7.125307022512629, 8.674423260064316 ], [ 7.117202759006148, 8.665617943081486 ], [ 7.083896719376241, 8.641145422453576 ], [ 7.058227307935113, 8.623286385319204 ], [ 7.040444162852282, 8.616995588044915 ], [ 7.016395675512456, 8.588035810368069 ], [ 6.984546592872505, 8.543850466346214 ], [ 6.986536003224217, 8.53279623983542 ], [ 6.987509726885833, 8.527385712159173 ], [ 6.98349193415595, 8.521474791143021 ], [ 6.977662254194911, 8.519809169011296 ], [ 6.964813165464591, 8.522545548870539 ], [ 6.956643704913802, 8.525424956826953 ], [ 6.95029845260251, 8.527661390346509 ], [ 6.939602459335106, 8.532543388663612 ], [ 6.919900837948774, 8.542176102208543 ], [ 6.904315369359153, 8.563353304597513 ], [ 6.880520759191882, 8.576559313570328 ], [ 6.875904771055502, 8.579450507534773 ], [ 6.869558333743385, 8.583425522235586 ], [ 6.863687514754474, 8.579155922334621 ], [ 6.856215476677562, 8.576487540521555 ], [ 6.852479458139101, 8.577020644883817 ], [ 6.850878239051156, 8.579689979697491 ], [ 6.845007420062188, 8.581824303147641 ], [ 6.835934161897342, 8.581290244784782 ], [ 6.832731723721452, 8.582358359510522 ], [ 6.833799362446882, 8.586093903048663 ], [ 6.836467743259902, 8.593565941125576 ], [ 6.834866524171957, 8.599970818477345 ], [ 6.829796313727002, 8.602106093928171 ], [ 6.82552671382598, 8.604774474741248 ], [ 6.822324275650089, 8.607442855554268 ], [ 6.817520618386197, 8.609044074642213 ], [ 6.813251019485222, 8.610645293730158 ], [ 6.813251019485222, 8.61438083626831 ], [ 6.815919876298608, 8.616516112719125 ], [ 6.816453456661122, 8.62131977098295 ], [ 6.814318657210663, 8.625589370883972 ], [ 6.807913779858836, 8.626122475246177 ], [ 6.8031105995953, 8.630926131510023 ], [ 6.804177761320375, 8.635195732411034 ], [ 6.811116219034716, 8.635729789773904 ], [ 6.814852237573177, 8.638932227949795 ], [ 6.812183856760157, 8.646404266026707 ], [ 6.804177761320375, 8.646404266026707 ], [ 6.8031105995953, 8.652275085015674 ], [ 6.807913779858836, 8.657078743279499 ], [ 6.8031105995953, 8.664550781356411 ], [ 6.79990816141941, 8.673089981158398 ], [ 6.803644179957814, 8.675758361971418 ], [ 6.807380199496265, 8.676292419334288 ], [ 6.812183856760157, 8.677359581059363 ], [ 6.818588257111628, 8.682163239323245 ], [ 6.82285785701265, 8.684831619136276 ], [ 6.824992657463099, 8.687499999949353 ], [ 6.827127933913914, 8.693370818938263 ], [ 6.823925494738035, 8.697640418839285 ], [ 6.818054675749067, 8.696040153751937 ], [ 6.811649799397287, 8.691769599850318 ], [ 6.808447838221696, 8.692837714576058 ], [ 6.801509379507365, 8.698708533565025 ], [ 6.798840522693979, 8.705646515279057 ], [ 6.803644179957814, 8.711517334267967 ], [ 6.810048580309342, 8.715253829806727 ], [ 6.810048580309342, 8.719523429707749 ], [ 6.810582637672212, 8.725928307059576 ], [ 6.815385817935748, 8.728062629509736 ], [ 6.816440889652597, 8.733337519093766 ], [ 6.816453456661122, 8.733400345136431 ], [ 6.810048580309342, 8.736601830311713 ], [ 6.80257654223243, 8.740872383213343 ], [ 6.794570922792957, 8.739271164125398 ], [ 6.792969703705012, 8.744073868388625 ], [ 6.799374580056849, 8.74620914483944 ], [ 6.79990816141941, 8.751545906465537 ], [ 6.803644179957814, 8.755282402004298 ], [ 6.80898141858421, 8.753147124553493 ], [ 6.814318657210663, 8.753681182916353 ], [ 6.820189476199573, 8.761153220993208 ], [ 6.814318657210663, 8.76809120170725 ], [ 6.800975800144784, 8.76915931743298 ], [ 6.795638560518398, 8.777164458872107 ], [ 6.797239779606343, 8.784103393586804 ], [ 6.802042960869869, 8.78730487776204 ], [ 6.809514998946781, 8.787838936124899 ], [ 6.815385817935748, 8.792642593388791 ], [ 6.819121838474189, 8.801715850553649 ], [ 6.821256637924648, 8.812390326806451 ], [ 6.82339191437552, 8.818794250157623 ], [ 6.833265305084012, 8.823063850058588 ], [ 6.837535380985287, 8.826266289234525 ], [ 6.840203761798364, 8.83160400386123 ], [ 6.845007420062188, 8.83373832731138 ], [ 6.845264267236701, 8.833802543355034 ], [ 6.851411819413727, 8.835339546399325 ], [ 6.855147838952178, 8.844946860927053 ], [ 6.860485076578527, 8.847615241740129 ], [ 6.869024277380561, 8.843878746201312 ], [ 6.872226714556462, 8.844946860927053 ], [ 6.872226714556462, 8.851350784278225 ], [ 6.874361515006967, 8.857755660630062 ], [ 6.873827933644407, 8.863626479618972 ], [ 6.872226714556462, 8.872166634421603 ], [ 6.874895096369471, 8.879638672498515 ], [ 6.878097533545372, 8.882840156673808 ], [ 6.880232333995878, 8.888177872300503 ], [ 6.885035992259759, 8.892447472201525 ], [ 6.890319180849417, 8.896566110999913 ], [ 6.893288747867132, 8.896566110999913 ], [ 6.895515924380391, 8.889256407033315 ], [ 6.896658065156373, 8.886972125481236 ], [ 6.899913168368073, 8.88674369632605 ], [ 6.902140342881353, 8.887257659675299 ], [ 6.903739340967775, 8.891540689585383 ], [ 6.904767267666216, 8.895595291340328 ], [ 6.907306467391493, 8.89764557573335 ], [ 6.909735583041936, 8.897594038698344 ], [ 6.913961504913289, 8.903019210384514 ], [ 6.916988179969735, 8.903590279772516 ], [ 6.921403507969785, 8.903338056601172 ], [ 6.928536150816058, 8.904949222695848 ], [ 6.938241091410134, 8.904012066059124 ], [ 6.93863849968011, 8.90451624640167 ], [ 6.940435574901187, 8.90679612795077 ], [ 6.946361151927306, 8.912871783078856 ], [ 6.960634261625216, 8.917660665332676 ], [ 6.961946621516915, 8.920426572211966 ], [ 6.968870650221447, 8.920403768196479 ], [ 6.970215249135038, 8.921794762141587 ], [ 6.970917665612319, 8.926562521381072 ], [ 6.972475736670958, 8.928576225749282 ], [ 6.976345576300332, 8.926434221293903 ], [ 6.980803851329483, 8.931550551770215 ], [ 6.983139687916605, 8.935504423456678 ], [ 6.986280577050707, 8.931982821063912 ], [ 6.988474258541203, 8.931910061014491 ], [ 6.99103949928417, 8.933886390357316 ], [ 6.998308078222806, 8.930492785051513 ], [ 6.999605558104406, 8.931221392546547 ], [ 7.00196062970457, 8.936919239417989 ], [ 7.00503072879053, 8.938930846784785 ], [ 7.009509072833339, 8.94010050057949 ], [ 7.014077637937476, 8.939458046142988 ], [ 7.021144637739155, 8.933961491408354 ], [ 7.023714455485219, 8.933818724311323 ], [ 7.023773794525539, 8.93375001526465 ], [ 7.02507074840679, 8.932248279244277 ] ] ] ] } },
{ "type": "Feature", "properties": { "fid": 305.0, "OBJECTID": 305.0, "lganame": "Gwagwalada", "statecode": "FC", "LGA_UID": "37_03" }, "geometry": { "type": "MultiPolygon", "coordinates": [ [ [ [ 7.030075072806994, 9.257713318382457 ], [ 7.104427913326219, 9.201191756978744 ], [ 7.167658329288315, 9.15311813431498 ], [ 7.21975803368764, 9.113510132403178 ], [ 7.220572324240891, 9.114655951181703 ], [ 7.221004639534669, 9.115264278595077 ], [ 7.22176116504869, 9.113601262465124 ], [ 7.222961506864237, 9.111742312202068 ], [ 7.222584321607997, 9.11107132374616 ], [ 7.220701019328374, 9.107721023469765 ], [ 7.220233250010551, 9.107013929989307 ], [ 7.219677850633161, 9.106174373418867 ], [ 7.218821245051117, 9.10427080412552 ], [ 7.217917050436768, 9.101082325959055 ], [ 7.217819767370656, 9.099041365572361 ], [ 7.217773432339186, 9.098069282911865 ], [ 7.217990416486657, 9.096201456642746 ], [ 7.218101172561887, 9.094730857643583 ], [ 7.218133445583817, 9.092270211971652 ], [ 7.218145080591739, 9.091383049368858 ], [ 7.217883341413881, 9.089372404002745 ], [ 7.217657292260299, 9.088396825339885 ], [ 7.216729301629755, 9.086160131820179 ], [ 7.215218343603112, 9.087016738402156 ], [ 7.214294593975467, 9.087660599839637 ], [ 7.214080273829893, 9.087809981941177 ], [ 7.214072226824385, 9.087787627925934 ], [ 7.214048702808441, 9.087746459897971 ], [ 7.209802627923409, 9.080315589849079 ], [ 7.219073006222175, 9.063069463131114 ], [ 7.216990977807541, 9.054205971108786 ], [ 7.215371336707108, 9.052216275756905 ], [ 7.21042443834591, 9.046139042627715 ], [ 7.20813938279332, 9.043331833720345 ], [ 7.206640322774774, 9.042617996235322 ], [ 7.199229220739255, 9.048391322158011 ], [ 7.197629303652207, 9.049622652994628 ], [ 7.19596843952371, 9.050517330602531 ], [ 7.192784721360567, 9.045035052877608 ], [ 7.190686036934608, 9.042493788150921 ], [ 7.186428455041778, 9.038766198618191 ], [ 7.182876035628055, 9.035685897525298 ], [ 7.180263996853284, 9.033456595010591 ], [ 7.181120603435318, 9.032157410127866 ], [ 7.179507329339174, 9.030644072099619 ], [ 7.178265250495258, 9.031729106836849 ], [ 7.171287480754188, 9.025847078840286 ], [ 7.167196105974256, 9.027113149700483 ], [ 7.16676126967883, 9.026713095428704 ], [ 7.154829501571783, 9.015735625970024 ], [ 7.167226480994941, 9.008746943221524 ], [ 7.169584367596997, 9.006203775493589 ], [ 7.166875351756346, 9.001943706599036 ], [ 7.163948614767776, 9.001301252162534 ], [ 7.163413236403983, 8.999338196828717 ], [ 7.161700024239963, 8.999016969610466 ], [ 7.159879736003177, 9.00183663052627 ], [ 7.154204722147256, 9.000801564823007 ], [ 7.153954877977469, 9.000052035313729 ], [ 7.15523978685053, 8.999409580877227 ], [ 7.156155880472966, 8.99587608147641 ], [ 7.155584809084928, 8.993496619859627 ], [ 7.153205348468248, 8.99240206811595 ], [ 7.152539099015542, 8.990260552660914 ], [ 7.152396330918521, 8.976647974411776 ], [ 7.151587315368829, 8.969749598724661 ], [ 7.147351874491051, 8.970035134918703 ], [ 7.145020001906687, 8.96894058317497 ], [ 7.144448931518639, 8.967179780978597 ], [ 7.142973665516251, 8.964419607103196 ], [ 7.142783309386914, 8.961326307001457 ], [ 7.139832777382196, 8.960850414678077 ], [ 7.136596710183426, 8.95937514867569 ], [ 7.132361270305637, 8.958518543093703 ], [ 7.130410111979927, 8.957376402317664 ], [ 7.131076361432633, 8.95456863840991 ], [ 7.131092051443261, 8.951070903033383 ], [ 7.131980556046983, 8.94871516443277 ], [ 7.130743236206285, 8.947858557850736 ], [ 7.129886629624252, 8.949333823853124 ], [ 7.128887256945234, 8.949238644788466 ], [ 7.128458953654217, 8.947525433624378 ], [ 7.127174044781157, 8.947192309398076 ], [ 7.123081372000399, 8.95352167469855 ], [ 7.118929212179182, 8.956726015875745 ], [ 7.116045209219635, 8.955206966843605 ], [ 7.11382824171335, 8.954039251050233 ], [ 7.112529179830688, 8.953355009585323 ], [ 7.111136476884383, 8.95262144608688 ], [ 7.107207614214929, 8.950822247864437 ], [ 7.106484306723473, 8.950491012639361 ], [ 7.10806096679471, 8.949497003963984 ], [ 7.109846185007711, 8.948371507199283 ], [ 7.112225645624449, 8.940281339702381 ], [ 7.110893147719082, 8.937901879085643 ], [ 7.109132346522699, 8.937140450568279 ], [ 7.109184180557918, 8.934913310055038 ], [ 7.113466740467686, 8.933010100761919 ], [ 7.114099257897465, 8.92773936818071 ], [ 7.115860342094038, 8.926448179303407 ], [ 7.114470022149362, 8.924649818081491 ], [ 7.105619424135796, 8.913201690303026 ], [ 7.105530194075186, 8.916800624748305 ], [ 7.103537394721172, 8.917603693293984 ], [ 7.09705336431557, 8.917930868516294 ], [ 7.088954257812645, 8.917840024454563 ], [ 7.088863264750785, 8.917839342454101 ], [ 7.085079472179871, 8.917810963434817 ], [ 7.083768357289046, 8.917650418325707 ], [ 7.08013019281708, 8.917049534917453 ], [ 7.08002202074357, 8.916577148596502 ], [ 7.076809747561015, 8.912936574122909 ], [ 7.073169173087422, 8.912579654880403 ], [ 7.068886143177281, 8.909867069037318 ], [ 7.06581663809169, 8.910866442716326 ], [ 7.063415762460409, 8.908684477233805 ], [ 7.061393220086188, 8.91029061332506 ], [ 7.059489651792831, 8.909517287799645 ], [ 7.055563541125196, 8.911896749416371 ], [ 7.051054462061472, 8.915758615040318 ], [ 7.047142629403595, 8.918870950154997 ], [ 7.046878508224154, 8.920748344430592 ], [ 7.047520962660656, 8.923282470152458 ], [ 7.049269866848931, 8.92545967663176 ], [ 7.049091406727712, 8.927672576135308 ], [ 7.047735113806141, 8.92959993944487 ], [ 7.04577205947237, 8.930599313123878 ], [ 7.043880387187073, 8.929707014517589 ], [ 7.041203494368233, 8.925780903850011 ], [ 7.037891284117734, 8.925495368656016 ], [ 7.034179324595641, 8.923725050453129 ], [ 7.026298550240995, 8.924924298267968 ], [ 7.022358162563705, 8.924181906763579 ], [ 7.021287404836187, 8.925823734879089 ], [ 7.021953449288731, 8.926785798532762 ], [ 7.02507074840679, 8.932248279244277 ], [ 7.023773794525539, 8.93375001526465 ], [ 7.023714455485219, 8.933818724311323 ], [ 7.021144637739155, 8.933961491408354 ], [ 7.014077637937476, 8.939458046142988 ], [ 7.009509072833339, 8.94010050057949 ], [ 7.00503072879053, 8.938930846784785 ], [ 7.00196062970457, 8.936919239417989 ], [ 6.999605558104406, 8.931221392546547 ], [ 6.998308078222806, 8.930492785051513 ], [ 6.99103949928417, 8.933886390357316 ], [ 6.988474258541203, 8.931910061014491 ], [ 6.986280577050707, 8.931982821063912 ], [ 6.983139687916605, 8.935504423456678 ], [ 6.980803851329483, 8.931550551770215 ], [ 6.976345576300332, 8.926434221293903 ], [ 6.972475736670958, 8.928576225749282 ], [ 6.970917665612319, 8.926562521381072 ], [ 6.970215249135038, 8.921794762141587 ], [ 6.968870650221447, 8.920403768196479 ], [ 6.961946621516915, 8.920426572211966 ], [ 6.960634261625216, 8.917660665332676 ], [ 6.946361151927306, 8.912871783078856 ], [ 6.940435574901187, 8.90679612795077 ], [ 6.93863849968011, 8.90451624640167 ], [ 6.938241091410134, 8.904012066059124 ], [ 6.928536150816058, 8.904949222695848 ], [ 6.921403507969785, 8.903338056601172 ], [ 6.916988179969735, 8.903590279772516 ], [ 6.913961504913289, 8.903019210384514 ], [ 6.909735583041936, 8.897594038698344 ], [ 6.907306467391493, 8.89764557573335 ], [ 6.904767267666216, 8.895595291340328 ], [ 6.903739340967775, 8.891540689585383 ], [ 6.902140342881353, 8.887257659675299 ], [ 6.899913168368073, 8.88674369632605 ], [ 6.896658065156373, 8.886972125481236 ], [ 6.895515924380391, 8.889256407033315 ], [ 6.893288747867132, 8.896566110999913 ], [ 6.890319180849417, 8.896566110999913 ], [ 6.887835940162176, 8.897931893927932 ], [ 6.88689275652132, 8.898450645280377 ], [ 6.88651221426278, 8.898894584582024 ], [ 6.883170962992551, 8.902792469230462 ], [ 6.88249931953618, 8.903576003762794 ], [ 6.882856238778686, 8.908572872157947 ], [ 6.883968352534339, 8.914329529069335 ], [ 6.88877201079822, 8.921801567146247 ], [ 6.892508030336671, 8.927139281772952 ], [ 6.898378849325582, 8.929807662585972 ], [ 6.897845267963021, 8.935144424212069 ], [ 6.897845267963021, 8.939948082475951 ], [ 6.897311210600208, 8.944217682376916 ], [ 6.898912429688153, 8.950622558728753 ], [ 6.902114867864043, 8.954892158629718 ], [ 6.901047230138602, 8.96022987425647 ], [ 6.898912429688153, 8.963431358431706 ], [ 6.898912429688153, 8.963951326785036 ], [ 6.898912429688153, 8.968235015695598 ], [ 6.896777630237636, 8.973038672959433 ], [ 6.893041610699186, 8.975173950410237 ], [ 6.892508030336671, 8.983179091849365 ], [ 6.88770437207279, 8.989583969201192 ], [ 6.881833553083823, 8.991718291651353 ], [ 6.880766392358737, 8.994920730827289 ], [ 6.879698752633317, 9.005061149717221 ], [ 6.877030372820286, 9.011466026069002 ], [ 6.875962734094912, 9.019472121508784 ], [ 6.873827933644407, 9.026410103222815 ], [ 6.866355895567494, 9.04135417937664 ], [ 6.867423534292925, 9.046157836640475 ], [ 6.870625496468506, 9.04775905572842 ], [ 6.873827933644407, 9.05096149390431 ], [ 6.874361515006967, 9.054163933080247 ], [ 6.873827933644407, 9.0611019127943 ], [ 6.874361515006967, 9.066972732783199 ], [ 6.877030372820286, 9.072309494409296 ], [ 6.878097533545372, 9.078714370761134 ], [ 6.881299972721308, 9.081916808937024 ], [ 6.881299972721308, 9.086186408837989 ], [ 6.881833553083823, 9.092057227826956 ], [ 6.886637211347704, 9.092057227826956 ], [ 6.88877201079822, 9.097928046815923 ], [ 6.889305592160724, 9.109669684793801 ], [ 6.886103152984845, 9.119811057684387 ], [ 6.889305592160724, 9.124613761947614 ], [ 6.892508030336671, 9.12888336184858 ], [ 6.890906811248669, 9.133687019112415 ], [ 6.880766392358737, 9.132619858387329 ], [ 6.877030372820286, 9.138490677376296 ], [ 6.879165173270792, 9.149699210991969 ], [ 6.878631114907932, 9.159305572519031 ], [ 6.877563953182857, 9.163042068057791 ], [ 6.877563953182857, 9.171581267859779 ], [ 6.880766392358737, 9.177986145211605 ], [ 6.885569571622284, 9.184924125925647 ], [ 6.889839171523306, 9.189727783189483 ], [ 6.88877201079822, 9.19826698299147 ], [ 6.892508030336671, 9.205204963705512 ], [ 6.897845267963021, 9.204671860343296 ], [ 6.906384467765008, 9.196665763903525 ], [ 6.912789345116835, 9.19559860217845 ], [ 6.918126582743241, 9.19826698299147 ], [ 6.920794963556261, 9.19773292462861 ], [ 6.924530983094712, 9.19773292462861 ], [ 6.93093538344624, 9.199868202079472 ], [ 6.93734025979802, 9.198801041354386 ], [ 6.945879458600018, 9.202002524529632 ], [ 6.949615479138458, 9.205204963705512 ], [ 6.952817917314405, 9.204137801980437 ], [ 6.958155154940755, 9.203070641255351 ], [ 6.961357594116691, 9.206806182793457 ], [ 6.965093612655153, 9.210542679332264 ], [ 6.966160774380228, 9.216946601683389 ], [ 6.962424754841777, 9.219081879134251 ], [ 6.959756374028757, 9.223885536398086 ], [ 6.963492392567161, 9.228155136299108 ], [ 6.968295573830744, 9.231890677837214 ], [ 6.972031593369195, 9.232958793562943 ], [ 6.974166392819654, 9.229222298024183 ], [ 6.974700451182514, 9.224952698123161 ], [ 6.97950363244604, 9.223885536398086 ], [ 6.98003768880892, 9.229756355387053 ], [ 6.983773708347371, 9.231890677837214 ], [ 6.991245747424273, 9.231890677837214 ], [ 6.993914127237304, 9.236694336101095 ], [ 6.996207361795484, 9.238570730376011 ], [ 7.005655766215227, 9.246301650628766 ], [ 7.013661860654963, 9.244166374177951 ], [ 7.025403499632887, 9.247902869716768 ], [ 7.030075072806994, 9.257713318382457 ] ] ] ] } },
{ "type": "Feature", "properties": { "fid": 377.0, "OBJECTID": 377.0, "lganame": "Kuje", "statecode": "FC", "LGA_UID": "37_04" }, "geometry": { "type": "MultiPolygon", "coordinates": [ [ [ [ 7.126719294472196, 8.927460610991261 ], [ 7.129860182606251, 8.925033560342229 ], [ 7.132947444703916, 8.925538062685007 ], [ 7.146823883132299, 8.91646480552015 ], [ 7.161767960286113, 8.911127089893455 ], [ 7.164970398462003, 8.908992767443237 ], [ 7.171838428128524, 8.908372862022077 ], [ 7.190654705913289, 8.906674514868087 ], [ 7.207069439066345, 8.913220688315903 ], [ 7.217159227921854, 8.917981466550657 ], [ 7.228905550902937, 8.919915515864773 ], [ 7.234287270559548, 8.918913830184124 ], [ 7.23929652796312, 8.917981466550657 ], [ 7.246826222079221, 8.913518238518122 ], [ 7.252699383069739, 8.912179258608319 ], [ 7.258124827756092, 8.912352643726138 ], [ 7.272837510752652, 8.912822827045602 ], [ 7.278920970886077, 8.896868562205441 ], [ 7.29223103592966, 8.891702483695326 ], [ 7.320039563824253, 8.885597025546929 ], [ 7.327137482646947, 8.883738738284308 ], [ 7.332171889067581, 8.90725149626013 ], [ 7.334711401793072, 8.921356231843674 ], [ 7.412323346526705, 8.90867096122463 ], [ 7.409649449709946, 8.876676364485775 ], [ 7.463435592255109, 8.869630564698468 ], [ 7.481913775810142, 8.867957083561464 ], [ 7.480701911986728, 8.860892486761372 ], [ 7.478800474694822, 8.837407429804387 ], [ 7.479329109053992, 8.806519507817484 ], [ 7.478795527691432, 8.799580574102833 ], [ 7.478795527691432, 8.795310974201811 ], [ 7.479688641298253, 8.792632038381612 ], [ 7.479863167416852, 8.792108536025921 ], [ 7.480396747779423, 8.784103393586804 ], [ 7.485200405043258, 8.772360801608272 ], [ 7.490537166669355, 8.76542282089423 ], [ 7.499610423834213, 8.760086060268122 ], [ 7.497339493291179, 8.73006172686803 ], [ 7.452655704930692, 8.725833033994832 ], [ 7.388734536499214, 8.729217732294558 ], [ 7.34281313029777, 8.680459734165822 ], [ 7.335326219210799, 8.639574957386515 ], [ 7.42969369932905, 8.634109358672902 ], [ 7.42969369932905, 8.633061408960884 ], [ 7.434496879592587, 8.630393028147807 ], [ 7.444637775482875, 8.631993294235144 ], [ 7.450031049147356, 8.632931454872562 ], [ 7.456912993823266, 8.634128570685959 ], [ 7.465452670625609, 8.633061408960884 ], [ 7.475593089515542, 8.632527350598025 ], [ 7.47762346289511, 8.631333350786747 ], [ 7.443030834391038, 8.593281745932472 ], [ 7.418127060470056, 8.569902420047299 ], [ 7.395970201415537, 8.538444459673087 ], [ 7.380283338757067, 8.521520817174292 ], [ 7.365309515583021, 8.487671284175121 ], [ 7.313257656216251, 8.473566430591518 ], [ 7.27047530514767, 8.464397999362006 ], [ 7.20487569957578, 8.458050495049179 ], [ 7.149360740855968, 8.451403223532679 ], [ 7.133418983024342, 8.44949438423572 ], [ 7.139669339271165, 8.443188615951215 ], [ 7.140954248144169, 8.435336393616012 ], [ 7.124194216756507, 8.422788902090588 ], [ 7.083624407191223, 8.419933548150482 ], [ 7.086348843042344, 8.432664708800701 ], [ 7.079858211632313, 8.443081104878161 ], [ 7.069398255525243, 8.441828621027184 ], [ 7.035885413754841, 8.439712673589497 ], [ 6.999520416046551, 8.442533933506411 ], [ 6.985624979605234, 8.443420698108923 ], [ 6.980814909337028, 8.443727661317496 ], [ 6.982538363508013, 8.451755304771893 ], [ 6.983532159183255, 8.456384282917043 ], [ 6.983051086856392, 8.45936415194177 ], [ 6.982036594167084, 8.465648138211407 ], [ 6.980273388969067, 8.47656944063192 ], [ 6.985769732703602, 8.494494129810903 ], [ 6.984124518585759, 8.499631333301409 ], [ 6.977662254194911, 8.519809169011296 ], [ 6.98349193415595, 8.521474791143021 ], [ 6.987509726885833, 8.527385712159173 ], [ 6.986536003224217, 8.53279623983542 ], [ 6.984546592872505, 8.543850466346214 ], [ 7.016395675512456, 8.588035810368069 ], [ 7.040444162852282, 8.616995588044915 ], [ 7.058227307935113, 8.623286385319204 ], [ 7.083896719376241, 8.641145422453576 ], [ 7.117202759006148, 8.665617943081486 ], [ 7.125307022512629, 8.674423260064316 ], [ 7.12572898279933, 8.685394506518719 ], [ 7.12649675432101, 8.705356253081789 ], [ 7.110732823610135, 8.716658691761268 ], [ 7.099589825039004, 8.726461411421781 ], [ 7.100301708522693, 8.7299021117596 ], [ 7.100778148846416, 8.732204898324198 ], [ 7.102792263214894, 8.741939544938418 ], [ 7.105994701390784, 8.754215240279223 ], [ 7.117202759006148, 8.767558098345035 ], [ 7.128410815621521, 8.777698517234967 ], [ 7.137484073786368, 8.781434058773129 ], [ 7.15432225622709, 8.785117897276109 ], [ 7.154562950390641, 8.785170555311879 ], [ 7.174843788170506, 8.792642593388791 ], [ 7.180181025796912, 8.796912193289756 ], [ 7.189254283961759, 8.808653831267691 ], [ 7.190228074623406, 8.815226997733816 ], [ 7.191389084412265, 8.823063850058588 ], [ 7.187119483511253, 8.838007927212402 ], [ 7.178046227346442, 8.848149300102989 ], [ 7.1636357305552, 8.858822823355126 ], [ 7.156697749841157, 8.860958098805952 ], [ 7.15029287348932, 8.866828917794919 ], [ 7.132146835159972, 8.884975433124623 ], [ 7.123073577995115, 8.89725112946536 ], [ 7.120918273530663, 8.900915145954912 ], [ 7.102944646318463, 8.906130085498205 ], [ 7.105619424135796, 8.913201690303026 ], [ 7.114470022149362, 8.924649818081491 ], [ 7.115860342094038, 8.926448179303407 ], [ 7.11808185060346, 8.924819409196743 ], [ 7.123007334950103, 8.925890165924216 ], [ 7.126719294472196, 8.927460610991261 ] ] ] ] } },
{ "type": "Feature", "properties": { "fid": 713.0, "OBJECTID": 713.0, "lganame": "Bwari", "statecode": "FC", "LGA_UID": "37_02" }, "geometry": { "type": "MultiPolygon", "coordinates": [ [ [ [ 7.692970025212958, 9.349402782681182 ], [ 7.720921161204444, 9.330640485933088 ], [ 7.724080474351013, 9.329254915991612 ], [ 7.667605876979223, 9.303650855594867 ], [ 7.640090129283521, 9.242789706242604 ], [ 7.603319168299436, 9.161440848969846 ], [ 7.588679314352305, 9.129055976965844 ], [ 7.589172519687452, 9.100944419865357 ], [ 7.548148290813401, 9.104476485265252 ], [ 7.504862301402568, 9.11213821547102 ], [ 7.504075933868307, 9.108876891255136 ], [ 7.504558327196037, 9.102420193868113 ], [ 7.504759436332677, 9.099728361039126 ], [ 7.479699504305643, 9.112043155406468 ], [ 7.471499811734361, 9.116041543123174 ], [ 7.465795497858551, 9.117449607079891 ], [ 7.436798571156487, 9.117872025366921 ], [ 7.414551749040811, 9.118576052845242 ], [ 7.379470221204542, 9.12265939261971 ], [ 7.375049378200799, 9.123645020289359 ], [ 7.363181614137204, 9.131926279916115 ], [ 7.351494746196522, 9.140081124456913 ], [ 7.350082105236709, 9.140718441889987 ], [ 7.343518237776891, 9.143679753902006 ], [ 7.327444151855275, 9.141824969641789 ], [ 7.32394272347625, 9.141420941367301 ], [ 7.3235783852287, 9.141363414328168 ], [ 7.303156367352869, 9.138138846137224 ], [ 7.288854349635358, 9.137109160437603 ], [ 7.282378813235539, 9.135622326427381 ], [ 7.277710403063566, 9.132797325507909 ], [ 7.271385459766066, 9.126403822163866 ], [ 7.260241513194273, 9.113467776374421 ], [ 7.253765976794455, 9.106776534828043 ], [ 7.24925723973098, 9.102459501894828 ], [ 7.242225389953148, 9.100153884328279 ], [ 7.218133445583817, 9.092270211971652 ], [ 7.218101172561887, 9.094730857643583 ], [ 7.217990416486657, 9.096201456642746 ], [ 7.217773432339186, 9.098069282911865 ], [ 7.217819767370656, 9.099041365572361 ], [ 7.217917050436768, 9.101082325959055 ], [ 7.218821245051117, 9.10427080412552 ], [ 7.219677850633161, 9.106174373418867 ], [ 7.220233250010551, 9.107013929989307 ], [ 7.220701019328374, 9.107721023469765 ], [ 7.222584321607997, 9.11107132374616 ], [ 7.222961506864237, 9.111742312202068 ], [ 7.22176116504869, 9.113601262465124 ], [ 7.221004639534669, 9.115264278595077 ], [ 7.233965874341209, 9.13350200698676 ], [ 7.249756813070405, 9.155721664083956 ], [ 7.265378651684728, 9.177633873972241 ], [ 7.33082025914922, 9.269411790331048 ], [ 7.352625198964631, 9.306913707811816 ], [ 7.356727997752273, 9.310116946988273 ], [ 7.359085639354191, 9.309038894255821 ], [ 7.378645291644091, 9.336468363892834 ], [ 7.389690693148907, 9.335894030502629 ], [ 7.433763417094269, 9.343470077650181 ], [ 7.433763433094271, 9.343470005650147 ], [ 7.473734246252548, 9.350340871318565 ], [ 7.496931787014205, 9.352404656720807 ], [ 7.509100988282569, 9.35503127450545 ], [ 7.520007011692712, 9.366549715331701 ], [ 7.521070697415439, 9.367551484012381 ], [ 7.542094112699885, 9.387351140465285 ], [ 7.61406035559753, 9.40605877117622 ], [ 7.646955229948048, 9.408684982960608 ], [ 7.667490757900964, 9.401369057989825 ], [ 7.670723203097282, 9.383922765135878 ], [ 7.678709241523393, 9.368351675556028 ], [ 7.692970025212958, 9.349402782681182 ] ] ] ] } },
{ "type": "Feature", "properties": { "fid": 768.0, "OBJECTID": 768.0, "lganame": "Municipal Area Council", "statecode": "FC", "LGA_UID": "37_06" }, "geometry": { "type": "MultiPolygon", "coordinates": [ [ [ [ 7.479699504305643, 9.112043155406468 ], [ 7.504759436332677, 9.099728361039126 ], [ 7.504558327196037, 9.102420193868113 ], [ 7.504075933868307, 9.108876891255136 ], [ 7.504862301402568, 9.11213821547102 ], [ 7.548148290813401, 9.104476485265252 ], [ 7.589172519687452, 9.100944419865357 ], [ 7.58917264068748, 9.100944409865349 ], [ 7.589795258110541, 9.06546224475693 ], [ 7.5907079927307, 9.013440339410465 ], [ 7.591591298330854, 8.963088657198853 ], [ 7.59226703579003, 8.924564362023432 ], [ 7.594658852415137, 8.856400489709301 ], [ 7.591669083383749, 8.834875107083803 ], [ 7.565301418468152, 8.785279274385744 ], [ 7.541442871257345, 8.740403174894539 ], [ 7.501979828444064, 8.66865158114274 ], [ 7.496000767381588, 8.654301643392614 ], [ 7.49322843649793, 8.650736808970464 ], [ 7.479258537006046, 8.632776259767127 ], [ 7.47762346289511, 8.631333350786747 ], [ 7.475593089515542, 8.632527350598025 ], [ 7.465452670625609, 8.633061408960884 ], [ 7.456912993823266, 8.634128570685959 ], [ 7.450031049147356, 8.632931454872562 ], [ 7.444637775482875, 8.631993294235144 ], [ 7.434496879592587, 8.630393028147807 ], [ 7.42969369932905, 8.633061408960884 ], [ 7.42969369932905, 8.634109358672902 ], [ 7.335326219210799, 8.639574957386515 ], [ 7.34281313029777, 8.680459734165822 ], [ 7.388734536499214, 8.729217732294558 ], [ 7.452655704930692, 8.725833033994832 ], [ 7.497339493291179, 8.73006172686803 ], [ 7.499610423834213, 8.760086060268122 ], [ 7.490537166669355, 8.76542282089423 ], [ 7.485200405043258, 8.772360801608272 ], [ 7.480396747779423, 8.784103393586804 ], [ 7.479863167416852, 8.792108536025921 ], [ 7.479688641298253, 8.792632038381612 ], [ 7.478795527691432, 8.795310974201811 ], [ 7.478795527691432, 8.799580574102833 ], [ 7.479329109053992, 8.806519507817484 ], [ 7.478800474694822, 8.837407429804387 ], [ 7.480701911986728, 8.860892486761372 ], [ 7.481913775810142, 8.867957083561464 ], [ 7.463435592255109, 8.869630564698468 ], [ 7.409649449709946, 8.876676364485775 ], [ 7.412323346526705, 8.90867096122463 ], [ 7.334711401793072, 8.921356231843674 ], [ 7.332171889067581, 8.90725149626013 ], [ 7.327137482646947, 8.883738738284308 ], [ 7.320039563824253, 8.885597025546929 ], [ 7.29223103592966, 8.891702483695326 ], [ 7.278920970886077, 8.896868562205441 ], [ 7.272837510752652, 8.912822827045602 ], [ 7.258124827756092, 8.912352643726138 ], [ 7.252699383069739, 8.912179258608319 ], [ 7.246826222079221, 8.913518238518122 ], [ 7.23929652796312, 8.917981466550657 ], [ 7.234287270559548, 8.918913830184124 ], [ 7.228905550902937, 8.919915515864773 ], [ 7.217159227921854, 8.917981466550657 ], [ 7.207069439066345, 8.913220688315903 ], [ 7.190654705913289, 8.906674514868087 ], [ 7.171838428128524, 8.908372862022077 ], [ 7.164970398462003, 8.908992767443237 ], [ 7.161767960286113, 8.911127089893455 ], [ 7.146823883132299, 8.91646480552015 ], [ 7.132947444703916, 8.925538062685007 ], [ 7.129860182606251, 8.925033560342229 ], [ 7.126719294472196, 8.927460610991261 ], [ 7.123007334950103, 8.925890165924216 ], [ 7.11808185060346, 8.924819409196743 ], [ 7.115860342094038, 8.926448179303407 ], [ 7.114099257897465, 8.92773936818071 ], [ 7.113466740467686, 8.933010100761919 ], [ 7.109184180557918, 8.934913310055038 ], [ 7.109132346522699, 8.937140450568279 ], [ 7.110893147719082, 8.937901879085643 ], [ 7.112225645624449, 8.940281339702381 ], [ 7.109846185007711, 8.948371507199283 ], [ 7.10806096679471, 8.949497003963984 ], [ 7.106484306723473, 8.950491012639361 ], [ 7.107207614214929, 8.950822247864437 ], [ 7.111136476884383, 8.95262144608688 ], [ 7.112529179830688, 8.953355009585323 ], [ 7.11382824171335, 8.954039251050233 ], [ 7.116045209219635, 8.955206966843605 ], [ 7.118929212179182, 8.956726015875745 ], [ 7.123081372000399, 8.95352167469855 ], [ 7.127174044781157, 8.947192309398076 ], [ 7.128458953654217, 8.947525433624378 ], [ 7.128887256945234, 8.949238644788466 ], [ 7.129886629624252, 8.949333823853124 ], [ 7.130743236206285, 8.947858557850736 ], [ 7.131980556046983, 8.94871516443277 ], [ 7.131092051443261, 8.951070903033383 ], [ 7.131076361432633, 8.95456863840991 ], [ 7.130410111979927, 8.957376402317664 ], [ 7.132361270305637, 8.958518543093703 ], [ 7.136596710183426, 8.95937514867569 ], [ 7.139832777382196, 8.960850414678077 ], [ 7.142783309386914, 8.961326307001457 ], [ 7.142973665516251, 8.964419607103196 ], [ 7.144448931518639, 8.967179780978597 ], [ 7.145020001906687, 8.96894058317497 ], [ 7.147351874491051, 8.970035134918703 ], [ 7.151587315368829, 8.969749598724661 ], [ 7.152396330918521, 8.976647974411776 ], [ 7.152539099015542, 8.990260552660914 ], [ 7.153205348468248, 8.99240206811595 ], [ 7.155584809084928, 8.993496619859627 ], [ 7.156155880472966, 8.99587608147641 ], [ 7.15523978685053, 8.999409580877227 ], [ 7.153954877977469, 9.000052035313729 ], [ 7.154204722147256, 9.000801564823007 ], [ 7.159879736003177, 9.00183663052627 ], [ 7.161700024239963, 8.999016969610466 ], [ 7.163413236403983, 8.999338196828717 ], [ 7.163948614767776, 9.001301252162534 ], [ 7.166875351756346, 9.001943706599036 ], [ 7.169584367596997, 9.006203775493589 ], [ 7.167226480994941, 9.008746943221524 ], [ 7.154829501571783, 9.015735625970024 ], [ 7.16676126967883, 9.026713095428704 ], [ 7.167196105974256, 9.027113149700483 ], [ 7.171287480754188, 9.025847078840286 ], [ 7.178265250495258, 9.031729106836849 ], [ 7.179507329339174, 9.030644072099619 ], [ 7.181120603435318, 9.032157410127866 ], [ 7.180263996853284, 9.033456595010591 ], [ 7.182876035628055, 9.035685897525298 ], [ 7.186428455041778, 9.038766198618191 ], [ 7.190686036934608, 9.042493788150921 ], [ 7.192784721360567, 9.045035052877608 ], [ 7.19596843952371, 9.050517330602531 ], [ 7.197629303652207, 9.049622652994628 ], [ 7.199229220739255, 9.048391322158011 ], [ 7.206640322774774, 9.042617996235322 ], [ 7.20813938279332, 9.043331833720345 ], [ 7.21042443834591, 9.046139042627715 ], [ 7.215371336707108, 9.052216275756905 ], [ 7.216990977807541, 9.054205971108786 ], [ 7.219073006222175, 9.063069463131114 ], [ 7.209802627923409, 9.080315589849079 ], [ 7.214048702808441, 9.087746459897971 ], [ 7.214072226824385, 9.087787627925934 ], [ 7.214080273829893, 9.087809981941177 ], [ 7.214294593975467, 9.087660599839637 ], [ 7.215218343603112, 9.087016738402156 ], [ 7.216729301629755, 9.086160131820179 ], [ 7.217657292260299, 9.088396825339885 ], [ 7.217883341413881, 9.089372404002745 ], [ 7.218145080591739, 9.091383049368858 ], [ 7.218133445583817, 9.092270211971652 ], [ 7.242225389953148, 9.100153884328279 ], [ 7.24925723973098, 9.102459501894828 ], [ 7.253765976794455, 9.106776534828043 ], [ 7.260241513194273, 9.113467776374421 ], [ 7.271385459766066, 9.126403822163866 ], [ 7.277710403063566, 9.132797325507909 ], [ 7.282378813235539, 9.135622326427381 ], [ 7.288854349635358, 9.137109160437603 ], [ 7.303156367352869, 9.138138846137224 ], [ 7.3235783852287, 9.141363414328168 ], [ 7.32394272347625, 9.141420941367301 ], [ 7.327444151855275, 9.141824969641789 ], [ 7.343518237776891, 9.143679753902006 ], [ 7.350082105236709, 9.140718441889987 ], [ 7.351494746196522, 9.140081124456913 ], [ 7.363181614137204, 9.131926279916115 ], [ 7.375049378200799, 9.123645020289359 ], [ 7.379470221204542, 9.12265939261971 ], [ 7.414551749040811, 9.118576052845242 ], [ 7.436798571156487, 9.117872025366921 ], [ 7.465795497858551, 9.117449607079891 ], [ 7.471499811734361, 9.116041543123174 ], [ 7.479699504305643, 9.112043155406468 ] ] ] ] } }
]
}
