{
"type": "FeatureCollection",
"name": "Gombe",
"crs": { "type": "name", "properties": { "name": "urn:ogc:def:crs:OGC:1.3:CRS84" } },
"features": [
{ "type": "Feature", "properties": { "fid": 5.0, "OBJECTID": 5.0, "lganame": "Shomgom", "statecode": "GO", "LGA_UID": "15_10" }, "geometry": { "type": "MultiPolygon", "coordinates": [ [ [ [ 11.303758065573732, 9.777889773817947 ], [ 11.299723807832663, 9.777406189489341 ], [ 11.297521806336476, 9.777142237310045 ], [ 11.295700130098737, 9.77692387316165 ], [ 11.294546004314554, 9.776736886034598 ], [ 11.293850184841801, 9.776153495638198 ], [ 11.292666230037355, 9.775499568193879 ], [ 11.292412757865122, 9.774948324819377 ], [ 11.303078651112116, 9.764174681499185 ], [ 11.314855576113985, 9.755747072773033 ], [ 11.326077460738702, 9.746147401250482 ], [ 11.334350586359903, 9.738798396257209 ], [ 11.342375607812528, 9.725900548493712 ], [ 11.34693717991189, 9.719369218055988 ], [ 11.350573540382641, 9.711912447989448 ], [ 11.356553078445472, 9.703351326172537 ], [ 11.363075255876993, 9.696542100546026 ], [ 11.363495285162344, 9.695822837057335 ], [ 11.366234316023395, 9.691132442870412 ], [ 11.369321600121054, 9.685925878332796 ], [ 11.373425048909155, 9.68037274555968 ], [ 11.378609657431866, 9.674860345814295 ], [ 11.385687828241146, 9.66922413798477 ], [ 11.393309593419758, 9.665340781346174 ], [ 11.401498794983979, 9.662050610110668 ], [ 11.406788825578303, 9.658692726829145 ], [ 11.412031174140225, 9.657654178123494 ], [ 11.408051501436205, 9.649856764825529 ], [ 11.406463623357354, 9.646504785548018 ], [ 11.403734206502804, 9.63785171466867 ], [ 11.40154838601768, 9.631421089299351 ], [ 11.400522232320441, 9.625016211947525 ], [ 11.393831252774248, 9.61210060117196 ], [ 11.391774178376522, 9.604997635345853 ], [ 11.391125678935907, 9.602757453823756 ], [ 11.388384819073622, 9.59515285465676 ], [ 11.382212638879935, 9.585148810859494 ], [ 11.380015373386982, 9.579297065883509 ], [ 11.376186370785376, 9.568187714335238 ], [ 11.37566757243286, 9.565275192356296 ], [ 11.374652862743403, 9.558291434611192 ], [ 11.374762534817933, 9.553073883066077 ], [ 11.373851776199103, 9.546802520804988 ], [ 11.367914200164819, 9.547694206410881 ], [ 11.353419304316219, 9.547357559182103 ], [ 11.346438407573032, 9.548356055860552 ], [ 11.337729453655697, 9.54873466511782 ], [ 11.329032897746799, 9.548532485980445 ], [ 11.320324897830119, 9.548910141237059 ], [ 11.311049460527897, 9.548694611090582 ], [ 11.298293113860552, 9.548398971889696 ], [ 11.293075562315494, 9.548277854807452 ], [ 11.27801418308195, 9.54781775149479 ], [ 11.274511336701948, 9.548427581909152 ], [ 11.269281387148453, 9.54888629922084 ], [ 11.254666328218207, 9.554347037931166 ], [ 11.244061470012696, 9.562221527281508 ], [ 11.227089882481323, 9.569368362137425 ], [ 11.222452164330207, 9.569261551064869 ], [ 11.210349083106735, 9.565500258509246 ], [ 11.198839188286286, 9.561172484568715 ], [ 11.19194221460009, 9.558113098490026 ], [ 11.182134627936307, 9.555564879758606 ], [ 11.171167374484583, 9.552989960009086 ], [ 11.161859012159994, 9.551125032741936 ], [ 11.161347388812374, 9.551022529672309 ], [ 11.15091228472221, 9.550780295507707 ], [ 11.144423518313374, 9.545753812092471 ], [ 11.133682110015116, 9.539099196570987 ], [ 11.128023617170413, 9.535674949244367 ], [ 11.124823857996319, 9.53333548365481 ], [ 11.114238192803896, 9.525595788396004 ], [ 11.094510776400057, 9.53309658749248 ], [ 11.08357750797137, 9.546691364729497 ], [ 11.076408086100116, 9.551371837909642 ], [ 11.07085609432778, 9.551242827821966 ], [ 11.062135696402663, 9.552200317472568 ], [ 11.035526276322855, 9.5486831670828 ], [ 11.027398108800128, 9.549074173348515 ], [ 11.020428658064702, 9.549492835632975 ], [ 11.008193015751147, 9.552108765410367 ], [ 10.992382050008359, 9.559283257285074 ], [ 10.984711646796654, 9.565485001498871 ], [ 10.979952811563294, 9.571175575365373 ], [ 10.978140831332098, 9.574613570701331 ], [ 10.977499961896683, 9.578269005185007 ], [ 10.975506782542425, 9.589633941906925 ], [ 10.974893570125744, 9.592890739119809 ], [ 10.974320180736186, 9.595936741189405 ], [ 10.969134279212597, 9.615353467382135 ], [ 10.969316446336393, 9.615498373480591 ], [ 10.982221314104606, 9.625763609455362 ], [ 10.988169967146462, 9.630225099486722 ], [ 10.989894508318173, 9.640553669504527 ], [ 10.985020529006533, 9.641828508370679 ], [ 10.964051527759125, 9.662500076416052 ], [ 10.956913144908924, 9.668597444558941 ], [ 10.956489875621344, 9.670925426140684 ], [ 10.956318279504728, 9.67186920278192 ], [ 10.960541398374119, 9.675438420207058 ], [ 10.960065506050796, 9.67924555779382 ], [ 11.019483208422344, 9.698579837930538 ], [ 11.05691776485736, 9.689794119961107 ], [ 11.070584350143122, 9.684522580379337 ], [ 11.08722193144763, 9.685108310777309 ], [ 11.100294316329666, 9.694479865144842 ], [ 11.112772500808035, 9.705022551308105 ], [ 11.128221684305004, 9.723647151962609 ], [ 11.213192186038498, 9.78747830733289 ], [ 11.231717109625265, 9.792212485549555 ], [ 11.233842850069607, 9.801543235889369 ], [ 11.236487388866465, 9.81378459920677 ], [ 11.239796638114967, 9.821982383776799 ], [ 11.241293907132274, 9.833618163682786 ], [ 11.241606712344833, 9.846385956357892 ], [ 11.241835593500298, 9.863212584790801 ], [ 11.24218559273811, 9.874241829284642 ], [ 11.242523192967496, 9.885850906172436 ], [ 11.242812157163826, 9.899778365635484 ], [ 11.238831887459469, 9.918137665109782 ], [ 11.240375766508464, 9.929543516859553 ], [ 11.247498442347933, 9.929777306018366 ], [ 11.256360767369472, 9.926917331075174 ], [ 11.262748409709616, 9.918722982507461 ], [ 11.265809058789159, 9.909592628303812 ], [ 11.273624420099338, 9.896432877362429 ], [ 11.279725075244414, 9.882073401605794 ], [ 11.283493995805259, 9.868239403206246 ], [ 11.287757873702333, 9.858477591573546 ], [ 11.295139312717708, 9.838347434896093 ], [ 11.292602538994061, 9.820887566032923 ], [ 11.291722298395996, 9.807525634954118 ], [ 11.288497925205206, 9.795269965626971 ], [ 11.28827707005513, 9.793748497593185 ], [ 11.290621796648225, 9.792555520782628 ], [ 11.294505078286761, 9.792289020601572 ], [ 11.302272567564387, 9.787551501382609 ], [ 11.303758065573732, 9.777889773817947 ] ] ] ] } },
{ "type": "Feature", "properties": { "fid": 45.0, "OBJECTID": 45.0, "lganame": "Akko", "statecode": "GO", "LGA_UID": "15_01" }, "geometry": { "type": "MultiPolygon", "coordinates": [ [ [ [ 10.837447165737387, 10.395590781516717 ], [ 10.862654276864419, 10.384366310890243 ], [ 10.87287241180718, 10.38447437796367 ], [ 10.88311279076504, 10.374286311041374 ], [ 10.931242936467186, 10.355582214332799 ], [ 10.960952901653741, 10.349736954361219 ], [ 10.985909273610389, 10.346229746978224 ], [ 11.032256820101395, 10.331031392651653 ], [ 11.054242195039421, 10.308232486160875 ], [ 11.095836148300577, 10.302970964585938 ], [ 11.126660949244581, 10.323985927864612 ], [ 11.123951912403925, 10.314071655128316 ], [ 11.122853278657431, 10.311145782140329 ], [ 11.121247291566249, 10.304729461780767 ], [ 11.12140464767316, 10.297190665658491 ], [ 11.122105598149403, 10.291406630728488 ], [ 11.122794150617267, 10.286202431192521 ], [ 11.125814437669419, 10.280471802298791 ], [ 11.133051627586724, 10.280002356979821 ], [ 11.13939051189368, 10.277832288505351 ], [ 11.150112363178721, 10.276219014409207 ], [ 11.153821789699066, 10.276029430280403 ], [ 11.156076565231103, 10.273429565513936 ], [ 11.158350056775816, 10.270808119732806 ], [ 11.16200490925911, 10.267438803443497 ], [ 11.162804407802355, 10.2672103752883 ], [ 11.165773974820013, 10.264868984697443 ], [ 11.168343792566077, 10.263955272076601 ], [ 11.171484681700178, 10.264297914309395 ], [ 11.173826072291035, 10.263669736882605 ], [ 11.175425069377468, 10.263441308727408 ], [ 11.177660389896289, 10.264242140271506 ], [ 11.179089438867265, 10.264792841645715 ], [ 11.178851492705576, 10.265863600373223 ], [ 11.18051711583729, 10.266910563084593 ], [ 11.181682504629123, 10.265767864308145 ], [ 11.183895950133035, 10.268481007151649 ], [ 11.185014296892916, 10.269004487507289 ], [ 11.187417552525801, 10.268671364280976 ], [ 11.189963576255707, 10.269908684121674 ], [ 11.190288769476695, 10.270836672752182 ], [ 11.192875630234312, 10.272874760136972 ], [ 11.194191085128125, 10.274263097080279 ], [ 11.194762155516116, 10.274786579435954 ], [ 11.196166038469983, 10.277356396182029 ], [ 11.196427777647841, 10.277808494489193 ], [ 11.193118067399041, 10.281664760109379 ], [ 11.198706627196202, 10.289704322571879 ], [ 11.20198552542405, 10.29253096549246 ], [ 11.202961626087301, 10.293292324009769 ], [ 11.204364986040787, 10.294386944753512 ], [ 11.206883570752041, 10.295788002705422 ], [ 11.208207970651927, 10.293100469879391 ], [ 11.210193684001126, 10.286152591158611 ], [ 11.210334500096792, 10.28491662231886 ], [ 11.210854379450041, 10.280353530218463 ], [ 11.211134872640628, 10.277891571545638 ], [ 11.211491561882951, 10.274760831418462 ], [ 11.211506729893301, 10.274035566925704 ], [ 11.210674769328023, 10.269371188756452 ], [ 11.209948425834511, 10.265298956989568 ], [ 11.204815751347098, 10.261119002149485 ], [ 11.20027435426141, 10.256373518925159 ], [ 11.196892624963709, 10.25165473771898 ], [ 11.193003541321218, 10.243443602139905 ], [ 11.190793877819885, 10.238172644558517 ], [ 11.190335159508209, 10.232360952609724 ], [ 11.190480118606672, 10.225403898882746 ], [ 11.192908174256445, 10.22023975337396 ], [ 11.197088128096539, 10.214536780499031 ], [ 11.199983801063979, 10.207982508045745 ], [ 11.265762586757603, 10.225022310623501 ], [ 11.278899878683774, 10.210474800739121 ], [ 11.30842036674153, 10.162267101984241 ], [ 11.3002112271638, 10.149774932496427 ], [ 11.28584377940183, 10.131512598088023 ], [ 11.285613944245654, 10.130850573638213 ], [ 11.281651430553325, 10.119436803883104 ], [ 11.288789814403515, 10.103375441970172 ], [ 11.298069711708763, 10.102304685242643 ], [ 11.304016112749082, 10.107693671904201 ], [ 11.30875110596628, 10.10316276582563 ], [ 11.315889358816378, 10.094628334026879 ], [ 11.320069312656472, 10.088924408151343 ], [ 11.32480430587367, 10.084394455073436 ], [ 11.326263672865252, 10.08299810912473 ], [ 11.330722808895018, 10.078731537225792 ], [ 11.363385917088067, 10.071966556629263 ], [ 11.387732756630612, 10.074078160064005 ], [ 11.417178586637647, 10.070508967638943 ], [ 11.43223756086951, 10.062324743078136 ], [ 11.458224289526243, 10.048201521482042 ], [ 11.471837043775508, 10.043142319044591 ], [ 11.492720603964869, 10.043046950979772 ], [ 11.512529373424002, 10.038866043139024 ], [ 11.520151137602625, 10.034982680500491 ], [ 11.53075694980879, 10.027108192150138 ], [ 11.539426803699541, 10.021604538410656 ], [ 11.538511276077486, 10.016846657177894 ], [ 11.533511161680167, 10.006290436005429 ], [ 11.526373862830724, 9.986983298887139 ], [ 11.523185729664533, 9.972988129378109 ], [ 11.522800446402755, 9.963698387066131 ], [ 11.522510529205761, 9.949770926603094 ], [ 11.52329635573966, 9.939928054915356 ], [ 11.523356437780478, 9.93702983894616 ], [ 11.515783309634912, 9.938593864008794 ], [ 11.506495476324289, 9.938958168256363 ], [ 11.500698090385242, 9.93882370016496 ], [ 11.489645957875837, 9.940307617173232 ], [ 11.480320929539914, 9.942411422602675 ], [ 11.458132744464081, 9.949437141376336 ], [ 11.446319580437603, 9.959604263284405 ], [ 11.416943550477924, 9.977483749432679 ], [ 11.409914016701691, 9.980800628686325 ], [ 11.401688576112917, 9.985830307103754 ], [ 11.389368056741716, 9.992505073638938 ], [ 11.373689651088966, 9.993301392180001 ], [ 11.355161667500056, 9.991711617099838 ], [ 11.34247970588325, 9.987936973535113 ], [ 11.33265972121103, 9.985968590197729 ], [ 11.323480605974282, 9.981115340900146 ], [ 11.30797195443688, 9.973794936926311 ], [ 11.299324035561028, 9.971274376213671 ], [ 11.291143417002672, 9.968338013218556 ], [ 11.284721374639219, 9.976156234530663 ], [ 11.278790473609433, 9.982398986772353 ], [ 11.273511887022892, 9.985177039659902 ], [ 11.255937576081976, 9.99346923829404 ], [ 11.237360001459365, 9.994198798789739 ], [ 11.226937491377782, 9.990762890455187 ], [ 11.226660416189475, 9.990671548393152 ], [ 11.224110603457007, 9.989830970822027 ], [ 11.210957526520133, 9.980825423703152 ], [ 11.204385213054536, 9.97452772242417 ], [ 11.204133033883181, 9.974286079259969 ], [ 11.203936122749383, 9.974105933137594 ], [ 11.195026397695699, 9.965954780599247 ], [ 11.187006950246825, 9.961128235319848 ], [ 11.177235602607652, 9.956841469407209 ], [ 11.165097237360214, 9.954819679033506 ], [ 11.151774406307993, 9.953929901428921 ], [ 11.141374588241774, 9.9519491200831 ], [ 11.129816055388289, 9.949940680718441 ], [ 11.119379997297472, 9.949698447553828 ], [ 11.106673240663838, 9.947083472777081 ], [ 11.096878052008492, 9.943955420651719 ], [ 11.084824561818721, 9.937875747520877 ], [ 11.081484852549522, 9.933729804703887 ], [ 11.075778007672, 9.926645278890305 ], [ 11.076121454905376, 9.920747335882936 ], [ 11.07326610196526, 9.910991546254309 ], [ 11.061828613194052, 9.900219916935498 ], [ 11.057395935182228, 9.890255928165459 ], [ 11.055814743107874, 9.882678986017254 ], [ 11.053725242688188, 9.871609688496221 ], [ 11.051672935293709, 9.858800887793223 ], [ 11.050114632234965, 9.850064277857143 ], [ 11.044015884091152, 9.836581229696037 ], [ 11.038894652611475, 9.831822395462609 ], [ 11.03319454173851, 9.827049255219492 ], [ 11.027492522864293, 9.82227706897703 ], [ 11.020077704826235, 9.816304206918744 ], [ 11.013168335131638, 9.813823700233343 ], [ 11.005631447010728, 9.813649178114758 ], [ 10.996343612700059, 9.814013481362281 ], [ 10.982370691206086, 9.807484991926515 ], [ 10.977600751965156, 9.810182375759268 ], [ 10.977317289772543, 9.812673403451754 ], [ 10.970240180964026, 9.811711092797907 ], [ 10.965727857898116, 9.814051618388191 ], [ 10.96123067684249, 9.823402898741961 ], [ 10.959231929484417, 9.828114231943118 ], [ 10.957732869465872, 9.834467393259786 ], [ 10.958089787708388, 9.839035958363922 ], [ 10.958660859096369, 9.842605149788994 ], [ 10.957875636562846, 9.84531773463209 ], [ 10.958303939853863, 9.848530007814645 ], [ 10.959089162387386, 9.852170583288228 ], [ 10.957947019611368, 9.8540979455978 ], [ 10.955020282622797, 9.856168077004384 ], [ 10.952593232973754, 9.860879410205484 ], [ 10.944883779735505, 9.870444842704728 ], [ 10.945526234172064, 9.872657742208332 ], [ 10.945454850123554, 9.875941398439409 ], [ 10.945169314929501, 9.878511216185473 ], [ 10.945419807099711, 9.880443017498067 ], [ 10.943923905083352, 9.881777139404505 ], [ 10.918455830778953, 9.899699884582162 ], [ 10.905368794886954, 9.914452543605933 ], [ 10.894463735477473, 9.926484215780874 ], [ 10.890620001865841, 9.930725048662339 ], [ 10.883547870060625, 9.935212045711012 ], [ 10.877407158888332, 9.939108092358197 ], [ 10.875178337373939, 9.940522194319044 ], [ 10.865881920057461, 9.949856757661394 ], [ 10.863512539447584, 9.951559500818348 ], [ 10.857723235514015, 9.955719947645207 ], [ 10.841357232394103, 9.962840080482977 ], [ 10.824990273273499, 9.969960213320746 ], [ 10.812171935564038, 9.979338645692962 ], [ 10.802899362263759, 9.990977286600867 ], [ 10.794776916744979, 10.000296592932898 ], [ 10.788445473443062, 10.006125449893375 ], [ 10.787178008581861, 10.00673635330844 ], [ 10.775261879485413, 10.012479782210846 ], [ 10.763508797499753, 10.019747734149064 ], [ 10.762917341097875, 10.020123060404046 ], [ 10.751164437112323, 10.027581215471514 ], [ 10.740003585529053, 10.034282684024845 ], [ 10.727671623150059, 10.041537284954018 ], [ 10.724427289945709, 10.044183490752005 ], [ 10.717475891222534, 10.049853324604385 ], [ 10.716940152858513, 10.063492012871222 ], [ 10.715729160035721, 10.064650758658559 ], [ 10.715607742953239, 10.064856165798119 ], [ 10.711544210192244, 10.076210499512854 ], [ 10.712772814027005, 10.07862064215044 ], [ 10.713404414456193, 10.088833198089389 ], [ 10.715902848153746, 10.094543903969509 ], [ 10.721197887751487, 10.09514749437966 ], [ 10.725092187397479, 10.102785971569631 ], [ 10.726056930052948, 10.104678267855377 ], [ 10.726477070338433, 10.105502352415272 ], [ 10.733471073090527, 10.114575988580384 ], [ 10.738388755431856, 10.120955920915264 ], [ 10.749214635787553, 10.119912961206637 ], [ 10.774606144039865, 10.137606862228779 ], [ 10.786741395285219, 10.134751509288719 ], [ 10.800304321500562, 10.134751509288719 ], [ 10.807442705350752, 10.137963781471285 ], [ 10.818640708959265, 10.157336234633988 ], [ 10.817226409998341, 10.169485091888532 ], [ 10.81800763652916, 10.172914241218507 ], [ 10.81800794452937, 10.172915599219436 ], [ 10.819883346803579, 10.181147574812655 ], [ 10.823796272462232, 10.188199042603799 ], [ 10.830290794874998, 10.196922301530833 ], [ 10.835629462502368, 10.204093933403612 ], [ 10.835687489541783, 10.204267755521755 ], [ 10.839326859014534, 10.215169906929248 ], [ 10.851166725059159, 10.224235535088894 ], [ 10.857159615131081, 10.235681533865943 ], [ 10.855280966854593, 10.240824781360516 ], [ 10.862870832011595, 10.268270027008271 ], [ 10.855875216258369, 10.276550550634511 ], [ 10.847309157438133, 10.286401519327796 ], [ 10.830119533758591, 10.303415656888092 ], [ 10.822088853302148, 10.30978071521281 ], [ 10.819189562332213, 10.312951688367377 ], [ 10.822249975411637, 10.320763646675232 ], [ 10.823439705219982, 10.331114302707988 ], [ 10.822190488371177, 10.343011607791652 ], [ 10.828258114493849, 10.350982802207739 ], [ 10.833864212302956, 10.365008353737437 ], [ 10.834029770415441, 10.380737278424476 ], [ 10.834029779415459, 10.380738158425061 ], [ 10.834033966418303, 10.381135940695344 ], [ 10.834842137967371, 10.392004346079943 ], [ 10.834842215967456, 10.392005392080648 ], [ 10.835072517123933, 10.395102501184965 ], [ 10.837447165737387, 10.395590781516717 ] ] ] ] } },
{ "type": "Feature", "properties": { "fid": 52.0, "OBJECTID": 52.0, "lganame": "Funakaye", "statecode": "GO", "LGA_UID": "15_05" }, "geometry": { "type": "MultiPolygon", "coordinates": [ [ [ [ 11.528738976437694, 10.790397643769438 ], [ 11.528509140281528, 10.78250217440484 ], [ 11.528401375208318, 10.778790473882907 ], [ 11.526962280230521, 10.77348327627692 ], [ 11.526517867928533, 10.757863997664344 ], [ 11.522167205972494, 10.749464988957641 ], [ 11.51982688938233, 10.744948386888836 ], [ 11.518564223524436, 10.739901543459723 ], [ 11.516614914199977, 10.73211288516768 ], [ 11.516857147364533, 10.720517159288931 ], [ 11.515468597421091, 10.703663825837907 ], [ 11.515070915150886, 10.694953917919918 ], [ 11.516460419094983, 10.683965683453948 ], [ 11.522719383347635, 10.661479950175931 ], [ 11.500579820304836, 10.662373670783154 ], [ 11.458451948680931, 10.664055075925603 ], [ 11.415474742479944, 10.665789952104376 ], [ 11.376298225861376, 10.648872954610056 ], [ 11.350727005486931, 10.621756803185917 ], [ 11.34539986186735, 10.616169102389335 ], [ 11.330544878774106, 10.564186140069353 ], [ 11.328762280562898, 10.554255808322182 ], [ 11.322226088121909, 10.539651797399415 ], [ 11.314995639209144, 10.529371909414749 ], [ 11.296222405453591, 10.528476912806639 ], [ 11.286425629797179, 10.527672766260253 ], [ 11.26562270266254, 10.528941541122322 ], [ 11.251647559167111, 10.531518205873056 ], [ 11.233215030643066, 10.555424099115953 ], [ 11.21301225391619, 10.565938518259998 ], [ 11.192481714966675, 10.578943845096546 ], [ 11.179737092307334, 10.628141454523984 ], [ 11.181871938757808, 10.656492232787002 ], [ 11.172103149120403, 10.660447059474109 ], [ 11.185976012546348, 10.685120361238489 ], [ 11.190688083748, 10.693455224901641 ], [ 11.195324004897884, 10.70239981497906 ], [ 11.211063332592005, 10.733326238992106 ], [ 11.245492780985217, 10.800977134957691 ], [ 11.256505676467953, 10.799062261656672 ], [ 11.2706056120482, 10.796021460590566 ], [ 11.278062820114997, 10.795022963912118 ], [ 11.284463882464252, 10.794011116224624 ], [ 11.292605399996035, 10.793040275564977 ], [ 11.308898926066718, 10.790517806851085 ], [ 11.317038535597192, 10.789546967191427 ], [ 11.326871872278502, 10.790934563134272 ], [ 11.340121269280814, 10.795302391101984 ], [ 11.343404850511831, 10.807101559118962 ], [ 11.350772922518104, 10.81900799920885 ], [ 11.363132267915717, 10.830213628822548 ], [ 11.363843342398866, 10.83967682025235 ], [ 11.352381785611271, 10.858050053736065 ], [ 11.345223100747262, 10.871978137199562 ], [ 11.34719988609038, 10.886832166292152 ], [ 11.347230911111467, 10.899294852759965 ], [ 11.339459367831068, 10.921049310541093 ], [ 11.344160497025257, 10.920956977478397 ], [ 11.343329085460368, 10.929148651044216 ], [ 11.340239248361002, 10.933582625056943 ], [ 11.337387091423068, 10.935916268642529 ], [ 11.33489145372738, 10.941516939447922 ], [ 11.326810344236662, 10.951551208265698 ], [ 11.325503105348446, 10.958668333101457 ], [ 11.322092640031201, 10.964982316391513 ], [ 11.324397450597246, 10.970444690102966 ], [ 11.324332848553354, 10.975951271844394 ], [ 11.324570180714602, 10.975980924864587 ], [ 11.325306538214932, 10.977372993810434 ], [ 11.325815723560879, 10.979324742136555 ], [ 11.327476847689525, 10.985691956462745 ], [ 11.327429770657545, 10.986422538959175 ], [ 11.326512045034008, 11.000035103208234 ], [ 11.328463786360089, 11.003890967828113 ], [ 11.330968565061994, 11.00883941519038 ], [ 11.34183949844828, 11.016052047091023 ], [ 11.344713873401304, 11.017278470924282 ], [ 11.353289312227901, 11.023278030000711 ], [ 11.361321156685165, 11.027524737886154 ], [ 11.368876952818937, 11.032626718352731 ], [ 11.378472036338337, 11.039523856039011 ], [ 11.380088806436902, 11.047968863776987 ], [ 11.382763115253965, 11.061792062169218 ], [ 11.382763115253965, 11.067332025933354 ], [ 11.380606650788707, 11.078722953672923 ], [ 11.390812873723405, 11.089980125321688 ], [ 11.391127818937377, 11.090157441442159 ], [ 11.39435482012999, 11.091974257676611 ], [ 11.400138855059936, 11.08908748571514 ], [ 11.402456283634535, 11.087930678929183 ], [ 11.407191276851734, 11.083399772850612 ], [ 11.412119865200452, 11.080209731683169 ], [ 11.417252540687912, 11.073772430309305 ], [ 11.420797348096414, 11.070808411295388 ], [ 11.427465438627053, 11.064084052726514 ], [ 11.434853553646974, 11.055908203171384 ], [ 11.443259239358213, 11.050594329560852 ], [ 11.448561667960973, 11.046656608885371 ], [ 11.452182770421359, 11.042204856860621 ], [ 11.456896781624266, 11.036409377922837 ], [ 11.470545768898148, 11.021645545891545 ], [ 11.475329399148393, 11.014795303237122 ], [ 11.482541084048364, 11.002781868074521 ], [ 11.488483429085932, 10.995959282438946 ], [ 11.494970322493486, 10.990889548994289 ], [ 11.504573908018642, 10.979006322920156 ], [ 11.509260178202737, 10.973239899002181 ], [ 11.513120538825717, 10.96833786267149 ], [ 11.514992517097596, 10.965919844028519 ], [ 11.514992677097723, 10.965919567028322 ], [ 11.517026901479881, 10.962398528635958 ], [ 11.519598961227473, 10.956843375861524 ], [ 11.521342140411889, 10.953284115443125 ], [ 11.527306557464442, 10.942336082004488 ], [ 11.528695107407884, 10.938942908698948 ], [ 11.53036212854056, 10.934866904929549 ], [ 11.530697822768616, 10.932335854209782 ], [ 11.531051636009011, 10.929661751392871 ], [ 11.531505585317461, 10.923272133051398 ], [ 11.531873702567566, 10.918080329523832 ], [ 11.531003951976629, 10.904140472052347 ], [ 11.529788017150452, 10.897920608826269 ], [ 11.528904914550424, 10.89340114575549 ], [ 11.527377128512398, 10.891585349521733 ], [ 11.527787208790983, 10.886913300347317 ], [ 11.528128624022997, 10.883029937708727 ], [ 11.528417587219337, 10.879737854471898 ], [ 11.528674126393639, 10.876823425491693 ], [ 11.531390190239051, 10.871069907582466 ], [ 11.536488532703117, 10.863663672550274 ], [ 11.539074898460456, 10.850962638920521 ], [ 11.538146018829309, 10.839920044417568 ], [ 11.536588523771059, 10.837239662596403 ], [ 11.534410477291203, 10.833539963082615 ], [ 11.536439895670071, 10.828774451844708 ], [ 11.536177635491924, 10.823053359957498 ], [ 11.534790992549745, 10.816131592254465 ], [ 11.534076691064399, 10.812563895830351 ], [ 11.532112675729934, 10.806884618971594 ], [ 11.53267765011384, 10.804135323103537 ], [ 11.530296326495829, 10.799135207706229 ], [ 11.528738976437694, 10.790397643769438 ] ] ] ] } },
{ "type": "Feature", "properties": { "fid": 108.0, "OBJECTID": 108.0, "lganame": "Nafada", "statecode": "GO", "LGA_UID": "15_09" }, "geometry": { "type": "MultiPolygon", "coordinates": [ [ [ [ 11.181895937774129, 11.199021082409899 ], [ 11.198166002828884, 11.179928141437131 ], [ 11.200875763670069, 11.175090381150085 ], [ 11.223755760215909, 11.164830540179025 ], [ 11.248563215071442, 11.183573932914271 ], [ 11.275450232339892, 11.172321311268661 ], [ 11.311445165796727, 11.168915585954608 ], [ 11.319381854189373, 11.186231232719763 ], [ 11.341557157256432, 11.163759096451031 ], [ 11.347948991599367, 11.152721287951351 ], [ 11.354876310306167, 11.144151666128664 ], [ 11.357135217841005, 11.134842996803854 ], [ 11.359996501785076, 11.127454952784035 ], [ 11.368013967232571, 11.119207986180641 ], [ 11.36868008868521, 11.11852279571508 ], [ 11.373496453957671, 11.111448805908651 ], [ 11.37503551500339, 11.100763406648412 ], [ 11.377223083489753, 11.097662689541608 ], [ 11.383051494449887, 11.095473889054404 ], [ 11.383025340432141, 11.090150864437703 ], [ 11.390753454683022, 11.090271676519762 ], [ 11.391140169945743, 11.090164394446845 ], [ 11.390812873723405, 11.089980125321688 ], [ 11.380606650788707, 11.078722953672923 ], [ 11.382763115253965, 11.067332025933354 ], [ 11.382763115253965, 11.061792062169218 ], [ 11.380088806436902, 11.047968863776987 ], [ 11.378472036338337, 11.039523856039011 ], [ 11.368876952818937, 11.032626718352731 ], [ 11.361321156685165, 11.027524737886154 ], [ 11.353289312227901, 11.023278030000711 ], [ 11.344713873401304, 11.017278470924282 ], [ 11.34183949844828, 11.016052047091023 ], [ 11.330968565061994, 11.00883941519038 ], [ 11.328463786360089, 11.003890967828113 ], [ 11.326512045034008, 11.000035103208234 ], [ 11.327429770657545, 10.986422538959175 ], [ 11.327476847689525, 10.985691956462745 ], [ 11.325815723560879, 10.979324742136555 ], [ 11.325306538214932, 10.977372993810434 ], [ 11.324570180714602, 10.975980924864587 ], [ 11.324332848553354, 10.975951271844394 ], [ 11.324397450597246, 10.970444690102966 ], [ 11.322092640031201, 10.964982316391513 ], [ 11.325503105348446, 10.958668333101457 ], [ 11.326810344236662, 10.951551208265698 ], [ 11.33489145372738, 10.941516939447922 ], [ 11.337387091423068, 10.935916268642529 ], [ 11.340239248361002, 10.933582625056943 ], [ 11.343329085460368, 10.929148651044216 ], [ 11.344160497025257, 10.920956977478397 ], [ 11.339459367831068, 10.921049310541093 ], [ 11.347230911111467, 10.899294852759965 ], [ 11.34719988609038, 10.886832166292152 ], [ 11.345223100747262, 10.871978137199562 ], [ 11.352381785611271, 10.858050053736065 ], [ 11.363843342398866, 10.83967682025235 ], [ 11.363132267915717, 10.830213628822548 ], [ 11.350772922518104, 10.81900799920885 ], [ 11.343404850511831, 10.807101559118962 ], [ 11.340121269280814, 10.795302391101984 ], [ 11.326871872278502, 10.790934563134272 ], [ 11.317038535597192, 10.789546967191427 ], [ 11.308898926066718, 10.790517806851085 ], [ 11.292605399996035, 10.793040275564977 ], [ 11.284463882464252, 10.794011116224624 ], [ 11.278062820114997, 10.795022963912118 ], [ 11.2706056120482, 10.796021460590566 ], [ 11.256505676467953, 10.799062261656672 ], [ 11.245492780985217, 10.800977134957691 ], [ 11.216505575289773, 10.803465842648677 ], [ 11.205348793709277, 10.812671343903389 ], [ 11.217765848146087, 10.856985301012628 ], [ 11.190016739291821, 10.878284605484509 ], [ 11.159857048799779, 10.896054511558305 ], [ 11.141362000233244, 10.907441945295545 ], [ 11.102326392710381, 10.933055877699019 ], [ 11.107108115959306, 10.954048156962301 ], [ 11.11256694766837, 10.970416069083512 ], [ 11.120948792363436, 10.985692024462821 ], [ 11.121374833652908, 11.005511767929363 ], [ 11.097903960705537, 11.031174586366092 ], [ 11.086911273236524, 11.054210889018179 ], [ 11.07461079887895, 11.062990578983545 ], [ 11.064034599692889, 11.070539325112577 ], [ 11.055441974854602, 11.089604052066136 ], [ 11.028676032668443, 11.098979950436615 ], [ 11.015727042870196, 11.107959746537972 ], [ 11.035930394597415, 11.134337918460687 ], [ 11.020701844250311, 11.157180743981314 ], [ 11.008531704981294, 11.14909315148617 ], [ 10.981715996761295, 11.178820010684205 ], [ 11.077443462803615, 11.286717676995579 ], [ 11.091866403603319, 11.226097375806944 ], [ 11.13378631408591, 11.207773783356913 ], [ 11.165127710380943, 11.201153359858665 ], [ 11.181895937774129, 11.199021082409899 ] ] ] ] } },
{ "type": "Feature", "properties": { "fid": 584.0, "OBJECTID": 584.0, "lganame": "Yamaltu\/Deba", "statecode": "GO", "LGA_UID": "15_11" }, "geometry": { "type": "MultiPolygon", "coordinates": [ [ [ [ 11.572779010360819, 10.572588160778139 ], [ 11.599836274744973, 10.534209644701718 ], [ 11.632366466847714, 10.520814854600587 ], [ 11.637677689456439, 10.518627881114696 ], [ 11.655155550331813, 10.503429740788249 ], [ 11.662756956496594, 10.49681982329713 ], [ 11.662122694065658, 10.495850096638208 ], [ 11.659505287287232, 10.493375457956859 ], [ 11.656840291476499, 10.489711088467061 ], [ 11.661083404359488, 10.486292135144026 ], [ 11.653739051369371, 10.470443796375832 ], [ 11.639759717871073, 10.4624131149194 ], [ 11.638406801951817, 10.462563124021301 ], [ 11.626132323611898, 10.463924097946006 ], [ 11.594529988139584, 10.45270102032049 ], [ 11.592818692976834, 10.445618754508416 ], [ 11.590465664378087, 10.438957071982088 ], [ 11.588469154021539, 10.433206873075108 ], [ 11.58597351732584, 10.427596820263318 ], [ 11.585962987318737, 10.423766426660791 ], [ 11.584319194201839, 10.419512016770113 ], [ 11.583454038613979, 10.414406649301213 ], [ 11.58051251461535, 10.412704841144944 ], [ 11.579387814851202, 10.40981174617923 ], [ 11.579474329909999, 10.406578254982207 ], [ 11.579906907203906, 10.403770196074277 ], [ 11.58077206079173, 10.401387581455367 ], [ 11.581723731438331, 10.398324192373991 ], [ 11.580599029674147, 10.39551605946599 ], [ 11.578090082969425, 10.395175677234704 ], [ 11.577051898264074, 10.393473764078351 ], [ 11.576821026107154, 10.392522584432072 ], [ 11.576478766874629, 10.391980213063505 ], [ 11.575409516148113, 10.391525918754837 ], [ 11.573418250795157, 10.391176166517198 ], [ 11.573094206574979, 10.390278282907161 ], [ 11.572751949342432, 10.389156126144712 ], [ 11.571428396443139, 10.388538164724821 ], [ 11.569937821430358, 10.385135030412528 ], [ 11.568701885590599, 10.384648755082139 ], [ 11.568555527491185, 10.383522331316783 ], [ 11.567448685739123, 10.382070709330492 ], [ 11.565718377563428, 10.381219717752288 ], [ 11.562902802650399, 10.375653176970104 ], [ 11.560880261276168, 10.370537336494124 ], [ 11.552433174536759, 10.368514794119903 ], [ 11.549101929273377, 10.359710788137988 ], [ 11.547912199464974, 10.352810351449477 ], [ 11.544608615220341, 10.343433387078221 ], [ 11.543483915456193, 10.342071632153022 ], [ 11.54426255398522, 10.33858210878202 ], [ 11.54391649175011, 10.334326540890572 ], [ 11.544719356295616, 10.33232154452827 ], [ 11.546165893278442, 10.328709102073788 ], [ 11.546323586385597, 10.327405940188328 ], [ 11.539793529948724, 10.327272346097573 ], [ 11.535099354759268, 10.327155431018127 ], [ 11.534534866375736, 10.32540170582655 ], [ 11.534118926093129, 10.323911031813736 ], [ 11.533732695830679, 10.323151078297371 ], [ 11.533197917467305, 10.322244975681713 ], [ 11.532544298023197, 10.321280414026319 ], [ 11.531890678579146, 10.320257389331232 ], [ 11.531355899215782, 10.319351278715601 ], [ 11.530702279771674, 10.318795920338232 ], [ 11.530345759529439, 10.318035953821891 ], [ 11.530137791388142, 10.316837541007601 ], [ 11.529989241287183, 10.315492976094049 ], [ 11.529632721044948, 10.314616082498219 ], [ 11.529335621843074, 10.313622265822971 ], [ 11.529810981166065, 10.314031485101054 ], [ 11.530702279771674, 10.314353013319476 ], [ 11.533316756548061, 10.314996068756443 ], [ 11.535218194840013, 10.315551435133784 ], [ 11.537089923111751, 10.316165258550825 ], [ 11.538902231343116, 10.316545244808992 ], [ 11.542378296704953, 10.317480593444543 ], [ 11.544776835334631, 10.318124879882305 ], [ 11.54426255398522, 10.314920417705025 ], [ 11.545992862160915, 10.307770492846998 ], [ 11.546334563393032, 10.302827463488427 ], [ 11.546476328489405, 10.300776684095013 ], [ 11.549626509629775, 10.296449445154849 ], [ 11.551475927886372, 10.290110673847948 ], [ 11.55654774333243, 10.296279201039169 ], [ 11.561219575506755, 10.297385787791086 ], [ 11.564247615564113, 10.296704812328358 ], [ 11.567881264033019, 10.293299909014877 ], [ 11.569957634443824, 10.288618106833837 ], [ 11.571860972737056, 10.289980092759265 ], [ 11.575148558970795, 10.292108184205176 ], [ 11.578522660263332, 10.289724720585752 ], [ 11.581464185262007, 10.286660241503569 ], [ 11.586655109788978, 10.285894116983002 ], [ 11.589769664905191, 10.282574223727295 ], [ 11.592624673845023, 10.275338436810898 ], [ 11.594528013138245, 10.270486110514014 ], [ 11.595047106490938, 10.263931095060173 ], [ 11.595479682784855, 10.260440706688598 ], [ 11.59720999096055, 10.257035413374865 ], [ 11.599459392488882, 10.254907085928778 ], [ 11.603958193545623, 10.252523343309122 ], [ 11.608543510661093, 10.250905792210062 ], [ 11.61237626826528, 10.249090867976918 ], [ 11.614106576440975, 10.244834092084659 ], [ 11.613154906794364, 10.241002945481569 ], [ 11.613933545323391, 10.237086613820622 ], [ 11.615750368557826, 10.234191902853809 ], [ 11.617913255027418, 10.231637725118333 ], [ 11.617913255027418, 10.230020068019201 ], [ 11.616702039204426, 10.228572683035793 ], [ 11.614020061382178, 10.228487542977916 ], [ 11.611770659853789, 10.227976699630858 ], [ 11.609953835619365, 10.224145349027651 ], [ 11.611943690971373, 10.219973382192961 ], [ 11.616442493028103, 10.216737940994619 ], [ 11.621200841261157, 10.212736166275647 ], [ 11.623104179554389, 10.209670942192929 ], [ 11.628554652257719, 10.208478903383025 ], [ 11.630804052786118, 10.208053173093731 ], [ 11.633745576784747, 10.208138319151601 ], [ 11.63660058572458, 10.206265102878831 ], [ 11.638417409959004, 10.20413643643252 ], [ 11.639542109723209, 10.203114669738284 ], [ 11.642310603604244, 10.203795848201082 ], [ 11.64629031330827, 10.203370111911852 ], [ 11.648107136542762, 10.20115627740762 ], [ 11.65087397942267, 10.200636872054702 ], [ 11.654682309010241, 10.200219649771213 ], [ 11.656499133244722, 10.200900834234062 ], [ 11.65853147562558, 10.200110048696786 ], [ 11.660219295772379, 10.199453317250573 ], [ 11.667270189563112, 10.198048907296311 ], [ 11.671048458130315, 10.197296343785013 ], [ 11.678227499008131, 10.195866409813391 ], [ 11.694779526254422, 10.192569545573349 ], [ 11.692999072044699, 10.188888089071952 ], [ 11.697742038267336, 10.185343111663315 ], [ 11.7040592635596, 10.178750762184166 ], [ 11.70922055806642, 10.174835411523816 ], [ 11.715699130468352, 10.167101744269189 ], [ 11.725246819955544, 10.16051427979329 ], [ 11.727540060513661, 10.154042244395839 ], [ 11.725790724325066, 10.150159353757601 ], [ 11.727527730505301, 10.146161859041513 ], [ 11.731401077137036, 10.143145597992088 ], [ 11.736041026289683, 10.117804337773919 ], [ 11.750107209846988, 10.104112920471209 ], [ 11.75166106190278, 10.101901668968765 ], [ 11.749792756633326, 10.100108411750341 ], [ 11.747294322935772, 10.098752119828816 ], [ 11.744211840841388, 10.094323017819477 ], [ 11.735533010944494, 10.095933522913697 ], [ 11.719917798334734, 10.080913174708087 ], [ 11.714266578494971, 10.082697770920618 ], [ 11.70519488333116, 10.078831147293442 ], [ 11.689053535363882, 10.085305213692266 ], [ 11.686024153305596, 10.082991983120564 ], [ 11.68174440039769, 10.079723942900046 ], [ 11.679034851556651, 10.074950079656446 ], [ 11.673900969068427, 10.071861071557635 ], [ 11.667626224805019, 10.074669262465648 ], [ 11.659925400572718, 10.077196613182878 ], [ 11.651281856699825, 10.077846193624225 ], [ 11.646500108450823, 10.076511481717375 ], [ 11.635054972674425, 10.071766776493575 ], [ 11.625416965125851, 10.067466826571945 ], [ 11.624362808409558, 10.071025409989829 ], [ 11.621566134509351, 10.071307319181358 ], [ 11.616134905819138, 10.069219163762568 ], [ 11.609817759526891, 10.065780333426062 ], [ 11.605665669705786, 10.067346361490081 ], [ 11.597635437249608, 10.067195972387879 ], [ 11.591233295899656, 10.064981195883092 ], [ 11.586042371372628, 10.060551599873349 ], [ 11.585350247902397, 10.056292314979373 ], [ 11.579986292257843, 10.052458911374742 ], [ 11.579294167787566, 10.049818094580473 ], [ 11.580796241808173, 10.047410964944902 ], [ 11.581976145609815, 10.044877155223332 ], [ 11.577535718592799, 10.037999546550282 ], [ 11.568605852525366, 10.035847941088377 ], [ 11.558945215961387, 10.03554335588143 ], [ 11.55204181127084, 10.03363197658274 ], [ 11.550440230182687, 10.030276088302571 ], [ 11.549186802331008, 10.0255386140837 ], [ 11.545915604108416, 10.023399352630179 ], [ 11.539426803699541, 10.021604538410656 ], [ 11.53075694980879, 10.027108192150138 ], [ 11.520151137602625, 10.034982680500491 ], [ 11.512529373424002, 10.038866043139024 ], [ 11.492720603964869, 10.043046950979772 ], [ 11.471837043775508, 10.043142319044591 ], [ 11.458224289526243, 10.048201521482042 ], [ 11.43223756086951, 10.062324743078136 ], [ 11.417178586637647, 10.070508967638943 ], [ 11.387732756630612, 10.074078160064005 ], [ 11.363385917088067, 10.071966556629263 ], [ 11.330722808895018, 10.078731537225792 ], [ 11.326263672865252, 10.08299810912473 ], [ 11.32480430587367, 10.084394455073436 ], [ 11.320069312656472, 10.088924408151343 ], [ 11.315889358816378, 10.094628334026879 ], [ 11.30875110596628, 10.10316276582563 ], [ 11.304016112749082, 10.107693671904201 ], [ 11.298069711708763, 10.102304685242643 ], [ 11.288789814403515, 10.103375441970172 ], [ 11.281651430553325, 10.119436803883104 ], [ 11.285613944245654, 10.130850573638213 ], [ 11.28584377940183, 10.131512598088023 ], [ 11.3002112271638, 10.149774932496427 ], [ 11.30842036674153, 10.162267101984241 ], [ 11.278899878683774, 10.210474800739121 ], [ 11.265762586757603, 10.225022310623501 ], [ 11.199983801063979, 10.207982508045745 ], [ 11.197088128096539, 10.214536780499031 ], [ 11.192908174256445, 10.22023975337396 ], [ 11.190480118606672, 10.225403898882746 ], [ 11.190335159508209, 10.232360952609724 ], [ 11.190793877819885, 10.238172644558517 ], [ 11.193003541321218, 10.243443602139905 ], [ 11.196892624963709, 10.25165473771898 ], [ 11.20027435426141, 10.256373518925159 ], [ 11.204815751347098, 10.261119002149485 ], [ 11.209948425834511, 10.265298956989568 ], [ 11.210674769328023, 10.269371188756452 ], [ 11.211506729893301, 10.274035566925704 ], [ 11.211491561882951, 10.274760831418462 ], [ 11.211134872640628, 10.277891571545638 ], [ 11.210854379450041, 10.280353530218463 ], [ 11.210334500096792, 10.28491662231886 ], [ 11.210193684001126, 10.286152591158611 ], [ 11.208207970651927, 10.293100469879391 ], [ 11.206883570752041, 10.295788002705422 ], [ 11.205938140109708, 10.297706516008986 ], [ 11.20396888777168, 10.301702612724171 ], [ 11.200972443735736, 10.306273573829912 ], [ 11.197912102656346, 10.312856788302895 ], [ 11.197744381542407, 10.312875192315403 ], [ 11.1976146704543, 10.313154220504998 ], [ 11.186227797717436, 10.331757545145081 ], [ 11.169697196485686, 10.335369725599378 ], [ 11.161920938202059, 10.347795589042164 ], [ 11.163283340127748, 10.348026940199361 ], [ 11.187143224339422, 10.352078611952265 ], [ 11.22070620514387, 10.34531844835908 ], [ 11.248383389949254, 10.33974378457134 ], [ 11.273933960309648, 10.34032833496849 ], [ 11.283313750682794, 10.349091529922703 ], [ 11.290211157369242, 10.356610294031327 ], [ 11.293949268909103, 10.360311709546295 ], [ 11.304251811909182, 10.366930198043235 ], [ 11.315148321312847, 10.371026990826806 ], [ 11.315572269600921, 10.370686323595351 ], [ 11.315924643840333, 10.370729445624647 ], [ 11.322153073072286, 10.377680648347621 ], [ 11.325313946219921, 10.381531268963954 ], [ 11.330072868453385, 10.381055376640631 ], [ 11.351698374146906, 10.395093305178705 ], [ 11.399471999606874, 10.390067022763617 ], [ 11.406293869242006, 10.404149055331686 ], [ 11.414314269691488, 10.408974647610421 ], [ 11.420546531925993, 10.416080475438548 ], [ 11.428457260300945, 10.426124573262996 ], [ 11.434677123527081, 10.433809280484411 ], [ 11.439182280588113, 10.440294265890657 ], [ 11.448833466145629, 10.450379371742997 ], [ 11.455656051781261, 10.456917763185515 ], [ 11.433625992812892, 10.456049674595704 ], [ 11.407044689752126, 10.464796758538967 ], [ 11.414603219887795, 10.496617867159898 ], [ 11.425013361961021, 10.512976661274934 ], [ 11.454732771153942, 10.497103383489787 ], [ 11.480042458350681, 10.483585358304936 ], [ 11.490923881744095, 10.490218162811573 ], [ 11.492968559133374, 10.493533134063966 ], [ 11.497095107937184, 10.50022220560885 ], [ 11.50551319065687, 10.513758658806239 ], [ 11.509450912332341, 10.519650458809451 ], [ 11.510863304292002, 10.535344124472545 ], [ 11.5131454468426, 10.537137031690747 ], [ 11.516515732132575, 10.542435646290926 ], [ 11.518121719223757, 10.548853873651808 ], [ 11.518515332491177, 10.551310295320832 ], [ 11.521873473772871, 10.568999290339661 ], [ 11.527589797656844, 10.567634583412428 ], [ 11.532735825153338, 10.571234702858533 ], [ 11.537276268238372, 10.575980186082859 ], [ 11.544994354482469, 10.582441330472932 ], [ 11.551528930922416, 10.587911606189721 ], [ 11.561311721569325, 10.591618537708371 ], [ 11.572895050439683, 10.592467308285109 ], [ 11.583307265514293, 10.593869209237596 ], [ 11.575642276306269, 10.57980828368386 ], [ 11.572779010360819, 10.572588160778139 ] ] ] ] } },
{ "type": "Feature", "properties": { "fid": 606.0, "OBJECTID": 606.0, "lganame": "Balanga", "statecode": "GO", "LGA_UID": "15_02" }, "geometry": { "type": "MultiPolygon", "coordinates": [ [ [ [ 11.747422274022711, 10.089640542637937 ], [ 11.748318723631826, 10.08921463934854 ], [ 11.74975020760445, 10.089610580617602 ], [ 11.751042862482734, 10.090736998382908 ], [ 11.751097366519787, 10.090613644299083 ], [ 11.752356957375582, 10.087762995362255 ], [ 11.762382323187353, 10.064517522567996 ], [ 11.762913556548312, 10.052950743708948 ], [ 11.770361930609113, 10.049669850479745 ], [ 11.780409181435743, 10.043637338380904 ], [ 11.785120513636912, 10.045778852835952 ], [ 11.789927024902681, 10.039306719438457 ], [ 11.801762402944291, 10.035845017086388 ], [ 11.813540734947082, 10.035250151682192 ], [ 11.824248310222401, 10.035131178601375 ], [ 11.831981558476741, 10.034536314197226 ], [ 11.844473727964612, 10.032394798742132 ], [ 11.844949141287657, 10.032367632723663 ], [ 11.849372432293023, 10.022516951030582 ], [ 11.849397979310424, 10.02250997802588 ], [ 11.849429653331924, 10.02250133102001 ], [ 11.849638939474119, 10.022083281735945 ], [ 11.851922035025382, 10.015213013067921 ], [ 11.854205131576634, 10.008342743399908 ], [ 11.855346680352284, 10.004907608065878 ], [ 11.852990149751122, 9.995759009849849 ], [ 11.85062694514545, 9.985466956856897 ], [ 11.850605965131194, 9.980891227747861 ], [ 11.850584984116949, 9.976313590637574 ], [ 11.851694106870525, 9.966013907639422 ], [ 11.852820395635774, 9.959146499973372 ], [ 11.853945732400405, 9.952279091307275 ], [ 11.854986191107344, 9.927104950202647 ], [ 11.853808403307085, 9.922531128094931 ], [ 11.85262393950228, 9.916812897209695 ], [ 11.85144042969813, 9.911094666324402 ], [ 11.850267409901164, 9.907665252994263 ], [ 11.847920418306501, 9.900805473333378 ], [ 11.846747397509489, 9.897376060003239 ], [ 11.844410895921897, 9.892804145896832 ], [ 11.843243599128812, 9.890518188343663 ], [ 11.83973884574749, 9.883661269684694 ], [ 11.836197853341559, 9.868795394584026 ], [ 11.836172104324021, 9.863074302696816 ], [ 11.836150169309121, 9.858498572587848 ], [ 11.837286949081545, 9.853919029476231 ], [ 11.840700150400664, 9.841324805919044 ], [ 11.848738669862428, 9.827576636577817 ], [ 11.849880218638077, 9.824141502243833 ], [ 11.853325843979235, 9.818412781351412 ], [ 11.854462623751601, 9.81383419024047 ], [ 11.857860565060321, 9.797807693351217 ], [ 11.857850075053193, 9.795519828796728 ], [ 11.856681824259454, 9.793233871243501 ], [ 11.853193282889151, 9.789809226916645 ], [ 11.850863457306104, 9.786381720587826 ], [ 11.847374915935859, 9.782958031261558 ], [ 11.840398788195898, 9.7761087416078 ], [ 11.835753441039571, 9.772686958282861 ], [ 11.817163230408426, 9.740880339671776 ], [ 11.79615946513735, 9.730939121917174 ], [ 11.776087386499285, 9.707141012747456 ], [ 11.765813034518374, 9.712196990182804 ], [ 11.75658798225038, 9.718674659584053 ], [ 11.755633353601752, 9.716805458314013 ], [ 11.749809264644568, 9.708809852881359 ], [ 11.74632167827491, 9.705385207554514 ], [ 11.738192557751574, 9.69968318868024 ], [ 11.735877991178938, 9.699688910684131 ], [ 11.731227875019385, 9.695122718581615 ], [ 11.726576804859178, 9.690556526479099 ], [ 11.724423409396081, 9.689045906452691 ], [ 11.718504906374733, 9.684776305551736 ], [ 11.716515541023057, 9.683506965689276 ], [ 11.711619376696319, 9.680097580372717 ], [ 11.706865311466174, 9.676787376123627 ], [ 11.700855255382635, 9.673814774103846 ], [ 11.699039459148878, 9.671813964744388 ], [ 11.696383476344238, 9.668886184755138 ], [ 11.688261031825448, 9.664328574658441 ], [ 11.683626174676249, 9.663194655887992 ], [ 11.677817344729419, 9.65863132478745 ], [ 11.672015189787146, 9.655212402464429 ], [ 11.663881302260563, 9.648365973812588 ], [ 11.660382270883133, 9.642653464931243 ], [ 11.654569625933675, 9.636945724053078 ], [ 11.645288466627562, 9.63239002195769 ], [ 11.636013985326031, 9.628978728639879 ], [ 11.632525443955728, 9.625554085313013 ], [ 11.624403000436871, 9.620996475216316 ], [ 11.615117073127522, 9.615296364343351 ], [ 11.608161926401863, 9.613024711799881 ], [ 11.598887444100285, 9.609613419482059 ], [ 11.588470459022403, 9.609637260498289 ], [ 11.583835601873261, 9.60850334172784 ], [ 11.578042983937451, 9.607372283959307 ], [ 11.571093559215626, 9.606244087192749 ], [ 11.56298637370719, 9.605118752428154 ], [ 11.545625686911421, 9.605158806455336 ], [ 11.527322769475461, 9.608237266547007 ], [ 11.515543938472263, 9.607515335056519 ], [ 11.506284714181049, 9.607536316070764 ], [ 11.501655579035798, 9.607546806077892 ], [ 11.491222381946898, 9.604138373761998 ], [ 11.484278679229021, 9.604154586773063 ], [ 11.473844528139466, 9.600746155457159 ], [ 11.468048096201073, 9.598470687911117 ], [ 11.461077690465004, 9.592765808034926 ], [ 11.452939033935195, 9.584775924606163 ], [ 11.447883605500238, 9.579132079771398 ], [ 11.444465637177927, 9.576152801747128 ], [ 11.442859650086746, 9.569734573386256 ], [ 11.441893578430324, 9.560431480065233 ], [ 11.433946609030727, 9.552126884422648 ], [ 11.429598808076605, 9.549625396723002 ], [ 11.427641868746946, 9.548500060958418 ], [ 11.420153617659025, 9.546006203263971 ], [ 11.405684470827907, 9.544509888247262 ], [ 11.393471717529962, 9.545967102237398 ], [ 11.381297112257869, 9.545684814045558 ], [ 11.373851776199103, 9.546802520804988 ], [ 11.374762534817933, 9.553073883066077 ], [ 11.374652862743403, 9.558291434611192 ], [ 11.37566757243286, 9.565275192356296 ], [ 11.376186370785376, 9.568187714335238 ], [ 11.380015373386982, 9.579297065883509 ], [ 11.382212638879935, 9.585148810859494 ], [ 11.388384819073622, 9.59515285465676 ], [ 11.391125678935907, 9.602757453823756 ], [ 11.391774178376522, 9.604997635345853 ], [ 11.393831252774248, 9.61210060117196 ], [ 11.400522232320441, 9.625016211947525 ], [ 11.40154838601768, 9.631421089299351 ], [ 11.403734206502804, 9.63785171466867 ], [ 11.406463623357354, 9.646504785548018 ], [ 11.408051501436205, 9.649856764825529 ], [ 11.412031174140225, 9.657654178123494 ], [ 11.414265632658442, 9.661297797599161 ], [ 11.41706752756221, 9.666003226796306 ], [ 11.418734549694875, 9.669522285187327 ], [ 11.424398421543174, 9.676033973611709 ], [ 11.426656723077599, 9.678986548617843 ], [ 11.432321547926563, 9.685499191042879 ], [ 11.436270713609872, 9.690811156652103 ], [ 11.446573256609952, 9.697430611149741 ], [ 11.454642296092459, 9.699937819853233 ], [ 11.458712577858023, 9.699452399523409 ], [ 11.46743297578314, 9.698493957872188 ], [ 11.488328933980938, 9.697818756413426 ], [ 11.496433258487457, 9.698587417935698 ], [ 11.504538535994641, 9.699355125457316 ], [ 11.520082473555988, 9.704936028249278 ], [ 11.527559279636137, 9.708009720337714 ], [ 11.536750792881321, 9.712283134241318 ], [ 11.548213004669378, 9.718930243757711 ], [ 11.556208611102022, 9.724915503824434 ], [ 11.566921234380743, 9.739665030846027 ], [ 11.568479538439533, 9.748402595782807 ], [ 11.569891930399194, 9.764096260445911 ], [ 11.567986926104822, 9.776850937112101 ], [ 11.568462286427803, 9.787156801114463 ], [ 11.565134770166935, 9.797930771434835 ], [ 11.569888364396775, 9.823224802620985 ], [ 11.569888364396775, 9.841959878350565 ], [ 11.57421112133386, 9.862804412513469 ], [ 11.565912246695177, 9.871312141294027 ], [ 11.555343627514276, 9.877447128462506 ], [ 11.535896301300738, 9.892077446403107 ], [ 11.52700614926033, 9.901151656568572 ], [ 11.523986816208833, 9.906882286462292 ], [ 11.523817062093485, 9.914999007977201 ], [ 11.52363491096969, 9.923694610885491 ], [ 11.52347755386279, 9.931232452007066 ], [ 11.523356437780478, 9.93702983894616 ], [ 11.52329635573966, 9.939928054915356 ], [ 11.522510529205761, 9.949770926603094 ], [ 11.522800446402755, 9.963698387066131 ], [ 11.523185729664533, 9.972988129378109 ], [ 11.526373862830724, 9.986983298887139 ], [ 11.533511161680167, 10.006290436005429 ], [ 11.538511276077486, 10.016846657177894 ], [ 11.539426803699541, 10.021604538410656 ], [ 11.545915604108416, 10.023399352630179 ], [ 11.549186802331008, 10.0255386140837 ], [ 11.550440230182687, 10.030276088302571 ], [ 11.55204181127084, 10.03363197658274 ], [ 11.558945215961387, 10.03554335588143 ], [ 11.568605852525366, 10.035847941088377 ], [ 11.577535718592799, 10.037999546550282 ], [ 11.581976145609815, 10.044877155223332 ], [ 11.580796241808173, 10.047410964944902 ], [ 11.579294167787566, 10.049818094580473 ], [ 11.579986292257843, 10.052458911374742 ], [ 11.585350247902397, 10.056292314979373 ], [ 11.586042371372628, 10.060551599873349 ], [ 11.591233295899656, 10.064981195883092 ], [ 11.597635437249608, 10.067195972387879 ], [ 11.605665669705786, 10.067346361490081 ], [ 11.609817759526891, 10.065780333426062 ], [ 11.616134905819138, 10.069219163762568 ], [ 11.621566134509351, 10.071307319181358 ], [ 11.624362808409558, 10.071025409989829 ], [ 11.625416965125851, 10.067466826571945 ], [ 11.635054972674425, 10.071766776493575 ], [ 11.646500108450823, 10.076511481717375 ], [ 11.651281856699825, 10.077846193624225 ], [ 11.659925400572718, 10.077196613182878 ], [ 11.667626224805019, 10.074669262465648 ], [ 11.673900969068427, 10.071861071557635 ], [ 11.679034851556651, 10.074950079656446 ], [ 11.68174440039769, 10.079723942900046 ], [ 11.686024153305596, 10.082991983120564 ], [ 11.689053535363882, 10.085305213692266 ], [ 11.70519488333116, 10.078831147293442 ], [ 11.714266578494971, 10.082697770920618 ], [ 11.719917798334734, 10.080913174708087 ], [ 11.735533010944494, 10.095933522913697 ], [ 11.744211840841388, 10.094323017819477 ], [ 11.745686218843161, 10.091308068770957 ], [ 11.747422274022711, 10.089640542637937 ] ] ] ] } },
{ "type": "Feature", "properties": { "fid": 661.0, "OBJECTID": 661.0, "lganame": "Kwami", "statecode": "GO", "LGA_UID": "15_08" }, "geometry": { "type": "MultiPolygon", "coordinates": [ [ [ [ 11.181871938757808, 10.656492232787002 ], [ 11.179737092307334, 10.628141454523984 ], [ 11.192481714966675, 10.578943845096546 ], [ 11.21301225391619, 10.565938518259998 ], [ 11.233215030643066, 10.555424099115953 ], [ 11.251647559167111, 10.531518205873056 ], [ 11.26562270266254, 10.528941541122322 ], [ 11.286425629797179, 10.527672766260253 ], [ 11.296222405453591, 10.528476912806639 ], [ 11.314995639209144, 10.529371909414749 ], [ 11.322226088121909, 10.539651797399415 ], [ 11.328762280562898, 10.554255808322182 ], [ 11.330544878774106, 10.564186140069353 ], [ 11.34539986186735, 10.616169102389335 ], [ 11.350727005486931, 10.621756803185917 ], [ 11.376298225861376, 10.648872954610056 ], [ 11.415474742479944, 10.665789952104376 ], [ 11.458451948680931, 10.664055075925603 ], [ 11.500579820304836, 10.662373670783154 ], [ 11.522719383347635, 10.661479950175931 ], [ 11.524185181343569, 10.660006523174786 ], [ 11.521450996485839, 10.639417648185656 ], [ 11.51342010502924, 10.607329369383137 ], [ 11.51239776633463, 10.599837303292645 ], [ 11.513373374997457, 10.594977378990563 ], [ 11.512721061554259, 10.585270882395434 ], [ 11.516513824131266, 10.570278168208631 ], [ 11.521873473772871, 10.568999290339661 ], [ 11.518515332491177, 10.551310295320832 ], [ 11.518121719223757, 10.548853873651808 ], [ 11.516515732132575, 10.542435646290926 ], [ 11.5131454468426, 10.537137031690747 ], [ 11.510863304292002, 10.535344124472545 ], [ 11.509450912332341, 10.519650458809451 ], [ 11.50551319065687, 10.513758658806239 ], [ 11.497095107937184, 10.50022220560885 ], [ 11.492968559133374, 10.493533134063966 ], [ 11.490923881744095, 10.490218162811573 ], [ 11.480042458350681, 10.483585358304936 ], [ 11.454732771153942, 10.497103383489787 ], [ 11.425013361961021, 10.512976661274934 ], [ 11.414603219887795, 10.496617867159898 ], [ 11.407044689752126, 10.464796758538967 ], [ 11.433625992812892, 10.456049674595704 ], [ 11.455656051781261, 10.456917763185515 ], [ 11.448833466145629, 10.450379371742997 ], [ 11.439182280588113, 10.440294265890657 ], [ 11.434677123527081, 10.433809280484411 ], [ 11.428457260300945, 10.426124573262996 ], [ 11.420546531925993, 10.416080475438548 ], [ 11.414314269691488, 10.408974647610421 ], [ 11.406293869242006, 10.404149055331686 ], [ 11.399471999606874, 10.390067022763617 ], [ 11.351698374146906, 10.395093305178705 ], [ 11.330072868453385, 10.381055376640631 ], [ 11.325313946219921, 10.381531268963954 ], [ 11.322153073072286, 10.377680648347621 ], [ 11.315924643840333, 10.370729445624647 ], [ 11.315572269600921, 10.370686323595351 ], [ 11.315148321312847, 10.371026990826806 ], [ 11.304251811909182, 10.366930198043235 ], [ 11.293949268909103, 10.360311709546295 ], [ 11.290211157369242, 10.356610294031327 ], [ 11.283313750682794, 10.349091529922703 ], [ 11.273933960309648, 10.34032833496849 ], [ 11.248383389949254, 10.33974378457134 ], [ 11.22070620514387, 10.34531844835908 ], [ 11.187143224339422, 10.352078611952265 ], [ 11.163283340127748, 10.348026940199361 ], [ 11.161920938202059, 10.347795589042164 ], [ 11.169697196485686, 10.335369725599378 ], [ 11.186227797717436, 10.331757545145081 ], [ 11.1976146704543, 10.313154220504998 ], [ 11.197744381542407, 10.312875192315403 ], [ 11.197912102656346, 10.312856788302895 ], [ 11.200972443735736, 10.306273573829912 ], [ 11.20396888777168, 10.301702612724171 ], [ 11.205938140109708, 10.297706516008986 ], [ 11.206883570752041, 10.295788002705422 ], [ 11.204364986040787, 10.294386944753512 ], [ 11.202961626087301, 10.293292324009769 ], [ 11.20198552542405, 10.29253096549246 ], [ 11.198706627196202, 10.289704322571879 ], [ 11.192751884150255, 10.297106742601443 ], [ 11.183209418666593, 10.309645653121038 ], [ 11.181228819320893, 10.312137476814144 ], [ 11.180616970905135, 10.313011788408176 ], [ 11.179767767328144, 10.312760103237167 ], [ 11.179643559243743, 10.312692843191485 ], [ 11.179595970211437, 10.312121772803494 ], [ 11.179555995184273, 10.311756286555124 ], [ 11.179356120048453, 10.311362249287413 ], [ 11.179247616974749, 10.31133369526799 ], [ 11.178413853408244, 10.311636363473667 ], [ 11.178076922179287, 10.310928234992502 ], [ 11.177769018970082, 10.310711100844969 ], [ 11.176506953112607, 10.310876711957519 ], [ 11.175775982615903, 10.310882421961367 ], [ 11.173611625145327, 10.311670500496859 ], [ 11.172266183231159, 10.31217799084169 ], [ 11.169900046623525, 10.31300604440429 ], [ 11.168691280802193, 10.313424828688824 ], [ 11.167630041081111, 10.313786506934605 ], [ 11.166852432552787, 10.314365192327784 ], [ 11.166261613151335, 10.314601234488123 ], [ 11.164957668265401, 10.314996224756555 ], [ 11.164102965684663, 10.315293815958739 ], [ 11.163212096079349, 10.315746866266579 ], [ 11.162168940370577, 10.315912476379083 ], [ 11.160993168571679, 10.316341254670419 ], [ 11.160098491963822, 10.316978950103703 ], [ 11.1584409388376, 10.318856647379505 ], [ 11.147082329119939, 10.317508698463655 ], [ 11.137793540808616, 10.317873000711188 ], [ 11.126660949244581, 10.323985927864612 ], [ 11.095836148300577, 10.302970964585938 ], [ 11.054242195039421, 10.308232486160875 ], [ 11.032256820101395, 10.331031392651653 ], [ 10.985909273610389, 10.346229746978224 ], [ 10.960952901653741, 10.349736954361219 ], [ 10.931242936467186, 10.355582214332799 ], [ 10.88311279076504, 10.374286311041374 ], [ 10.87287241180718, 10.38447437796367 ], [ 10.913360406316883, 10.446667253220824 ], [ 10.911634359144102, 10.504599344582914 ], [ 10.921735747007517, 10.530304866048652 ], [ 10.930541038990327, 10.54856205045354 ], [ 10.923955916516036, 10.586112021966983 ], [ 10.92313384995748, 10.597693442835975 ], [ 10.926406860181316, 10.607630729587925 ], [ 10.9313583365456, 10.620506287336241 ], [ 10.970848019377001, 10.614879061512795 ], [ 10.991311384280891, 10.638673671680124 ], [ 10.997022090161067, 10.648191516147051 ], [ 10.996145247565266, 10.656811714004107 ], [ 11.039483070011272, 10.66477775641664 ], [ 11.057589755313927, 10.665179757689771 ], [ 11.077771187026258, 10.664505959231974 ], [ 11.085356712180271, 10.662362098775304 ], [ 11.092273711880068, 10.662887573132366 ], [ 11.136774063115922, 10.672256470498098 ], [ 11.146666526837407, 10.670744896471035 ], [ 11.172103149120403, 10.660447059474109 ], [ 11.181871938757808, 10.656492232787002 ] ] ] ] } },
{ "type": "Feature", "properties": { "fid": 662.0, "OBJECTID": 662.0, "lganame": "Dukku", "statecode": "GO", "LGA_UID": "15_04" }, "geometry": { "type": "MultiPolygon", "coordinates": [ [ [ [ 11.028676032668443, 11.098979950436615 ], [ 11.055441974854602, 11.089604052066136 ], [ 11.064034599692889, 11.070539325112577 ], [ 11.07461079887895, 11.062990578983545 ], [ 11.086911273236524, 11.054210889018179 ], [ 11.097903960705537, 11.031174586366092 ], [ 11.121374833652908, 11.005511767929363 ], [ 11.120948792363436, 10.985692024462821 ], [ 11.11256694766837, 10.970416069083512 ], [ 11.107108115959306, 10.954048156962301 ], [ 11.102326392710381, 10.933055877699019 ], [ 11.141362000233244, 10.907441945295545 ], [ 11.159857048799779, 10.896054511558305 ], [ 11.190016739291821, 10.878284605484509 ], [ 11.217765848146087, 10.856985301012628 ], [ 11.205348793709277, 10.812671343903389 ], [ 11.216505575289773, 10.803465842648677 ], [ 11.245492780985217, 10.800977134957691 ], [ 11.211063332592005, 10.733326238992106 ], [ 11.195324004897884, 10.70239981497906 ], [ 11.192187526766816, 10.696236906791682 ], [ 11.191381886219403, 10.694682445735452 ], [ 11.190688083748, 10.693455224901641 ], [ 11.185976012546348, 10.685120361238489 ], [ 11.172103149120403, 10.660447059474109 ], [ 11.146666526837407, 10.670744896471035 ], [ 11.136774063115922, 10.672256470498098 ], [ 11.092273711880068, 10.662887573132366 ], [ 11.085356712180271, 10.662362098775304 ], [ 11.077771187026258, 10.664505959231974 ], [ 11.057589755313927, 10.665179757689771 ], [ 11.039483070011272, 10.66477775641664 ], [ 10.996145247565266, 10.656811714004107 ], [ 10.997022090161067, 10.648191516147051 ], [ 10.991311384280891, 10.638673671680124 ], [ 10.970848019377001, 10.614879061512795 ], [ 10.9313583365456, 10.620506287336241 ], [ 10.926406860181316, 10.607630729587925 ], [ 10.92313384995748, 10.597693442835975 ], [ 10.923955916516036, 10.586112021966983 ], [ 10.930541038990327, 10.54856205045354 ], [ 10.921735747007517, 10.530304866048652 ], [ 10.911634359144102, 10.504599344582914 ], [ 10.913360406316883, 10.446667253220824 ], [ 10.87287241180718, 10.38447437796367 ], [ 10.862654276864419, 10.384366310890243 ], [ 10.837447165737387, 10.395590781516717 ], [ 10.835072517123933, 10.395102501184965 ], [ 10.835403442348763, 10.399551392207798 ], [ 10.804135833103885, 10.424469619138563 ], [ 10.813511528474237, 10.437734308151278 ], [ 10.810256426262583, 10.447773729972596 ], [ 10.800434010588674, 10.450663347935972 ], [ 10.792604825269109, 10.44065626013662 ], [ 10.790739231001567, 10.435145829392525 ], [ 10.742491496219486, 10.473596098517703 ], [ 10.73018490185774, 10.487406280901041 ], [ 10.721561734998659, 10.490090312724703 ], [ 10.705447213049638, 10.480382838128946 ], [ 10.701444013329649, 10.487406448901197 ], [ 10.689430115166772, 10.493052909737685 ], [ 10.681792044977044, 10.493231369858904 ], [ 10.67483212224812, 10.493302753907415 ], [ 10.669618259705544, 10.493055272739298 ], [ 10.665523669923459, 10.490889980268093 ], [ 10.661892962456534, 10.491392696609637 ], [ 10.612391620822734, 10.556620791929049 ], [ 10.593355932888869, 10.57137344995283 ], [ 10.569973039001297, 10.586753706402988 ], [ 10.558191220996093, 10.600614667820821 ], [ 10.566147008401686, 10.618108455707045 ], [ 10.569478252665078, 10.627864246335662 ], [ 10.562577815976567, 10.64225998511688 ], [ 10.537950395243399, 10.649398367967081 ], [ 10.528571756871088, 10.649671116152376 ], [ 10.525303347650322, 10.662744753035327 ], [ 10.497225707572909, 10.687015254525988 ], [ 10.494281107572192, 10.688327977417885 ], [ 10.496835246307569, 10.690913846174908 ], [ 10.499954792427161, 10.697628452737149 ], [ 10.500103341528131, 10.706824303985286 ], [ 10.499664625230025, 10.712026404519861 ], [ 10.502628689243977, 10.713246638348949 ], [ 10.505368938105846, 10.714478543185976 ], [ 10.506937624171712, 10.716510298566448 ], [ 10.506490984868208, 10.717771382423336 ], [ 10.508934133528214, 10.719242639422987 ], [ 10.510930643884763, 10.719873175851376 ], [ 10.51195411758016, 10.721306139825003 ], [ 10.512214113756841, 10.723446192279084 ], [ 10.514281928161779, 10.725547945707149 ], [ 10.516492348663689, 10.725267712516711 ], [ 10.518560163068685, 10.725477887659508 ], [ 10.520271457231388, 10.726949106659163 ], [ 10.521127103812773, 10.729611296467965 ], [ 10.521412320006561, 10.732553688467192 ], [ 10.522981006072428, 10.733674592228795 ], [ 10.525191427574271, 10.734725434942789 ], [ 10.53259570660515, 10.748639425396675 ], [ 10.535862438824722, 10.754778210567736 ], [ 10.568740360163758, 10.810789363624679 ], [ 10.576499599435806, 10.807126516135952 ], [ 10.58687404948472, 10.818167214637583 ], [ 10.595535287369614, 10.826923631587135 ], [ 10.609812053070016, 10.84879563744812 ], [ 10.619954821961585, 10.851306017153831 ], [ 10.624713744195049, 10.858741832206135 ], [ 10.636462332177643, 10.867516095167787 ], [ 10.651036531080138, 10.874059612613848 ], [ 10.66875165011669, 10.897083137257255 ], [ 10.677222530872257, 10.930871483214844 ], [ 10.674601127091137, 10.93861463847594 ], [ 10.662703822007472, 10.94634788573029 ], [ 10.65711208820818, 10.95170167336795 ], [ 10.641088660321032, 10.96081624056086 ], [ 10.642670944396116, 10.977034646580535 ], [ 10.65969516296326, 10.984883836913696 ], [ 10.664739620390719, 10.994401681380623 ], [ 10.662455336838661, 11.01069623045197 ], [ 10.66467141634439, 11.028261012386452 ], [ 10.66945065159166, 11.039820317240412 ], [ 10.679012264088328, 11.045775497286684 ], [ 10.689871902466905, 11.047219003267514 ], [ 10.707912076724369, 11.0847983288009 ], [ 10.738369177418576, 11.100978663794649 ], [ 10.766922708819322, 11.068142102483762 ], [ 10.772404477543944, 11.060340695183072 ], [ 10.786754019293767, 11.063819371546685 ], [ 10.787106314533162, 11.064079227723198 ], [ 10.789043569849412, 11.072835619672787 ], [ 10.799132484704387, 11.084257033433119 ], [ 10.820452455190264, 11.084066676303735 ], [ 10.853384195565866, 11.085018460950437 ], [ 10.86423453793816, 11.088444885278534 ], [ 10.882128085095985, 11.085970244597149 ], [ 10.910300903238067, 11.088254528149207 ], [ 10.921912673127736, 11.092061664735979 ], [ 10.929565693327618, 11.090735141834671 ], [ 10.929267236124815, 11.094479966379083 ], [ 10.93738060363745, 11.096152824515741 ], [ 10.958904701262099, 11.112800368826925 ], [ 10.958906665263385, 11.11280188782797 ], [ 10.989333106936726, 11.136334838817504 ], [ 11.008531704981294, 11.14909315148617 ], [ 11.020701844250311, 11.157180743981314 ], [ 11.035930394597415, 11.134337918460687 ], [ 11.015727042870196, 11.107959746537972 ], [ 11.028676032668443, 11.098979950436615 ] ] ] ] } },
{ "type": "Feature", "properties": { "fid": 679.0, "OBJECTID": 679.0, "lganame": "Kaltungo", "statecode": "GO", "LGA_UID": "15_07" }, "geometry": { "type": "MultiPolygon", "coordinates": [ [ [ [ 11.489645957875837, 9.940307617173232 ], [ 11.500698090385242, 9.93882370016496 ], [ 11.506495476324289, 9.938958168256363 ], [ 11.515783309634912, 9.938593864008794 ], [ 11.523356437780478, 9.93702983894616 ], [ 11.52347755386279, 9.931232452007066 ], [ 11.52363491096969, 9.923694610885491 ], [ 11.523817062093485, 9.914999007977201 ], [ 11.523986816208833, 9.906882286462292 ], [ 11.52700614926033, 9.901151656568572 ], [ 11.535896301300738, 9.892077446403107 ], [ 11.555343627514276, 9.877447128462506 ], [ 11.565912246695177, 9.871312141294027 ], [ 11.57421112133386, 9.862804412513469 ], [ 11.569888364396775, 9.841959878350565 ], [ 11.569888364396775, 9.823224802620985 ], [ 11.565134770166935, 9.797930771434835 ], [ 11.568462286427803, 9.787156801114463 ], [ 11.567986926104822, 9.776850937112101 ], [ 11.569891930399194, 9.764096260445911 ], [ 11.568479538439533, 9.748402595782807 ], [ 11.566921234380743, 9.739665030846027 ], [ 11.556208611102022, 9.724915503824434 ], [ 11.548213004669378, 9.718930243757711 ], [ 11.536750792881321, 9.712283134241318 ], [ 11.527559279636137, 9.708009720337714 ], [ 11.520082473555988, 9.704936028249278 ], [ 11.504538535994641, 9.699355125457316 ], [ 11.496433258487457, 9.698587417935698 ], [ 11.488328933980938, 9.697818756413426 ], [ 11.46743297578314, 9.698493957872188 ], [ 11.458712577858023, 9.699452399523409 ], [ 11.454642296092459, 9.699937819853233 ], [ 11.446573256609952, 9.697430611149741 ], [ 11.436270713609872, 9.690811156652103 ], [ 11.432321547926563, 9.685499191042879 ], [ 11.426656723077599, 9.678986548617843 ], [ 11.424398421543174, 9.676033973611709 ], [ 11.418734549694875, 9.669522285187327 ], [ 11.41706752756221, 9.666003226796306 ], [ 11.414265632658442, 9.661297797599161 ], [ 11.412031174140225, 9.657654178123494 ], [ 11.406788825578303, 9.658692726829145 ], [ 11.401498794983979, 9.662050610110668 ], [ 11.393309593419758, 9.665340781346174 ], [ 11.385687828241146, 9.66922413798477 ], [ 11.378609657431866, 9.674860345814295 ], [ 11.373425048909155, 9.68037274555968 ], [ 11.369321600121054, 9.685925878332796 ], [ 11.366234316023395, 9.691132442870412 ], [ 11.363495285162344, 9.695822837057335 ], [ 11.363075255876993, 9.696542100546026 ], [ 11.356553078445472, 9.703351326172537 ], [ 11.350573540382641, 9.711912447989448 ], [ 11.34693717991189, 9.719369218055988 ], [ 11.342375607812528, 9.725900548493712 ], [ 11.334350586359903, 9.738798396257209 ], [ 11.326077460738702, 9.746147401250482 ], [ 11.314855576113985, 9.755747072773033 ], [ 11.303078651112116, 9.764174681499185 ], [ 11.292412757865122, 9.774948324819377 ], [ 11.292666230037355, 9.775499568193879 ], [ 11.293850184841801, 9.776153495638198 ], [ 11.294546004314554, 9.776736886034598 ], [ 11.295700130098737, 9.77692387316165 ], [ 11.297521806336476, 9.777142237310045 ], [ 11.299723807832663, 9.777406189489341 ], [ 11.303758065573732, 9.777889773817947 ], [ 11.302272567564387, 9.787551501382609 ], [ 11.294505078286761, 9.792289020601572 ], [ 11.290621796648225, 9.792555520782628 ], [ 11.28827707005513, 9.793748497593185 ], [ 11.288497925205206, 9.795269965626971 ], [ 11.291722298395996, 9.807525634954118 ], [ 11.292602538994061, 9.820887566032923 ], [ 11.295139312717708, 9.838347434896093 ], [ 11.287757873702333, 9.858477591573546 ], [ 11.283493995805259, 9.868239403206246 ], [ 11.279725075244414, 9.882073401605794 ], [ 11.273624420099338, 9.896432877362429 ], [ 11.265809058789159, 9.909592628303812 ], [ 11.262748409709616, 9.918722982507461 ], [ 11.256360767369472, 9.926917331075174 ], [ 11.247498442347933, 9.929777306018366 ], [ 11.249031067389296, 9.935305594774604 ], [ 11.252364158653961, 9.942342757555991 ], [ 11.25688171372343, 9.948247909568295 ], [ 11.277498244731419, 9.960907936170202 ], [ 11.287233353345982, 9.96693420426476 ], [ 11.291143417002672, 9.968338013218556 ], [ 11.299324035561028, 9.971274376213671 ], [ 11.30797195443688, 9.973794936926311 ], [ 11.323480605974282, 9.981115340900146 ], [ 11.33265972121103, 9.985968590197729 ], [ 11.34247970588325, 9.987936973535113 ], [ 11.355161667500056, 9.991711617099838 ], [ 11.373689651088966, 9.993301392180001 ], [ 11.389368056741716, 9.992505073638938 ], [ 11.401688576112917, 9.985830307103754 ], [ 11.409914016701691, 9.980800628686325 ], [ 11.416943550477924, 9.977483749432679 ], [ 11.446319580437603, 9.959604263284405 ], [ 11.458132744464081, 9.949437141376336 ], [ 11.480320929539914, 9.942411422602675 ], [ 11.489645957875837, 9.940307617173232 ] ] ] ] } },
{ "type": "Feature", "properties": { "fid": 748.0, "OBJECTID": 748.0, "lganame": "Billiri", "statecode": "GO", "LGA_UID": "15_03" }, "geometry": { "type": "MultiPolygon", "coordinates": [ [ [ [ 11.236487388866465, 9.81378459920677 ], [ 11.233842850069607, 9.801543235889369 ], [ 11.231717109625265, 9.792212485549555 ], [ 11.213192186038498, 9.78747830733289 ], [ 11.128221684305004, 9.723647151962609 ], [ 11.112772500808035, 9.705022551308105 ], [ 11.100294316329666, 9.694479865144842 ], [ 11.08722193144763, 9.685108310777309 ], [ 11.070584350143122, 9.684522580379337 ], [ 11.05691776485736, 9.689794119961107 ], [ 11.019483208422344, 9.698579837930538 ], [ 10.960065506050796, 9.67924555779382 ], [ 10.960303452212486, 9.684718317512306 ], [ 10.960779343535819, 9.695782812030131 ], [ 10.957805017514886, 9.703278114122838 ], [ 10.956704503767128, 9.711389003633769 ], [ 10.961820139243002, 9.716795426307215 ], [ 10.964389956989066, 9.723791042060384 ], [ 10.966388704347082, 9.731072193007606 ], [ 10.966245936250118, 9.738210575857806 ], [ 10.964675492183062, 9.745491725804982 ], [ 10.965532097765106, 9.752344574461176 ], [ 10.971668967934818, 9.760880327260793 ], [ 10.972620752581463, 9.762821967580066 ], [ 10.974676606978335, 9.76693367637381 ], [ 10.978521815590966, 9.769750958288 ], [ 10.978674100694434, 9.772187525943536 ], [ 10.981629401702435, 9.77477908770436 ], [ 10.977600751965156, 9.810182375759268 ], [ 10.982370691206086, 9.807484991926515 ], [ 10.996343612700059, 9.814013481362281 ], [ 11.005631447010728, 9.813649178114758 ], [ 11.013168335131638, 9.813823700233343 ], [ 11.020077704826235, 9.816304206918744 ], [ 11.027492522864293, 9.82227706897703 ], [ 11.03319454173851, 9.827049255219492 ], [ 11.038894652611475, 9.831822395462609 ], [ 11.044015884091152, 9.836581229696037 ], [ 11.050114632234965, 9.850064277857143 ], [ 11.051672935293709, 9.858800887793223 ], [ 11.053725242688188, 9.871609688496221 ], [ 11.055814743107874, 9.882678986017254 ], [ 11.057395935182228, 9.890255928165459 ], [ 11.061828613194052, 9.900219916935498 ], [ 11.07326610196526, 9.910991546254309 ], [ 11.076121454905376, 9.920747335882936 ], [ 11.075778007672, 9.926645278890305 ], [ 11.081484852549522, 9.933729804703887 ], [ 11.084824561818721, 9.937875747520877 ], [ 11.096878052008492, 9.943955420651719 ], [ 11.106673240663838, 9.947083472777081 ], [ 11.119379997297472, 9.949698447553828 ], [ 11.129816055388289, 9.949940680718441 ], [ 11.141374588241774, 9.9519491200831 ], [ 11.151774406307993, 9.953929901428921 ], [ 11.165097237360214, 9.954819679033506 ], [ 11.177235602607652, 9.956841469407209 ], [ 11.187006950246825, 9.961128235319848 ], [ 11.195026397695699, 9.965954780599247 ], [ 11.203936122749383, 9.974105933137594 ], [ 11.204133033883181, 9.974286079259969 ], [ 11.210957526520133, 9.980825423703152 ], [ 11.224110603457007, 9.989830970822027 ], [ 11.226660416189475, 9.990671548393152 ], [ 11.226937491377782, 9.990762890455187 ], [ 11.237360001459365, 9.994198798789739 ], [ 11.255937576081976, 9.99346923829404 ], [ 11.273511887022892, 9.985177039659902 ], [ 11.278790473609433, 9.982398986772353 ], [ 11.284721374639219, 9.976156234530663 ], [ 11.291143417002672, 9.968338013218556 ], [ 11.287233353345982, 9.96693420426476 ], [ 11.277498244731419, 9.960907936170202 ], [ 11.25688171372343, 9.948247909568295 ], [ 11.252364158653961, 9.942342757555991 ], [ 11.249031067389296, 9.935305594774604 ], [ 11.247498442347933, 9.929777306018366 ], [ 11.240375766508464, 9.929543516859553 ], [ 11.238831887459469, 9.918137665109782 ], [ 11.242812157163826, 9.899778365635484 ], [ 11.242523192967496, 9.885850906172436 ], [ 11.24218559273811, 9.874241829284642 ], [ 11.241835593500298, 9.863212584790801 ], [ 11.241606712344833, 9.846385956357892 ], [ 11.241293907132274, 9.833618163682786 ], [ 11.239796638114967, 9.821982383776799 ], [ 11.236487388866465, 9.81378459920677 ] ] ] ] } },
{ "type": "Feature", "properties": { "fid": 774.0, "OBJECTID": 774.0, "lganame": "Gombe", "statecode": "GO", "LGA_UID": "15_06" }, "geometry": { "type": "MultiPolygon", "coordinates": [ [ [ [ 11.137793540808616, 10.317873000711188 ], [ 11.147082329119939, 10.317508698463655 ], [ 11.1584409388376, 10.318856647379505 ], [ 11.160098491963822, 10.316978950103703 ], [ 11.160993168571679, 10.316341254670419 ], [ 11.162168940370577, 10.315912476379083 ], [ 11.163212096079349, 10.315746866266579 ], [ 11.164102965684663, 10.315293815958739 ], [ 11.164957668265401, 10.314996224756555 ], [ 11.166261613151335, 10.314601234488123 ], [ 11.166852432552787, 10.314365192327784 ], [ 11.167630041081111, 10.313786506934605 ], [ 11.168691280802193, 10.313424828688824 ], [ 11.169900046623525, 10.31300604440429 ], [ 11.172266183231159, 10.31217799084169 ], [ 11.173611625145327, 10.311670500496859 ], [ 11.175775982615903, 10.310882421961367 ], [ 11.176506953112607, 10.310876711957519 ], [ 11.177769018970082, 10.310711100844969 ], [ 11.178076922179287, 10.310928234992502 ], [ 11.178413853408244, 10.311636363473667 ], [ 11.179247616974749, 10.31133369526799 ], [ 11.179356120048453, 10.311362249287413 ], [ 11.179555995184273, 10.311756286555124 ], [ 11.179595970211437, 10.312121772803494 ], [ 11.179643559243743, 10.312692843191485 ], [ 11.179767767328144, 10.312760103237167 ], [ 11.180616970905135, 10.313011788408176 ], [ 11.181228819320893, 10.312137476814144 ], [ 11.183209418666593, 10.309645653121038 ], [ 11.192751884150255, 10.297106742601443 ], [ 11.198706627196202, 10.289704322571879 ], [ 11.193118067399041, 10.281664760109379 ], [ 11.196427777647841, 10.277808494489193 ], [ 11.196166038469983, 10.277356396182029 ], [ 11.194762155516116, 10.274786579435954 ], [ 11.194191085128125, 10.274263097080279 ], [ 11.192875630234312, 10.272874760136972 ], [ 11.190288769476695, 10.270836672752182 ], [ 11.189963576255707, 10.269908684121674 ], [ 11.187417552525801, 10.268671364280976 ], [ 11.185014296892916, 10.269004487507289 ], [ 11.183895950133035, 10.268481007151649 ], [ 11.181682504629123, 10.265767864308145 ], [ 11.18051711583729, 10.266910563084593 ], [ 11.178851492705576, 10.265863600373223 ], [ 11.179089438867265, 10.264792841645715 ], [ 11.177660389896289, 10.264242140271506 ], [ 11.175425069377468, 10.263441308727408 ], [ 11.173826072291035, 10.263669736882605 ], [ 11.171484681700178, 10.264297914309395 ], [ 11.168343792566077, 10.263955272076601 ], [ 11.165773974820013, 10.264868984697443 ], [ 11.162804407802355, 10.2672103752883 ], [ 11.16200490925911, 10.267438803443497 ], [ 11.158350056775816, 10.270808119732806 ], [ 11.156076565231103, 10.273429565513936 ], [ 11.153821789699066, 10.276029430280403 ], [ 11.150112363178721, 10.276219014409207 ], [ 11.13939051189368, 10.277832288505351 ], [ 11.133051627586724, 10.280002356979821 ], [ 11.125814437669419, 10.280471802298791 ], [ 11.122794150617267, 10.286202431192521 ], [ 11.122105598149403, 10.291406630728488 ], [ 11.12140464767316, 10.297190665658491 ], [ 11.121247291566249, 10.304729461780767 ], [ 11.122853278657431, 10.311145782140329 ], [ 11.123951912403925, 10.314071655128316 ], [ 11.126660949244581, 10.323985927864612 ], [ 11.137793540808616, 10.317873000711188 ] ] ] ] } }
]
}
