{
"type": "FeatureCollection",
"name": "Kwara",
"crs": { "type": "name", "properties": { "name": "urn:ogc:def:crs:OGC:1.3:CRS84" } },
"features": [
{ "type": "Feature", "properties": { "fid": 25.0, "OBJECTID": 25.0, "lganame": "Ilorin South", "statecode": "KW", "LGA_UID": "23_07" }, "geometry": { "type": "MultiPolygon", "coordinates": [ [ [ [ 4.634127139872987, 8.44222831729877 ], [ 4.637938023462254, 8.405135155095707 ], [ 4.629299640592933, 8.405135155095707 ], [ 4.623710154795106, 8.40157794967871 ], [ 4.620661258723544, 8.399545670297869 ], [ 4.622694016104674, 8.393956183500109 ], [ 4.62934017162047, 8.380662918467976 ], [ 4.631586075146458, 8.374138832035158 ], [ 4.628537178074851, 8.371597290308273 ], [ 4.628027558728604, 8.372616720000963 ], [ 4.623182586436656, 8.376766982820868 ], [ 4.619943011235534, 8.379617858757911 ], [ 4.617768241757858, 8.381310879908199 ], [ 4.617126506321824, 8.382192658507336 ], [ 4.616591726958461, 8.383991481729538 ], [ 4.616663031006908, 8.389423170420116 ], [ 4.614381092456426, 8.393059904891118 ], [ 4.613070398565924, 8.394016358540966 ], [ 4.604564438786497, 8.400223424758394 ], [ 4.601405360640058, 8.402864604552974 ], [ 4.5988189268827, 8.40525887117974 ], [ 4.598006358330565, 8.405878402600706 ], [ 4.597055821684762, 8.406603126093103 ], [ 4.595950610933812, 8.406920546308754 ], [ 4.593775841456136, 8.407167428476498 ], [ 4.591173247687834, 8.407696459835961 ], [ 4.589677844671769, 8.407768266884773 ], [ 4.588413450812652, 8.41288616136211 ], [ 4.588413370812589, 8.412886212362139 ], [ 4.588023878547972, 8.41446271743331 ], [ 4.582304477661921, 8.437612534162554 ], [ 4.58839464179988, 8.438672065882429 ], [ 4.603130340812072, 8.436131477156209 ], [ 4.60719585357441, 8.435623168810878 ], [ 4.62040710355086, 8.438163756537051 ], [ 4.634127139872987, 8.44222831729877 ] ] ] ] } },
{ "type": "Feature", "properties": { "fid": 39.0, "OBJECTID": 39.0, "lganame": "Offa", "statecode": "KW", "LGA_UID": "23_13" }, "geometry": { "type": "MultiPolygon", "coordinates": [ [ [ [ 4.722100257646559, 8.11445140758974 ], [ 4.714375496397963, 8.11187648784022 ], [ 4.701930522942178, 8.11187648784022 ], [ 4.688627719903536, 8.112305641131798 ], [ 4.680902957654951, 8.11445140758974 ], [ 4.673607825698241, 8.114022255298153 ], [ 4.665454388158366, 8.110589026965442 ], [ 4.652151108119426, 8.109730721382277 ], [ 4.643139361996361, 8.108014107215922 ], [ 4.632411002706931, 8.109301567090654 ], [ 4.630694388540576, 8.111447333548597 ], [ 4.633269310290132, 8.121316910254507 ], [ 4.631552696123777, 8.123033524420862 ], [ 4.62382841087549, 8.129899979086304 ], [ 4.621253490125923, 8.139341353501266 ], [ 4.622970104292278, 8.141915321250167 ], [ 4.630265236248988, 8.150498390081964 ], [ 4.639706134663641, 8.156935692455818 ], [ 4.644426822871139, 8.159939766496962 ], [ 4.650434493953071, 8.162513733245817 ], [ 4.654726027868946, 8.169380187911258 ], [ 4.658587933492925, 8.174959182701912 ], [ 4.663737773992011, 8.181825638367343 ], [ 4.668028830907588, 8.194699287114418 ], [ 4.669745445073943, 8.198132515447128 ], [ 4.676182747447797, 8.205428123404147 ], [ 4.683048725112883, 8.210577010902568 ], [ 4.687340260028805, 8.21486854581849 ], [ 4.693777084402313, 8.21744346556801 ], [ 4.698068619318178, 8.216156005693222 ], [ 4.703217982816966, 8.214439391526867 ], [ 4.705792903566476, 8.212722778360501 ], [ 4.707080364441254, 8.210147857610991 ], [ 4.708367825316031, 8.205857276695724 ], [ 4.709655285190763, 8.201136589488272 ], [ 4.709655285190763, 8.197703362155551 ], [ 4.711371899357175, 8.192982673948052 ], [ 4.712658882231608, 8.18869113903213 ], [ 4.715233802981118, 8.181825638367343 ], [ 4.718237877022261, 8.173671721827191 ], [ 4.721671104354982, 8.166805267161749 ], [ 4.722100257646559, 8.159939766496962 ], [ 4.72295856522976, 8.154789924997885 ], [ 4.726391314562136, 8.152644156539907 ], [ 4.732399463644413, 8.148352622624031 ], [ 4.734544754101989, 8.142773627833378 ], [ 4.738836288017922, 8.138912201209678 ], [ 4.740982056475843, 8.135478972876967 ], [ 4.744415282808575, 8.128612518211526 ], [ 4.746560574266198, 8.122604370129295 ], [ 4.739265442309488, 8.117455481630884 ], [ 4.728537083020058, 8.116168021756096 ], [ 4.722100257646559, 8.11445140758974 ] ] ] ] } },
{ "type": "Feature", "properties": { "fid": 53.0, "OBJECTID": 53.0, "lganame": "Irepodun", "statecode": "KW", "LGA_UID": "23_09" }, "geometry": { "type": "MultiPolygon", "coordinates": [ [ [ [ 5.181912422067342, 8.192491530614348 ], [ 5.180173396885721, 8.182058333525447 ], [ 5.177565098113519, 8.171625137436592 ], [ 5.177565098113519, 8.165972709596019 ], [ 5.175826072931955, 8.159887314461287 ], [ 5.171478747978142, 8.15206146214399 ], [ 5.168001174615256, 8.147714615190523 ], [ 5.164088248956659, 8.14380168853188 ], [ 5.151481152390716, 8.13554191591976 ], [ 5.134091853575512, 8.118587494400003 ], [ 5.1275706291446, 8.111196518378222 ], [ 5.112789631101634, 8.097720146221661 ], [ 5.092792033514229, 8.079461097815454 ], [ 5.083662510311115, 8.070766448907875 ], [ 5.077576637176037, 8.066419600954362 ], [ 5.073663711517383, 8.063376426886691 ], [ 5.069751262859086, 8.056855202455836 ], [ 5.066485404640105, 8.054468154833955 ], [ 5.062942982233153, 8.052833556723328 ], [ 5.054930209788893, 8.049190521248022 ], [ 5.053439616776075, 8.057763100072691 ], [ 5.049627304185776, 8.064624785734907 ], [ 5.044290542559736, 8.069961548360993 ], [ 5.039715767451355, 8.071867942656297 ], [ 5.037047385638346, 8.070724486879328 ], [ 5.032472609529975, 8.068056107066297 ], [ 5.029041767198919, 8.063862801217169 ], [ 5.02065515450056, 8.059288025108799 ], [ 5.014936923615323, 8.054713249000486 ], [ 5.009981632248412, 8.05013942689277 ], [ 5.005406857140088, 8.043276787229956 ], [ 5.001976012808996, 8.03412818901387 ], [ 4.995876788664873, 8.032221793718577 ], [ 4.989295483193189, 8.034039496953653 ], [ 4.98749017696656, 8.032221793718577 ], [ 4.981009482563195, 8.025741577315557 ], [ 4.973385334382954, 8.018116951135028 ], [ 4.969573020792666, 8.017354964617255 ], [ 4.967106342116665, 8.020046234445886 ], [ 4.969192027533836, 8.024216652279449 ], [ 4.970716475569589, 8.032603263977762 ], [ 4.968429565015754, 8.037559509345328 ], [ 4.966904639979646, 8.046708106561368 ], [ 4.960805415835523, 8.052426338446651 ], [ 4.949749947323824, 8.055476188518867 ], [ 4.945175648215809, 8.060812950144907 ], [ 4.939457417330516, 8.068056107066297 ], [ 4.926877498783085, 8.079873085095414 ], [ 4.913153648458376, 8.085591315980651 ], [ 4.895408154401139, 8.089356421538866 ], [ 4.887231349845365, 8.090929030607413 ], [ 4.877701283370129, 8.091309546865944 ], [ 4.8613090522324, 8.094740868197334 ], [ 4.854066372311365, 8.095502852715072 ], [ 4.851778983757185, 8.091691017125129 ], [ 4.854828834829391, 8.085972786239836 ], [ 4.856734753124385, 8.079111098577641 ], [ 4.857497214642422, 8.072630882174678 ], [ 4.8525414472752, 8.068056107066297 ], [ 4.850381373807579, 8.066616058087845 ], [ 4.843392372058872, 8.061956405921876 ], [ 4.830049991993349, 8.055476188518867 ], [ 4.818613529222773, 8.053569794223563 ], [ 4.812895298337537, 8.059288025108799 ], [ 4.80527114915725, 8.063862801217169 ], [ 4.799294949096748, 8.065057755029102 ], [ 4.796499252197179, 8.067988396020326 ], [ 4.793765545339738, 8.073683738890054 ], [ 4.790761471298651, 8.080549239554784 ], [ 4.782608031758741, 8.088703156094994 ], [ 4.781426906956256, 8.092098236401796 ], [ 4.77917480542601, 8.098572730800925 ], [ 4.775742054093655, 8.116168021756096 ], [ 4.773596286635723, 8.123033524420862 ], [ 4.770163059303002, 8.137195587043323 ], [ 4.76415538822107, 8.156077384872617 ], [ 4.762867928346282, 8.161227226371693 ], [ 4.759863853305148, 8.177104950159901 ], [ 4.757288932555639, 8.183542251533709 ], [ 4.747848034140986, 8.203282355946214 ], [ 4.747418879849363, 8.209718704319414 ], [ 4.755438805298525, 8.210750580020488 ], [ 4.76717662827383, 8.215967177564949 ], [ 4.775871277181466, 8.222923279291308 ], [ 4.789348125338336, 8.233791350675631 ], [ 4.798042774245914, 8.248137474423118 ], [ 4.804129124381348, 8.26291847246614 ], [ 4.808911323630582, 8.277699470509106 ], [ 4.806302546858092, 8.3020448680507 ], [ 4.80325984979072, 8.316825867093655 ], [ 4.803694248085833, 8.33421516390888 ], [ 4.804563998676826, 8.342040062225522 ], [ 4.806302546858092, 8.347256659769982 ], [ 4.820214272310409, 8.358994483745278 ], [ 4.837168693830165, 8.36290741040392 ], [ 4.856731892122411, 8.367689132652856 ], [ 4.868904591393232, 8.368558884243839 ], [ 4.88503027034983, 8.369849205120545 ], [ 4.885424136617473, 8.365515709176123 ], [ 4.885424136617473, 8.36160278251748 ], [ 4.883685112435899, 8.350734711133157 ], [ 4.881946564254633, 8.339431763453319 ], [ 4.880642414368538, 8.324215889114839 ], [ 4.880642414368538, 8.314652442616932 ], [ 4.882380961549757, 8.30508804311836 ], [ 4.882815837845271, 8.295523642619798 ], [ 4.888032436389665, 8.285090445530955 ], [ 4.897161960592769, 8.270309448487978 ], [ 4.89977026036496, 8.260745048989406 ], [ 4.90498733490972, 8.252920150672765 ], [ 4.919768332952742, 8.231183051903429 ], [ 4.93367958140476, 8.221184731110043 ], [ 4.94411325549396, 8.209012031839222 ], [ 4.95759010265084, 8.193361282205274 ], [ 4.964110851081386, 8.184231758002227 ], [ 4.978022574533725, 8.176406859685585 ], [ 4.985413073555264, 8.170320510550198 ], [ 5.006279944733308, 8.154234885620724 ], [ 5.011931895573525, 8.150322913962725 ], [ 5.021495819071788, 8.148583411780862 ], [ 5.044102192431751, 8.144236564827338 ], [ 5.061925887542088, 8.145106316418321 ], [ 5.073229313222271, 8.145106316418321 ], [ 5.081054210538923, 8.148583411780862 ], [ 5.089314461151332, 8.154669761916239 ], [ 5.096270083877357, 8.158582686574846 ], [ 5.103225707603372, 8.159017562870361 ], [ 5.112789631101634, 8.163364409823828 ], [ 5.11931085553249, 8.170755385845666 ], [ 5.12452745407694, 8.180319786344228 ], [ 5.128005505440115, 8.186840056774429 ], [ 5.137569426938342, 8.193796157500799 ], [ 5.146698952141435, 8.199882506636186 ], [ 5.15322017657229, 8.199882506636186 ], [ 5.160610675593773, 8.199882506636186 ], [ 5.165827274138223, 8.197274207863927 ], [ 5.173217773159706, 8.195969581977522 ], [ 5.181912422067342, 8.192491530614348 ] ] ] ] } },
{ "type": "Feature", "properties": { "fid": 81.0, "OBJECTID": 81.0, "lganame": "Ilorin West", "statecode": "KW", "LGA_UID": "23_08" }, "geometry": { "type": "MultiPolygon", "coordinates": [ [ [ [ 4.530975341786188, 8.569263457613147 ], [ 4.549244938199479, 8.560327286541451 ], [ 4.543117891036445, 8.560452450626485 ], [ 4.535522085875471, 8.557601794689617 ], [ 4.533319699379035, 8.550175832644015 ], [ 4.53300762216702, 8.540206092870051 ], [ 4.531677168263002, 8.531420394900579 ], [ 4.533062858204516, 8.521167048933933 ], [ 4.53509593658589, 8.50110267430108 ], [ 4.541036255622089, 8.478509647950204 ], [ 4.550424783001176, 8.462601997141689 ], [ 4.563496080882487, 8.447673162998285 ], [ 4.571161795090973, 8.441102403533762 ], [ 4.582304477661921, 8.437612534162554 ], [ 4.586197553307045, 8.421854946455994 ], [ 4.586908665790247, 8.418976647500358 ], [ 4.588023878547972, 8.41446271743331 ], [ 4.588413370812589, 8.412886212362139 ], [ 4.587406025128189, 8.413533401801885 ], [ 4.58652161652725, 8.413846634014703 ], [ 4.584999518493078, 8.414385718381027 ], [ 4.583573438524127, 8.414326937341059 ], [ 4.582284277648171, 8.413712910923891 ], [ 4.581969101434026, 8.413562792821892 ], [ 4.581751476286172, 8.413424219727744 ], [ 4.580834562663142, 8.41284037433104 ], [ 4.579384333677808, 8.411916936703562 ], [ 4.577925394686531, 8.410850902979291 ], [ 4.576769856901365, 8.410006560405577 ], [ 4.574839092589514, 8.408450300348193 ], [ 4.568068980989551, 8.41021633054811 ], [ 4.552316666286572, 8.412248610928941 ], [ 4.537072658928992, 8.415297508000549 ], [ 4.534025000858264, 8.417278564346589 ], [ 4.526909828023861, 8.421903610489039 ], [ 4.51877975549985, 8.424952506560658 ], [ 4.515730858428242, 8.432065964393928 ], [ 4.51115799032118, 8.436638831500943 ], [ 4.505060196178022, 8.443753242334878 ], [ 4.501787863954632, 8.452587955337663 ], [ 4.499978541725284, 8.45747280065666 ], [ 4.499372238313356, 8.459898133304534 ], [ 4.498729735876793, 8.462468262050834 ], [ 4.49489736627288, 8.477798462466978 ], [ 4.490225682098696, 8.48760917213292 ], [ 4.490191461075426, 8.487681038181734 ], [ 4.48977202079044, 8.488950350044149 ], [ 4.487052096942364, 8.496991380507666 ], [ 4.483718394677283, 8.50726985949143 ], [ 4.479350979709864, 8.534444281955189 ], [ 4.477722509603382, 8.542364031336263 ], [ 4.476096153498361, 8.549953461492919 ], [ 4.477445346415038, 8.555110451996882 ], [ 4.479101180540113, 8.561439514297149 ], [ 4.484490016201562, 8.559386903902521 ], [ 4.485242843713081, 8.55910015070765 ], [ 4.492864608891693, 8.560625075743758 ], [ 4.49845457068983, 8.566721915886319 ], [ 4.50412245554088, 8.568705889234309 ], [ 4.508616923594673, 8.570279121303258 ], [ 4.514714717737832, 8.570279121303258 ], [ 4.522844791261832, 8.571295737993978 ], [ 4.530975341786188, 8.569263457613147 ] ] ] ] } },
{ "type": "Feature", "properties": { "fid": 92.0, "OBJECTID": 92.0, "lganame": "Edu", "statecode": "KW", "LGA_UID": "23_03" }, "geometry": { "type": "MultiPolygon", "coordinates": [ [ [ [ 5.307670115513758, 9.000473021599817 ], [ 5.323272228114661, 8.992332458068631 ], [ 5.332090378106159, 8.995724678373506 ], [ 5.348370552167808, 8.998437881217001 ], [ 5.370077609916734, 8.996402739834252 ], [ 5.375504493604012, 8.990297317685872 ], [ 5.391106129204616, 8.982835769616088 ], [ 5.408064841727253, 8.978766440851189 ], [ 5.42502307924957, 8.978766440851189 ], [ 5.436554909084919, 8.97537422154636 ], [ 5.445373535076783, 8.972661017702819 ], [ 5.457583427372811, 8.968590735937255 ], [ 5.46097516967734, 8.962486266789597 ], [ 5.466402054364664, 8.954345703258468 ], [ 5.473863602434449, 8.947562217649363 ], [ 5.48539543226974, 8.944849013805879 ], [ 5.497605800566134, 8.944170952345189 ], [ 5.511850834244967, 8.944170952345189 ], [ 5.525417805463064, 8.940100669579635 ], [ 5.525417805463064, 8.937387465736094 ], [ 5.522704123619292, 8.930603981127035 ], [ 5.516599178471267, 8.920428276213158 ], [ 5.506423949557643, 8.913645743604718 ], [ 5.492857456339834, 8.906183242534325 ], [ 5.479969024582772, 8.895330429160367 ], [ 5.473185538973723, 8.885833739707778 ], [ 5.466402054364664, 8.878371238637385 ], [ 5.458261966833845, 8.868196486724116 ], [ 5.448086738920267, 8.861413002115057 ], [ 5.447408676459531, 8.842419624209924 ], [ 5.450121880303016, 8.826817512609011 ], [ 5.461653709138375, 8.804432869399704 ], [ 5.462331771599111, 8.796970367329322 ], [ 5.461653709138375, 8.78272533365049 ], [ 5.46029710821665, 8.764410019206082 ], [ 5.454191685068281, 8.747451781683765 ], [ 5.450121880303016, 8.720317841247493 ], [ 5.454870223529326, 8.699289321959611 ], [ 5.457583427372811, 8.675547599828235 ], [ 5.463010311060145, 8.665372848914956 ], [ 5.477255343738932, 8.635525702635221 ], [ 5.486073970730786, 8.609748840121085 ], [ 5.503710746714148, 8.57922363338065 ], [ 5.515920639010233, 8.558195114092712 ], [ 5.517277717932302, 8.550054549561594 ], [ 5.513207436166738, 8.538522719726245 ], [ 5.514564037088462, 8.535131454422071 ], [ 5.510494232323197, 8.535131454422071 ], [ 5.503032207253113, 8.534453391961335 ], [ 5.496249198644364, 8.529026031273702 ], [ 5.490143776496041, 8.518173217899744 ], [ 5.476577282278242, 8.499857903455336 ], [ 5.46572351490363, 8.492395401384897 ], [ 5.453513621607556, 8.486290932237239 ], [ 5.44637870775972, 8.479719161772039 ], [ 5.440574168815829, 8.485524177716229 ], [ 5.435599327435625, 8.492156982222923 ], [ 5.425649165674997, 8.516203879561658 ], [ 5.420673847294495, 8.533617020393081 ], [ 5.420673847294495, 8.548542022533923 ], [ 5.419015408167638, 8.569272040619012 ], [ 5.420673847294495, 8.591659545830225 ], [ 5.423990725548151, 8.613218307478405 ], [ 5.423161506984741, 8.640582085070832 ], [ 5.420673847294495, 8.65882396746531 ], [ 5.413625716505635, 8.68618774405769 ], [ 5.408650398125133, 8.700283050634823 ], [ 5.40284633618154, 8.704429626452225 ], [ 5.38045835496996, 8.71603775033941 ], [ 5.372166157335812, 8.71603775033941 ], [ 5.355582714068134, 8.713550567649463 ], [ 5.338998794800148, 8.709404944832727 ], [ 5.326560974349206, 8.705258369015326 ], [ 5.318269252715368, 8.697795867944876 ], [ 5.310746952604347, 8.690743779153308 ], [ 5.310746944604318, 8.690743720153307 ], [ 5.305002212701027, 8.685358047493992 ], [ 5.290076732559896, 8.669603347789405 ], [ 5.274322032855309, 8.656336783775373 ], [ 5.257738112587333, 8.655507088211664 ], [ 5.237008571502543, 8.660482406592166 ], [ 5.208816051347071, 8.678724288986643 ], [ 5.19306182864284, 8.689503670310728 ], [ 5.162381648797066, 8.69447898869123 ], [ 5.156577586853473, 8.700283050634823 ], [ 5.139993667585486, 8.709404944832727 ], [ 5.120922088627253, 8.716867446903109 ], [ 5.109313487739769, 8.725988388100404 ], [ 5.098534107415674, 8.72930526735405 ], [ 5.090242385781835, 8.737596511987533 ], [ 5.081121444584596, 8.756668090945823 ], [ 5.079778413672045, 8.762487665899926 ], [ 5.07863378489435, 8.767447472269907 ], [ 5.057074547245861, 8.807249069313173 ], [ 5.051270485302268, 8.817198753073512 ], [ 5.029711722654099, 8.826319695270797 ], [ 5.011469364259256, 8.829636573524454 ], [ 4.997373103681525, 8.828807830961352 ], [ 4.993227481864778, 8.836270332031802 ], [ 4.992553954407128, 8.836809159397887 ], [ 4.98493528423063, 8.842904090539093 ], [ 4.968351840962953, 8.847879409919585 ], [ 4.960059643328805, 8.852853775299423 ], [ 4.95010948156812, 8.856170653553136 ], [ 4.939753375531609, 8.860658311602265 ], [ 4.925233840666294, 8.86695003487722 ], [ 4.91388304595398, 8.875936322982966 ], [ 4.905333519144961, 8.88270473458175 ], [ 4.89455366082052, 8.90177631354004 ], [ 4.89455366082052, 8.907580376483622 ], [ 4.895382881383966, 8.938260078328994 ], [ 4.897041320510823, 8.966452599484512 ], [ 4.897041320510823, 8.975573539681761 ], [ 4.902845860454704, 8.986353874006511 ], [ 4.907820701834851, 8.993816376076893 ], [ 4.907820701834851, 9.003766059837233 ], [ 4.907820701834851, 9.01952075954182 ], [ 4.902845860454704, 9.027812958176014 ], [ 4.896212100947366, 9.042737961316845 ], [ 4.890408039003773, 9.056834220894586 ], [ 4.892865180673311, 9.059488296697907 ], [ 4.890830040290496, 9.063558578463471 ], [ 4.892186642212266, 9.069664000611795 ], [ 4.897613524899555, 9.07509040829882 ], [ 4.897648435923315, 9.075474302559655 ], [ 4.898292065360636, 9.082551956368548 ], [ 4.900326728743096, 9.086622238134112 ], [ 4.900326728743096, 9.092048644821148 ], [ 4.900326728743096, 9.099510192890875 ], [ 4.89964866628236, 9.106293678499981 ], [ 4.897613524899555, 9.117147445874593 ], [ 4.891508578751541, 9.119182587257342 ], [ 4.886081696064252, 9.124608993944321 ], [ 4.887438296985977, 9.13139247855338 ], [ 4.889473438368782, 9.13614082277968 ], [ 4.884046554681447, 9.14088916800597 ], [ 4.881333350837963, 9.146316527693614 ], [ 4.879298210455204, 9.152420997841318 ], [ 4.876071453262739, 9.157646179391577 ], [ 4.87658500661172, 9.161239623833126 ], [ 4.886081696064252, 9.167345046981495 ], [ 4.898970126821325, 9.17005824982499 ], [ 4.911180496117709, 9.171414374746405 ], [ 4.923390388413736, 9.176162719972695 ], [ 4.941705703858133, 9.184303283503823 ], [ 4.962055682684991, 9.193121910495677 ], [ 4.971552849137879, 9.200583457565415 ], [ 4.996651173191026, 9.207366943174463 ], [ 5.016323089557147, 9.205331801791715 ], [ 5.032603263618739, 9.19787025472192 ], [ 5.048204899219343, 9.187694549808043 ], [ 5.06516361174198, 9.162596702755195 ], [ 5.084835529108148, 9.150385857458502 ], [ 5.107899188778788, 9.13546276131899 ], [ 5.130962849449475, 9.123252869022906 ], [ 5.159452914807162, 9.106972693961325 ], [ 5.171663284103488, 9.087300300594848 ], [ 5.196761608156635, 9.054061890010928 ], [ 5.208971977453018, 9.035068512105795 ], [ 5.225591182745006, 9.026927947574677 ], [ 5.237801075041034, 9.018788338044203 ], [ 5.254759788563661, 9.016753196661398 ], [ 5.272396563547034, 9.014718056278639 ], [ 5.286641598225856, 9.009969711052349 ], [ 5.297495364600479, 9.00318622644329 ], [ 5.307670115513758, 9.000473021599817 ] ] ] ] } },
{ "type": "Feature", "properties": { "fid": 93.0, "OBJECTID": 93.0, "lganame": "Isin", "statecode": "KW", "LGA_UID": "23_10" }, "geometry": { "type": "MultiPolygon", "coordinates": [ [ [ [ 4.985413073555264, 8.346821785474503 ], [ 4.997585296825719, 8.346387863179643 ], [ 5.000618445886573, 8.346698881390978 ], [ 5.014540195345774, 8.348126411360909 ], [ 5.024973869434973, 8.348561286656377 ], [ 5.035407065523827, 8.349864959542174 ], [ 5.048449516385574, 8.352908133609901 ], [ 5.065838814200788, 8.359429359040746 ], [ 5.084212435684776, 8.363554613843689 ], [ 5.08714055967431, 8.364212036290326 ], [ 5.101921557717276, 8.364645957585196 ], [ 5.121919155304738, 8.365080832880665 ], [ 5.13452672987097, 8.364212036290326 ], [ 5.142351627187622, 8.359429359040746 ], [ 5.146481030993357, 8.353863810259213 ], [ 5.152350425981354, 8.345952987884175 ], [ 5.15669774993512, 8.336388588385603 ], [ 5.168001174615256, 8.313782692025995 ], [ 5.175391673636796, 8.299001693982973 ], [ 5.177999973408987, 8.292480468552128 ], [ 5.176695823522891, 8.279004097395557 ], [ 5.176260948227423, 8.264223099352591 ], [ 5.175826072931955, 8.252050400081771 ], [ 5.186694622316622, 8.247268676832846 ], [ 5.197997569996403, 8.249442101309569 ], [ 5.20930051767624, 8.248572349718643 ], [ 5.220603943356366, 8.249442101309569 ], [ 5.234080314512937, 8.25465869885403 ], [ 5.239895821464302, 8.255067825132016 ], [ 5.230602741150108, 8.244225501765129 ], [ 5.227559566082391, 8.240312576106476 ], [ 5.224081515719263, 8.237704277334274 ], [ 5.217560768288706, 8.235964775152354 ], [ 5.208866119381071, 8.22553157806351 ], [ 5.197997569996403, 8.214228630383673 ], [ 5.193650246042637, 8.200317382931644 ], [ 5.193650246042637, 8.194231032796267 ], [ 5.191476821565857, 8.190752983433072 ], [ 5.185824870725639, 8.189014435251806 ], [ 5.181912422067342, 8.192491530614348 ], [ 5.173217773159706, 8.195969581977522 ], [ 5.165827274138223, 8.197274207863927 ], [ 5.160610675593773, 8.199882506636186 ], [ 5.15322017657229, 8.199882506636186 ], [ 5.146698952141435, 8.199882506636186 ], [ 5.137569426938342, 8.193796157500799 ], [ 5.128005505440115, 8.186840056774429 ], [ 5.12452745407694, 8.180319786344228 ], [ 5.11931085553249, 8.170755385845666 ], [ 5.112789631101634, 8.163364409823828 ], [ 5.103225707603372, 8.159017562870361 ], [ 5.096270083877357, 8.158582686574846 ], [ 5.089314461151332, 8.154669761916239 ], [ 5.081054210538923, 8.148583411780862 ], [ 5.073229313222271, 8.145106316418321 ], [ 5.061925887542088, 8.145106316418321 ], [ 5.044102192431751, 8.144236564827338 ], [ 5.021495819071788, 8.148583411780862 ], [ 5.011931895573525, 8.150322913962725 ], [ 5.006279944733308, 8.154234885620724 ], [ 4.985413073555264, 8.170320510550198 ], [ 4.978022574533725, 8.176406859685585 ], [ 4.964110851081386, 8.184231758002227 ], [ 4.95759010265084, 8.193361282205274 ], [ 4.94411325549396, 8.209012031839222 ], [ 4.93367958140476, 8.221184731110043 ], [ 4.919768332952742, 8.231183051903429 ], [ 4.90498733490972, 8.252920150672765 ], [ 4.89977026036496, 8.260745048989406 ], [ 4.897161960592769, 8.270309448487978 ], [ 4.888032436389665, 8.285090445530955 ], [ 4.882815837845271, 8.295523642619798 ], [ 4.882380961549757, 8.30508804311836 ], [ 4.880642414368538, 8.314652442616932 ], [ 4.880642414368538, 8.324215889114839 ], [ 4.881946564254633, 8.339431763453319 ], [ 4.883685112435899, 8.350734711133157 ], [ 4.885424136617473, 8.36160278251748 ], [ 4.885424136617473, 8.365515709176123 ], [ 4.88503027034983, 8.369849205120545 ], [ 4.890641212162222, 8.370297432425104 ], [ 4.9071607593865, 8.369863510130244 ], [ 4.92063760754337, 8.365515709176123 ], [ 4.930202007041942, 8.359864235336204 ], [ 4.941504954721722, 8.356386184973076 ], [ 4.943629491165268, 8.356253501882918 ], [ 4.955416203173797, 8.355517387382747 ], [ 4.964545727376844, 8.353343009905359 ], [ 4.977587700238303, 8.348996161951902 ], [ 4.985413073555264, 8.346821785474503 ] ] ] ] } },
{ "type": "Feature", "properties": { "fid": 105.0, "OBJECTID": 105.0, "lganame": "Oke Ero", "statecode": "KW", "LGA_UID": "23_14" }, "geometry": { "type": "MultiPolygon", "coordinates": [ [ [ [ 5.4575333603388, 8.206403732067031 ], [ 5.454055785975925, 8.197709084159442 ], [ 5.434492587683678, 8.185101508593164 ], [ 5.405365466893159, 8.178580284162308 ], [ 5.366239548308954, 8.171190262141124 ], [ 5.346241473721193, 8.171190262141124 ], [ 5.323635578361518, 8.168147087073407 ], [ 5.29624748175263, 8.161190987347084 ], [ 5.276684284460373, 8.153366089030442 ], [ 5.241470813534477, 8.142063141350604 ], [ 5.206257342608524, 8.125977516421187 ], [ 5.19060707097492, 8.113369941854955 ], [ 5.170174599092036, 8.081199645996719 ], [ 5.16365385066149, 8.055550574569395 ], [ 5.162611484953231, 8.049506187462498 ], [ 5.157026768158687, 8.052456856467359 ], [ 5.150629043811762, 8.055843352768306 ], [ 5.142349720186303, 8.061864852859628 ], [ 5.127672672213976, 8.062994002626851 ], [ 5.117887973565701, 8.062618256371536 ], [ 5.114124775008804, 8.058101654302732 ], [ 5.104340076360586, 8.046812056632007 ], [ 5.097189425502052, 8.039284705517503 ], [ 5.089286327132243, 8.03062915763644 ], [ 5.087197303712856, 8.02789688078002 ], [ 5.084393977808134, 8.02423191128986 ], [ 5.075738429927071, 8.024984359801067 ], [ 5.072351455625778, 8.031005858892399 ], [ 5.061813831465997, 8.038155555750279 ], [ 5.05763292262526, 8.039464950639967 ], [ 5.054930209788893, 8.049190521248022 ], [ 5.062942982233153, 8.052833556723328 ], [ 5.066485404640105, 8.054468154833955 ], [ 5.069751262859086, 8.056855202455836 ], [ 5.073663711517383, 8.063376426886691 ], [ 5.077576637176037, 8.066419600954362 ], [ 5.083662510311115, 8.070766448907875 ], [ 5.092792033514229, 8.079461097815454 ], [ 5.112789631101634, 8.097720146221661 ], [ 5.1275706291446, 8.111196518378222 ], [ 5.134091853575512, 8.118587494400003 ], [ 5.151481152390716, 8.13554191591976 ], [ 5.164088248956659, 8.14380168853188 ], [ 5.168001174615256, 8.147714615190523 ], [ 5.171478747978142, 8.15206146214399 ], [ 5.175826072931955, 8.159887314461287 ], [ 5.177565098113519, 8.165972709596019 ], [ 5.177565098113519, 8.171625137436592 ], [ 5.180173396885721, 8.182058333525447 ], [ 5.181912422067342, 8.192491530614348 ], [ 5.185824870725639, 8.189014435251806 ], [ 5.191476821565857, 8.190752983433072 ], [ 5.193650246042637, 8.194231032796267 ], [ 5.193650246042637, 8.200317382931644 ], [ 5.197997569996403, 8.214228630383673 ], [ 5.208866119381071, 8.22553157806351 ], [ 5.217560768288706, 8.235964775152354 ], [ 5.224081515719263, 8.237704277334274 ], [ 5.227559566082391, 8.240312576106476 ], [ 5.230602741150108, 8.244225501765129 ], [ 5.239895821464302, 8.255067825132016 ], [ 5.245818138488232, 8.257266997626232 ], [ 5.255816936281974, 8.265526772238331 ], [ 5.263207436303446, 8.26813507101059 ], [ 5.274510859983593, 8.270744323783447 ], [ 5.281031609414129, 8.273787497851117 ], [ 5.28581380766343, 8.278569221100099 ], [ 5.290161132617243, 8.284220694940018 ], [ 5.299725056115449, 8.295523642619798 ], [ 5.306246280546361, 8.300740242164238 ], [ 5.311462879090755, 8.308566093481545 ], [ 5.321027278589327, 8.325085639705776 ], [ 5.324504851952156, 8.333780288613411 ], [ 5.332330227269154, 8.33117198884122 ], [ 5.335808276632349, 8.328563690068961 ], [ 5.343198775653832, 8.321607590342637 ], [ 5.347546100607644, 8.315521240207261 ], [ 5.353197575447552, 8.309869766367342 ], [ 5.353197575447552, 8.305522919413875 ], [ 5.352762699152038, 8.298131943392036 ], [ 5.353197575447552, 8.286828994712209 ], [ 5.356675147810392, 8.274656296441435 ], [ 5.36276149694578, 8.273352622555649 ], [ 5.372325897444341, 8.274221420145977 ], [ 5.38102054635192, 8.278134345804631 ], [ 5.387541293782476, 8.283350945349014 ], [ 5.397105694281038, 8.29204559325666 ], [ 5.404496193302521, 8.29204559325666 ], [ 5.41840743975456, 8.283785819644493 ], [ 5.421450614822277, 8.273787497851117 ], [ 5.419711589640656, 8.26770114871573 ], [ 5.421885490117745, 8.261614798580354 ], [ 5.422319889412904, 8.251180649490834 ], [ 5.418842316050075, 8.235530852857551 ], [ 5.422319889412904, 8.228139876835712 ], [ 5.431884288911476, 8.224661827472517 ], [ 5.442317963000676, 8.218141556042326 ], [ 5.4575333603388, 8.206403732067031 ] ] ] ] } },
{ "type": "Feature", "properties": { "fid": 130.0, "OBJECTID": 130.0, "lganame": "Oyun", "statecode": "KW", "LGA_UID": "23_15" }, "geometry": { "type": "MultiPolygon", "coordinates": [ [ [ [ 4.737548828143133, 8.230746268606651 ], [ 4.744415282808575, 8.215726852401644 ], [ 4.747418879849363, 8.209718704319414 ], [ 4.747848034140986, 8.203282355946214 ], [ 4.757288932555639, 8.183542251533709 ], [ 4.759863853305148, 8.177104950159901 ], [ 4.762867928346282, 8.161227226371693 ], [ 4.76415538822107, 8.156077384872617 ], [ 4.770163059303002, 8.137195587043323 ], [ 4.773596286635723, 8.123033524420862 ], [ 4.775742054093655, 8.116168021756096 ], [ 4.77917480542601, 8.098572730800925 ], [ 4.781426906956256, 8.092098236401796 ], [ 4.782608031758741, 8.088703156094994 ], [ 4.790761471298651, 8.080549239554784 ], [ 4.793765545339738, 8.073683738890054 ], [ 4.796499252197179, 8.067988396020326 ], [ 4.799294949096748, 8.065057755029102 ], [ 4.792447090443943, 8.06666088111831 ], [ 4.785638808818021, 8.068437576325493 ], [ 4.779158115414702, 8.068437576325493 ], [ 4.77471876139839, 8.068306923236719 ], [ 4.766197204608375, 8.068056107066297 ], [ 4.754760741837856, 8.065006255994092 ], [ 4.745611667621461, 8.064244270476365 ], [ 4.735319137628153, 8.063481330957984 ], [ 4.721214294044614, 8.064244270476365 ], [ 4.711684226569389, 8.059669495367984 ], [ 4.705588341427472, 8.051510810824539 ], [ 4.704441070647988, 8.048233031597476 ], [ 4.699608803364697, 8.049096107183914 ], [ 4.69567298869049, 8.052426338446651 ], [ 4.692242146359376, 8.056238174036594 ], [ 4.687286376992176, 8.057001113554975 ], [ 4.682712077884162, 8.054713249000486 ], [ 4.679662227811946, 8.052044868187409 ], [ 4.675087928703874, 8.049757956633584 ], [ 4.673563003667766, 8.045946121043642 ], [ 4.66555738422835, 8.043276787229956 ], [ 4.659458160084228, 8.045564650784456 ], [ 4.653358935940048, 8.050519943151301 ], [ 4.648403167572837, 8.053569794223563 ], [ 4.642684936687601, 8.053188323964378 ], [ 4.637347698061205, 8.053569794223563 ], [ 4.633916854730103, 8.057001113554975 ], [ 4.632392405694304, 8.061194420404149 ], [ 4.634137629880115, 8.068176270147944 ], [ 4.633916854730103, 8.071486473397101 ], [ 4.628961086362892, 8.074536324469307 ], [ 4.62171840744179, 8.075679779246229 ], [ 4.612950325484292, 8.073011398433209 ], [ 4.603038787749881, 8.068056107066297 ], [ 4.59808301938267, 8.063862801217169 ], [ 4.59045887020244, 8.062337875181072 ], [ 4.57902288443222, 8.057763100072691 ], [ 4.568998336621007, 8.05475616502963 ], [ 4.557268142650912, 8.058665275685712 ], [ 4.533486843492597, 8.071575165457375 ], [ 4.505629062564537, 8.091959000307213 ], [ 4.527365324333346, 8.076054433500815 ], [ 4.528497235102407, 8.078140931918483 ], [ 4.529923314071368, 8.079646984941746 ], [ 4.53182475236332, 8.087741927441925 ], [ 4.533060686203044, 8.093295340215207 ], [ 4.534962124494996, 8.096401452325665 ], [ 4.536673417657767, 8.098001561412843 ], [ 4.537909353497525, 8.101295883651176 ], [ 4.539335431466441, 8.104260750665674 ], [ 4.541474548919894, 8.105954950816795 ], [ 4.544469312954675, 8.107366778776054 ], [ 4.5493179802491, 8.10877860173531 ], [ 4.550173626830485, 8.11146105155791 ], [ 4.557589233869066, 8.115414104243825 ], [ 4.560726606000742, 8.118096510066437 ], [ 4.561297038388318, 8.120920074984895 ], [ 4.565575273295167, 8.123461267711491 ], [ 4.568256300116843, 8.125701268233513 ], [ 4.572914823282076, 8.12636008868111 ], [ 4.573675397798866, 8.13134827207034 ], [ 4.57207337071037, 8.136277083419259 ], [ 4.572629607088288, 8.139159831377981 ], [ 4.572344391894489, 8.141230338784794 ], [ 4.569290140819248, 8.147579575098803 ], [ 4.567305581470862, 8.149512264411953 ], [ 4.568399866214349, 8.152459164414211 ], [ 4.578373840991219, 8.156143496917537 ], [ 4.584347725050179, 8.159081458913761 ], [ 4.591642857006889, 8.166805267161749 ], [ 4.594646931048032, 8.171096802077614 ], [ 4.597651005089119, 8.18611621928261 ], [ 4.592930316881677, 8.198561667738716 ], [ 4.588639258966111, 8.204569816820992 ], [ 4.584776878341756, 8.212722778360501 ], [ 4.583060265175448, 8.220018387317566 ], [ 4.583060265175448, 8.229458808731863 ], [ 4.583060265175448, 8.235037803522516 ], [ 4.584776878341756, 8.240187645021592 ], [ 4.590785027424033, 8.251344680602301 ], [ 4.60108423242184, 8.263360976766819 ], [ 4.622111796709078, 8.281384468012902 ], [ 4.624257088166758, 8.288680076969911 ], [ 4.627690315499422, 8.303270339883341 ], [ 4.628977776374199, 8.308849334673994 ], [ 4.637989521497275, 8.326872825920134 ], [ 4.641851902121573, 8.336314201335085 ], [ 4.648345738533862, 8.34853535063877 ], [ 4.65043731995496, 8.351404304588073 ], [ 4.661853769711911, 8.358917642693086 ], [ 4.66410684624276, 8.356353759951048 ], [ 4.672320365823452, 8.344038009583073 ], [ 4.67832851390574, 8.335455893751885 ], [ 4.691202163652747, 8.315286636047858 ], [ 4.702788829525332, 8.294687271051544 ], [ 4.707509517732831, 8.282242774596114 ], [ 4.71394634210634, 8.268081664974261 ], [ 4.71952533689705, 8.2560653688098 ], [ 4.728966236311692, 8.245337485520679 ], [ 4.734115600810412, 8.23804187756366 ], [ 4.737548828143133, 8.230746268606651 ] ], [ [ 4.632411002706931, 8.109301567090654 ], [ 4.643139361996361, 8.108014107215922 ], [ 4.652151108119426, 8.109730721382277 ], [ 4.665454388158366, 8.110589026965442 ], [ 4.673607825698241, 8.114022255298153 ], [ 4.680902957654951, 8.11445140758974 ], [ 4.688627719903536, 8.112305641131798 ], [ 4.701930522942178, 8.11187648784022 ], [ 4.714375496397963, 8.11187648784022 ], [ 4.722100257646559, 8.11445140758974 ], [ 4.728537083020058, 8.116168021756096 ], [ 4.739265442309488, 8.117455481630884 ], [ 4.746560574266198, 8.122604370129295 ], [ 4.744415282808575, 8.128612518211526 ], [ 4.740982056475843, 8.135478972876967 ], [ 4.738836288017922, 8.138912201209678 ], [ 4.734544754101989, 8.142773627833378 ], [ 4.732399463644413, 8.148352622624031 ], [ 4.726391314562136, 8.152644156539907 ], [ 4.72295856522976, 8.154789924997885 ], [ 4.722100257646559, 8.159939766496962 ], [ 4.721671104354982, 8.166805267161749 ], [ 4.718237877022261, 8.173671721827191 ], [ 4.715233802981118, 8.181825638367343 ], [ 4.712658882231608, 8.18869113903213 ], [ 4.711371899357175, 8.192982673948052 ], [ 4.709655285190763, 8.197703362155551 ], [ 4.709655285190763, 8.201136589488272 ], [ 4.708367825316031, 8.205857276695724 ], [ 4.707080364441254, 8.210147857610991 ], [ 4.705792903566476, 8.212722778360501 ], [ 4.703217982816966, 8.214439391526867 ], [ 4.698068619318178, 8.216156005693222 ], [ 4.693777084402313, 8.21744346556801 ], [ 4.687340260028805, 8.21486854581849 ], [ 4.683048725112883, 8.210577010902568 ], [ 4.676182747447797, 8.205428123404147 ], [ 4.669745445073943, 8.198132515447128 ], [ 4.668028830907588, 8.194699287114418 ], [ 4.663737773992011, 8.181825638367343 ], [ 4.658587933492925, 8.174959182701912 ], [ 4.654726027868946, 8.169380187911258 ], [ 4.650434493953071, 8.162513733245817 ], [ 4.644426822871139, 8.159939766496962 ], [ 4.639706134663641, 8.156935692455818 ], [ 4.630265236248988, 8.150498390081964 ], [ 4.622970104292278, 8.141915321250167 ], [ 4.621253490125923, 8.139341353501266 ], [ 4.62382841087549, 8.129899979086304 ], [ 4.631552696123777, 8.123033524420862 ], [ 4.633269310290132, 8.121316910254507 ], [ 4.630694388540576, 8.111447333548597 ], [ 4.632411002706931, 8.109301567090654 ] ] ] ] } },
{ "type": "Feature", "properties": { "fid": 159.0, "OBJECTID": 159.0, "lganame": "Ilorin East", "statecode": "KW", "LGA_UID": "23_06" }, "geometry": { "type": "MultiPolygon", "coordinates": [ [ [ [ 4.692646502634148, 8.530300140139389 ], [ 4.683525562436898, 8.518691063251595 ], [ 4.676814555877058, 8.506817818184288 ], [ 4.679351329600649, 8.50218868303898 ], [ 4.692054749232057, 8.488469123717209 ], [ 4.698660373720259, 8.48592853499099 ], [ 4.721840892470311, 8.478873986197755 ], [ 4.72203445360185, 8.478815079157755 ], [ 4.727623940399667, 8.474749565395427 ], [ 4.738295077650207, 8.462553978109099 ], [ 4.743630409275283, 8.454423903585052 ], [ 4.748711585727733, 8.444769859025598 ], [ 4.753284930835093, 8.435114861465479 ], [ 4.753793240180471, 8.427493095286877 ], [ 4.755825519561313, 8.415297508000549 ], [ 4.754809379870892, 8.403610229059552 ], [ 4.753284930835093, 8.395480155535552 ], [ 4.747082375620721, 8.392378517428142 ], [ 4.745154858311082, 8.391414641773224 ], [ 4.737350365008297, 8.388605249864383 ], [ 4.737384367031382, 8.390758272327275 ], [ 4.737233767929069, 8.392809368720918 ], [ 4.734914479353222, 8.39240421844562 ], [ 4.731408702971237, 8.392051516205981 ], [ 4.727486988306623, 8.391875164086173 ], [ 4.724634831368689, 8.392169083285864 ], [ 4.72279281311711, 8.393344755084684 ], [ 4.718514578210261, 8.399987233597926 ], [ 4.714236343303412, 8.4052776221925 ], [ 4.710671146880998, 8.404337113553481 ], [ 4.705442193328167, 8.403490654978327 ], [ 4.69869208774179, 8.404995470000756 ], [ 4.695935003868499, 8.406406228959327 ], [ 4.692512415543035, 8.409321781940321 ], [ 4.68994547479889, 8.409697981195905 ], [ 4.688804612023716, 8.412989704432505 ], [ 4.685762310956648, 8.41693973511633 ], [ 4.68291015501876, 8.419667113969467 ], [ 4.678726991176461, 8.42032544441679 ], [ 4.675779763173978, 8.420231397352893 ], [ 4.673212822429832, 8.419667113969467 ], [ 4.673498036623641, 8.417033783180273 ], [ 4.671026167944149, 8.414494483454916 ], [ 4.670309140456936, 8.412265212940213 ], [ 4.669695162039773, 8.410356327643228 ], [ 4.668174011006215, 8.410168228515431 ], [ 4.666843005101839, 8.408193183173466 ], [ 4.664751422680752, 8.40809414610618 ], [ 4.66332534471178, 8.40541371128495 ], [ 4.663059562531203, 8.400477614931106 ], [ 4.65370138617277, 8.402509733311831 ], [ 4.637938023462254, 8.405135155095707 ], [ 4.634127139872987, 8.44222831729877 ], [ 4.62040710355086, 8.438163756537051 ], [ 4.60719585357441, 8.435623168810878 ], [ 4.603130340812072, 8.436131477156209 ], [ 4.58839464179988, 8.438672065882429 ], [ 4.582304477661921, 8.437612534162554 ], [ 4.571161795090973, 8.441102403533762 ], [ 4.563496080882487, 8.447673162998285 ], [ 4.550424783001176, 8.462601997141689 ], [ 4.541036255622089, 8.478509647950204 ], [ 4.53509593658589, 8.50110267430108 ], [ 4.533062858204516, 8.521167048933933 ], [ 4.531677168263002, 8.531420394900579 ], [ 4.53300762216702, 8.540206092870051 ], [ 4.533319699379035, 8.550175832644015 ], [ 4.535522085875471, 8.557601794689617 ], [ 4.543117891036445, 8.560452450626485 ], [ 4.549244938199479, 8.560327286541451 ], [ 4.550207614853605, 8.559856415221532 ], [ 4.552323341291128, 8.559770584163175 ], [ 4.557765006988461, 8.559551239014183 ], [ 4.572688580128329, 8.558873176553448 ], [ 4.590360685135693, 8.556909726219374 ], [ 4.592517859601401, 8.552043588913079 ], [ 4.600028539704567, 8.537282977883933 ], [ 4.602080270098611, 8.528675018035244 ], [ 4.605362073328479, 8.530731404432458 ], [ 4.606968788420147, 8.531756221128774 ], [ 4.60835683836325, 8.532611799710082 ], [ 4.60970685828056, 8.533269937157229 ], [ 4.610600533887748, 8.533711828457513 ], [ 4.612106234910812, 8.534496887990883 ], [ 4.613386734780818, 8.534875903248405 ], [ 4.61442064248331, 8.535099198400133 ], [ 4.615799184419984, 8.535393006599804 ], [ 4.616987583227456, 8.535651558775442 ], [ 4.618401777188296, 8.535957119983038 ], [ 4.620089303334908, 8.536415461294496 ], [ 4.621372774206975, 8.536873801605907 ], [ 4.622584940030606, 8.537367398941285 ], [ 4.623951598959138, 8.538002023372485 ], [ 4.625460864984632, 8.538718911859576 ], [ 4.627077087082796, 8.539647339490386 ], [ 4.628562585092141, 8.540514065079321 ], [ 4.630012432077194, 8.541183939534449 ], [ 4.631593002151135, 8.541818557965655 ], [ 4.63318545623315, 8.542453174396826 ], [ 4.634754142298959, 8.543123045851985 ], [ 4.637142823921977, 8.543910438386945 ], [ 4.638924082132235, 8.544490812781305 ], [ 4.639270849367847, 8.546592650209391 ], [ 4.639499021522909, 8.548101606234695 ], [ 4.639308878393706, 8.549902004457977 ], [ 4.638133090594806, 8.55103601322844 ], [ 4.637919759449858, 8.551850230781668 ], [ 4.638900188116054, 8.552966655540217 ], [ 4.640326266084969, 8.553524866919531 ], [ 4.641899092153665, 8.554809464792356 ], [ 4.650019168670838, 8.555481911249217 ], [ 4.663586139888992, 8.561586380396932 ], [ 4.679187775489538, 8.57447528815436 ], [ 4.681206257860993, 8.57615728429721 ], [ 4.691398143785932, 8.584650040067629 ], [ 4.706999779386479, 8.598217010285737 ], [ 4.713783263995538, 8.605000495894785 ], [ 4.721923350526367, 8.61381912188665 ], [ 4.741595267892535, 8.630777359408967 ], [ 4.765336990023911, 8.647057533470559 ], [ 4.780939101624767, 8.661980628610138 ], [ 4.808751105521765, 8.680974959515879 ], [ 4.825031280583346, 8.693184852811896 ], [ 4.833849429574855, 8.704716681647255 ], [ 4.84063291518396, 8.713535308639109 ], [ 4.845381260410193, 8.724388123013057 ], [ 4.854877948862793, 8.731849670082852 ], [ 4.860983372011106, 8.737277030770485 ], [ 4.869801521002614, 8.741346358535395 ], [ 4.880776405459528, 8.746441840997534 ], [ 4.882530688651514, 8.743401526931791 ], [ 4.889163971158496, 8.727646828227194 ], [ 4.917356491314024, 8.71603775033941 ], [ 4.932281971455154, 8.708575249268961 ], [ 4.943890572342639, 8.698625564508632 ], [ 4.972912312061567, 8.687845230183882 ], [ 4.983691692385662, 8.676237106296696 ], [ 4.982456078546136, 8.666352791580778 ], [ 4.981204032695416, 8.656336783775373 ], [ 4.949695110286598, 8.640582085070832 ], [ 4.919014931440813, 8.624827385366245 ], [ 4.907487298608373, 8.618602515136729 ], [ 4.907487386608409, 8.618602429136672 ], [ 4.877555370271011, 8.60243892715431 ], [ 4.86511754982007, 8.58834266657658 ], [ 4.855167389059432, 8.580051421943097 ], [ 4.837754250228045, 8.576734542689394 ], [ 4.819512366833521, 8.575076102562548 ], [ 4.794739294001374, 8.569414716715926 ], [ 4.779600985715604, 8.565955162365299 ], [ 4.752275972149562, 8.559710581122431 ], [ 4.723326683479854, 8.549371719097678 ], [ 4.703425883958232, 8.537762642209827 ], [ 4.697762712110318, 8.533842060545965 ], [ 4.692646502634148, 8.530300140139389 ] ] ] ] } },
{ "type": "Feature", "properties": { "fid": 167.0, "OBJECTID": 167.0, "lganame": "Ifelodun", "statecode": "KW", "LGA_UID": "23_05" }, "geometry": { "type": "MultiPolygon", "coordinates": [ [ [ [ 4.993227481864778, 8.836270332031802 ], [ 4.997373103681525, 8.828807830961352 ], [ 5.011469364259256, 8.829636573524454 ], [ 5.029711722654099, 8.826319695270797 ], [ 5.051270485302268, 8.817198753073512 ], [ 5.057074547245861, 8.807249069313173 ], [ 5.07863378489435, 8.767447472269907 ], [ 5.079778413672045, 8.762487665899926 ], [ 5.081121444584596, 8.756668090945823 ], [ 5.090242385781835, 8.737596511987533 ], [ 5.098534107415674, 8.72930526735405 ], [ 5.109313487739769, 8.725988388100404 ], [ 5.120922088627253, 8.716867446903109 ], [ 5.139993667585486, 8.709404944832727 ], [ 5.156577586853473, 8.700283050634823 ], [ 5.162381648797066, 8.69447898869123 ], [ 5.19306182864284, 8.689503670310728 ], [ 5.208816051347071, 8.678724288986643 ], [ 5.237008571502543, 8.660482406592166 ], [ 5.257738112587333, 8.655507088211664 ], [ 5.274322032855309, 8.656336783775373 ], [ 5.290076732559896, 8.669603347789405 ], [ 5.305002212701027, 8.685358047493992 ], [ 5.310746944604318, 8.690743720153307 ], [ 5.310746952604347, 8.690743779153308 ], [ 5.318269252715368, 8.697795867944876 ], [ 5.326560974349206, 8.705258369015326 ], [ 5.338998794800148, 8.709404944832727 ], [ 5.355582714068134, 8.713550567649463 ], [ 5.372166157335812, 8.71603775033941 ], [ 5.38045835496996, 8.71603775033941 ], [ 5.40284633618154, 8.704429626452225 ], [ 5.408650398125133, 8.700283050634823 ], [ 5.413625716505635, 8.68618774405769 ], [ 5.420673847294495, 8.65882396746531 ], [ 5.423161506984741, 8.640582085070832 ], [ 5.423990725548151, 8.613218307478405 ], [ 5.420673847294495, 8.591659545830225 ], [ 5.419015408167638, 8.569272040619012 ], [ 5.420673847294495, 8.548542022533923 ], [ 5.420673847294495, 8.533617020393081 ], [ 5.425649165674997, 8.516203879561658 ], [ 5.435599327435625, 8.492156982222923 ], [ 5.440574168815829, 8.485524177716229 ], [ 5.44637870775972, 8.479719161772039 ], [ 5.433111667745379, 8.466452598757996 ], [ 5.412382125660656, 8.452356339180255 ], [ 5.396627425956069, 8.438260077602536 ], [ 5.380872726251482, 8.420846938771092 ], [ 5.372581004617643, 8.409238814883906 ], [ 5.359313964603359, 8.395142555306165 ], [ 5.347705363715818, 8.382704734855281 ], [ 5.341900825771916, 8.375241279784177 ], [ 5.330789566222336, 8.355672836488395 ], [ 5.327473163968989, 8.349039077981047 ], [ 5.322829722813992, 8.34439563782604 ], [ 5.321502685912321, 8.341078757572404 ], [ 5.323493004264662, 8.337099074868377 ], [ 5.324504851952156, 8.333780288613411 ], [ 5.321027278589327, 8.325085639705776 ], [ 5.311462879090755, 8.308566093481545 ], [ 5.306246280546361, 8.300740242164238 ], [ 5.299725056115449, 8.295523642619798 ], [ 5.290161132617243, 8.284220694940018 ], [ 5.28581380766343, 8.278569221100099 ], [ 5.281031609414129, 8.273787497851117 ], [ 5.274510859983593, 8.270744323783447 ], [ 5.263207436303446, 8.26813507101059 ], [ 5.255816936281974, 8.265526772238331 ], [ 5.245818138488232, 8.257266997626232 ], [ 5.239895821464302, 8.255067825132016 ], [ 5.234080314512937, 8.25465869885403 ], [ 5.220603943356366, 8.249442101309569 ], [ 5.20930051767624, 8.248572349718643 ], [ 5.197997569996403, 8.249442101309569 ], [ 5.186694622316622, 8.247268676832846 ], [ 5.175826072931955, 8.252050400081771 ], [ 5.176260948227423, 8.264223099352591 ], [ 5.176695823522891, 8.279004097395557 ], [ 5.177999973408987, 8.292480468552128 ], [ 5.175391673636796, 8.299001693982973 ], [ 5.168001174615256, 8.313782692025995 ], [ 5.15669774993512, 8.336388588385603 ], [ 5.152350425981354, 8.345952987884175 ], [ 5.146481030993357, 8.353863810259213 ], [ 5.142351627187622, 8.359429359040746 ], [ 5.13452672987097, 8.364212036290326 ], [ 5.121919155304738, 8.365080832880665 ], [ 5.101921557717276, 8.364645957585196 ], [ 5.08714055967431, 8.364212036290326 ], [ 5.084212435684776, 8.363554614843679 ], [ 5.065838814200788, 8.359429359040746 ], [ 5.048449516385574, 8.352908133609901 ], [ 5.035407065523827, 8.349864959542174 ], [ 5.024973869434973, 8.348561286656377 ], [ 5.014540195345774, 8.348126411360909 ], [ 5.000618445886573, 8.346698881390978 ], [ 4.997585296825719, 8.346387863179643 ], [ 4.985413073555264, 8.346821785474503 ], [ 4.977587700238303, 8.348996161951902 ], [ 4.964545727376844, 8.353343009905359 ], [ 4.955416203173797, 8.355517387382747 ], [ 4.943629491165268, 8.356253501882918 ], [ 4.941504954721722, 8.356386184973076 ], [ 4.930202007041942, 8.359864235336204 ], [ 4.92063760754337, 8.365515709176123 ], [ 4.9071607593865, 8.369863510130244 ], [ 4.890641212162222, 8.370297432425104 ], [ 4.88503027034983, 8.369849205120545 ], [ 4.881457543922352, 8.369563327926301 ], [ 4.868904591393232, 8.368558884243839 ], [ 4.856731892122411, 8.367689132652856 ], [ 4.837168693830165, 8.36290741040392 ], [ 4.820214272310409, 8.358994483745278 ], [ 4.806302546858092, 8.347256659769982 ], [ 4.804563998676826, 8.342040062225522 ], [ 4.803694248085833, 8.33421516390888 ], [ 4.80325984979072, 8.316825867093655 ], [ 4.806302546858092, 8.3020448680507 ], [ 4.808911323630582, 8.277699470509106 ], [ 4.804129124381348, 8.26291847246614 ], [ 4.798042774245914, 8.248137474423118 ], [ 4.789348125338336, 8.233791350675631 ], [ 4.775871277181466, 8.222923279291308 ], [ 4.76717662827383, 8.215967177564949 ], [ 4.755438805298525, 8.210750580020488 ], [ 4.747418879849363, 8.209718704319414 ], [ 4.744415282808575, 8.215726852401644 ], [ 4.737548828143133, 8.230746268606651 ], [ 4.734115600810412, 8.23804187756366 ], [ 4.728966236311692, 8.245337485520679 ], [ 4.71952533689705, 8.2560653688098 ], [ 4.71394634210634, 8.268081664974261 ], [ 4.707509517732831, 8.282242774596114 ], [ 4.702788829525332, 8.294687271051544 ], [ 4.691202163652747, 8.315286636047858 ], [ 4.67832851390574, 8.335455893751885 ], [ 4.672320365823452, 8.344038009583073 ], [ 4.66410684624276, 8.356353759951048 ], [ 4.661853769711911, 8.358917642693086 ], [ 4.66185379571192, 8.358917659693077 ], [ 4.649371147230568, 8.373122215344381 ], [ 4.643781662432787, 8.376679419761331 ], [ 4.636891952751512, 8.37896792531626 ], [ 4.636679403607104, 8.378638486092427 ], [ 4.635751089976338, 8.377199648114811 ], [ 4.63510460053709, 8.376409563578022 ], [ 4.634058809826513, 8.375920464245667 ], [ 4.631586075146458, 8.374138832035158 ], [ 4.62934017162047, 8.380662918467976 ], [ 4.622694016104674, 8.393956183500109 ], [ 4.620661258723544, 8.399545670297869 ], [ 4.623710154795106, 8.40157794967871 ], [ 4.629299640592933, 8.405135155095707 ], [ 4.637938023462254, 8.405135155095707 ], [ 4.65370138617277, 8.402509733311831 ], [ 4.663059562531203, 8.400477614931106 ], [ 4.66332534471178, 8.40541371128495 ], [ 4.664751422680752, 8.40809414610618 ], [ 4.666843005101839, 8.408193183173466 ], [ 4.668174011006215, 8.410168228515431 ], [ 4.669695162039773, 8.410356327643228 ], [ 4.670309140456936, 8.412265212940213 ], [ 4.671026167944149, 8.414494483454916 ], [ 4.673498036623641, 8.417033783180273 ], [ 4.673212822429832, 8.419667113969467 ], [ 4.675779763173978, 8.420231397352893 ], [ 4.678726991176461, 8.42032544441679 ], [ 4.68291015501876, 8.419667113969467 ], [ 4.685762310956648, 8.41693973511633 ], [ 4.688804612023716, 8.412989704432505 ], [ 4.68994547479889, 8.409697981195905 ], [ 4.692512415543035, 8.409321781940321 ], [ 4.695935003868499, 8.406406228959327 ], [ 4.69869208774179, 8.404995470000756 ], [ 4.705442193328167, 8.403490654978327 ], [ 4.710671146880998, 8.404337113553481 ], [ 4.714236343303412, 8.4052776221925 ], [ 4.718514578210261, 8.399987233597926 ], [ 4.72279281311711, 8.393344755084684 ], [ 4.724634831368689, 8.392169083285864 ], [ 4.727486988306623, 8.391875164086173 ], [ 4.731408702971237, 8.392051516205981 ], [ 4.734914479353222, 8.39240421844562 ], [ 4.737233767929069, 8.392809368720918 ], [ 4.737384367031382, 8.390758272327275 ], [ 4.737350365008297, 8.388605249864383 ], [ 4.745154858311082, 8.391414641773224 ], [ 4.747082375620721, 8.392378517428142 ], [ 4.753284930835093, 8.395480155535552 ], [ 4.754809379870892, 8.403610229059552 ], [ 4.755825519561313, 8.415297508000549 ], [ 4.753793240180471, 8.427493095286877 ], [ 4.753284930835093, 8.435114861465479 ], [ 4.748711585727733, 8.444769859025598 ], [ 4.743630409275283, 8.454423903585052 ], [ 4.738295077650207, 8.462553978109099 ], [ 4.727623940399667, 8.474749565395427 ], [ 4.72203445360185, 8.478815079157755 ], [ 4.721840892470311, 8.478873986197755 ], [ 4.698660373720259, 8.48592853499099 ], [ 4.692054749232057, 8.488469123717209 ], [ 4.679351329600649, 8.50218868303898 ], [ 4.676814555877058, 8.506817818184288 ], [ 4.683525562436898, 8.518691063251595 ], [ 4.692646502634148, 8.530300140139389 ], [ 4.697762712110318, 8.533842060545965 ], [ 4.703425883958232, 8.537762642209827 ], [ 4.723326683479854, 8.549371719097678 ], [ 4.752275972149562, 8.559710581122431 ], [ 4.779600985715604, 8.565955162365299 ], [ 4.794739294001374, 8.569414716715926 ], [ 4.819512366833521, 8.575076102562548 ], [ 4.837754250228045, 8.576734542689394 ], [ 4.855167389059432, 8.580051421943097 ], [ 4.86511754982007, 8.58834266657658 ], [ 4.877555370271011, 8.60243892715431 ], [ 4.907487386608409, 8.618602429136672 ], [ 4.907487298608373, 8.618602515136729 ], [ 4.919014931440813, 8.624827385366245 ], [ 4.949695110286598, 8.640582085070832 ], [ 4.981204032695416, 8.656336783775373 ], [ 4.982456078546136, 8.666352791580778 ], [ 4.983691692385662, 8.676237106296696 ], [ 4.972912312061567, 8.687845230183882 ], [ 4.943890572342639, 8.698625564508632 ], [ 4.932281971455154, 8.708575249268961 ], [ 4.917356491314024, 8.71603775033941 ], [ 4.889163971158496, 8.727646828227194 ], [ 4.882530688651514, 8.743401526931791 ], [ 4.880776405459528, 8.746441840997534 ], [ 4.870092869200562, 8.764960288579971 ], [ 4.862629890129824, 8.783202170974448 ], [ 4.847704886988993, 8.798956870679035 ], [ 4.835267066538108, 8.813881873819867 ], [ 4.829196773413628, 8.82491885531897 ], [ 4.826145649340503, 8.830466270088209 ], [ 4.815366268016419, 8.846220969792796 ], [ 4.814119716169444, 8.853699874874337 ], [ 4.812878609326162, 8.861145972933627 ], [ 4.808732985509437, 8.879387856328094 ], [ 4.80624532681918, 8.895142555032692 ], [ 4.807074547382626, 8.914214133990924 ], [ 4.804586886692334, 8.928310393568665 ], [ 4.802099228002078, 8.951527596343681 ], [ 4.804586886692334, 8.96230697566773 ], [ 4.812878609326162, 8.97474479711866 ], [ 4.82780408946735, 8.984695434879654 ], [ 4.830291748157606, 8.990499495823258 ], [ 4.839412689354845, 8.992157935950104 ], [ 4.851021290242329, 8.99796199789364 ], [ 4.851850509805786, 9.007082939090935 ], [ 4.851850509805786, 9.013716697598227 ], [ 4.858484268313077, 9.016203880288174 ], [ 4.865946770383516, 9.01786232041502 ], [ 4.872580527890818, 9.020350456105575 ], [ 4.877555370271011, 9.021179198668676 ], [ 4.878384589834411, 9.029471397302814 ], [ 4.878384589834411, 9.033617020119607 ], [ 4.880043029961257, 9.042737961316845 ], [ 4.877555370271011, 9.047713279697348 ], [ 4.881287097806535, 9.054347038204639 ], [ 4.884603500059882, 9.057663918458331 ], [ 4.890408039003773, 9.056834220894586 ], [ 4.896212100947366, 9.042737961316845 ], [ 4.902845860454704, 9.027812958176014 ], [ 4.907820701834851, 9.01952075954182 ], [ 4.907820701834851, 9.003766059837233 ], [ 4.907820701834851, 8.993816376076893 ], [ 4.902845860454704, 8.986353874006511 ], [ 4.897041320510823, 8.975573539681761 ], [ 4.897041320510823, 8.966452599484512 ], [ 4.895382881383966, 8.938260078328994 ], [ 4.89455366082052, 8.907580376483622 ], [ 4.89455366082052, 8.90177631354004 ], [ 4.905333519144961, 8.88270473458175 ], [ 4.91388304595398, 8.875936322982966 ], [ 4.925233840666294, 8.86695003487722 ], [ 4.939753375531609, 8.860658311602265 ], [ 4.95010948156812, 8.856170653553136 ], [ 4.960059643328805, 8.852853775299423 ], [ 4.968351840962953, 8.847879409919585 ], [ 4.98493528423063, 8.842904090539093 ], [ 4.992553954407128, 8.836809159397887 ], [ 4.993227481864778, 8.836270332031802 ] ] ] ] } },
{ "type": "Feature", "properties": { "fid": 196.0, "OBJECTID": 196.0, "lganame": "Pategi", "statecode": "KW", "LGA_UID": "23_16" }, "geometry": { "type": "MultiPolygon", "coordinates": [ [ [ [ 6.208536147609891, 8.732375145439903 ], [ 6.183696746732664, 8.686576843322086 ], [ 6.169870377338327, 8.662991524296956 ], [ 6.1625509263651, 8.637779236166409 ], [ 6.154417991839125, 8.617446899351535 ], [ 6.147911549418325, 8.59630107898397 ], [ 6.139778613892361, 8.58084774048416 ], [ 6.13327217147156, 8.567834853642466 ], [ 6.125139235945596, 8.555635452353556 ], [ 6.123512267840169, 8.538556098748927 ], [ 6.119445801077177, 8.510904311960871 ], [ 6.117005825419369, 8.483251572172094 ], [ 6.113752842209067, 8.461293221252447 ], [ 6.113752842209067, 8.4450263981999 ], [ 6.113124846782398, 8.441468238782306 ], [ 6.11131286555127, 8.431200980806182 ], [ 6.097486973157174, 8.414121628201599 ], [ 6.082657814081472, 8.401763915805077 ], [ 6.077967643894738, 8.397855759149707 ], [ 6.060074805737372, 8.393788338386059 ], [ 6.040555954475224, 8.392975806833988 ], [ 6.02022314066005, 8.397855759149707 ], [ 6.01371669823925, 8.400295257807215 ], [ 5.990944385766511, 8.401922225912642 ], [ 5.978744984477601, 8.405175209122888 ], [ 5.95678567855731, 8.408428192333133 ], [ 5.942959785163225, 8.412494659096126 ], [ 5.925066948005906, 8.418188094964535 ], [ 5.912054062164259, 8.423880576832346 ], [ 5.897414684217495, 8.423068047280253 ], [ 5.88358879082341, 8.423068047280253 ], [ 5.865695952666101, 8.423068047280253 ], [ 5.849430083614209, 8.422254561727527 ], [ 5.829097747799324, 8.426321030490499 ], [ 5.818524836615552, 8.427134514043246 ], [ 5.805511950773905, 8.425507544937773 ], [ 5.79087257382713, 8.427134514043246 ], [ 5.782739639301155, 8.427947043595282 ], [ 5.766473293248964, 8.432826995911 ], [ 5.748580933091944, 8.437706947226673 ], [ 5.719302177198415, 8.443400383095138 ], [ 5.704662323251284, 8.445839881752647 ], [ 5.688176632050045, 8.452851294516563 ], [ 5.658304213753127, 8.459666252147031 ], [ 5.64285183025396, 8.462919235357276 ], [ 5.599746703966105, 8.48894500704057 ], [ 5.588360310229575, 8.497077941566488 ], [ 5.574534415835501, 8.506024360645142 ], [ 5.554202080020673, 8.512530327065633 ], [ 5.544442177389271, 8.523103714249771 ], [ 5.533869267205432, 8.530423164223009 ], [ 5.524109839574407, 8.536930083644165 ], [ 5.513207436166738, 8.538522719726245 ], [ 5.517277717932302, 8.550054549561594 ], [ 5.515920639010233, 8.558195114092712 ], [ 5.503710746714148, 8.57922363338065 ], [ 5.486073970730786, 8.609748840121085 ], [ 5.477255343738932, 8.635525702635221 ], [ 5.463010311060145, 8.665372848914956 ], [ 5.457583427372811, 8.675547599828235 ], [ 5.454870223529326, 8.699289321959611 ], [ 5.450121880303016, 8.720317841247493 ], [ 5.454191685068281, 8.747451781683765 ], [ 5.46029710821665, 8.764410019206082 ], [ 5.461653709138375, 8.78272533365049 ], [ 5.462331771599111, 8.796970367329322 ], [ 5.461653709138375, 8.804432869399704 ], [ 5.450121880303016, 8.826817512609011 ], [ 5.447408676459531, 8.842419624209924 ], [ 5.448086738920267, 8.861413002115057 ], [ 5.458261966833845, 8.868196486724116 ], [ 5.466402054364664, 8.878371238637385 ], [ 5.473185538973723, 8.885833739707778 ], [ 5.479969024582772, 8.895330429160367 ], [ 5.492857456339834, 8.906183242534325 ], [ 5.506423949557643, 8.913645743604718 ], [ 5.516599178471267, 8.920428276213158 ], [ 5.522704123619292, 8.930603981127035 ], [ 5.525417805463064, 8.937387465736094 ], [ 5.525417805463064, 8.940100669579635 ], [ 5.539562702073852, 8.930567741102436 ], [ 5.543629168836844, 8.916741370708053 ], [ 5.563148022098972, 8.898848533550733 ], [ 5.572907924730373, 8.892342567130243 ], [ 5.601373196071222, 8.876889228630432 ], [ 5.605439662834158, 8.867942809551721 ], [ 5.619266033228541, 8.852490425052565 ], [ 5.642038344701234, 8.835411072447926 ], [ 5.66562414172671, 8.830531120132264 ], [ 5.691649914409993, 8.828091621474755 ], [ 5.712795733777568, 8.828905106027435 ], [ 5.72824811927677, 8.81995868694878 ], [ 5.742074489671097, 8.797999382028479 ], [ 5.760780334380854, 8.773600578450612 ], [ 5.774606227774882, 8.753267287635083 ], [ 5.795752048142504, 8.741881370898909 ], [ 5.824217796483651, 8.742694855451646 ], [ 5.86488294611371, 8.745134354109155 ], [ 5.886841774033712, 8.746761322214638 ], [ 5.901481151980477, 8.750014305424884 ], [ 5.92832040821645, 8.742694855451646 ], [ 5.943772792715663, 8.748388290320065 ], [ 5.974678515714629, 8.756521224845983 ], [ 5.978744984477601, 8.750014305424884 ], [ 5.999890803845176, 8.751641272530321 ], [ 6.033236026501697, 8.758960723503549 ], [ 6.058448314632244, 8.758960723503549 ], [ 6.084474087315527, 8.760587691608976 ], [ 6.114566325761814, 8.758147239950802 ], [ 6.131645203366134, 8.751641272530321 ], [ 6.14465808920778, 8.729681968610009 ], [ 6.149538039523463, 8.720735549531298 ], [ 6.1690573687859, 8.721549034084035 ], [ 6.185323237837792, 8.729681968610009 ], [ 6.203216075995158, 8.734561919925682 ], [ 6.208536147609891, 8.732375145439903 ] ] ] ] } },
{ "type": "Feature", "properties": { "fid": 670.0, "OBJECTID": 670.0, "lganame": "Baruten", "statecode": "KW", "LGA_UID": "23_02" }, "geometry": { "type": "MultiPolygon", "coordinates": [ [ [ [ 3.715393781636806, 10.089399338474038 ], [ 3.730682373024706, 10.068286896129109 ], [ 3.73650670098209, 10.068286896129109 ], [ 3.73650670098209, 10.07483863758074 ], [ 3.734322548498028, 10.079935074043533 ], [ 3.735050439992619, 10.087943077484567 ], [ 3.743058920434009, 10.0843038560119 ], [ 3.745970964412606, 10.077023506065245 ], [ 3.750339031380463, 10.068286896129109 ], [ 3.757619381327117, 10.063190459666316 ], [ 3.761987686295186, 10.058822631698604 ], [ 3.766355753263099, 10.0537261962358 ], [ 3.771451949725702, 10.047174453784237 ], [ 3.772180080220437, 10.040621758331952 ], [ 3.775092125199023, 10.033341408385297 ], [ 3.783828497135005, 10.031157493901446 ], [ 3.788196564102918, 10.034069060879744 ], [ 3.788196564102918, 10.038437842848111 ], [ 3.784556388629539, 10.045718192794766 ], [ 3.780188321661683, 10.052269936246375 ], [ 3.784556388629539, 10.062462807171926 ], [ 3.794020891060256, 10.062462807171926 ], [ 3.796932936038843, 10.066102981645258 ], [ 3.799117087522859, 10.071198463107407 ], [ 3.818045616383927, 10.066830635139695 ], [ 3.823319196967077, 10.054306029629799 ], [ 3.819940804671603, 10.056839943351463 ], [ 3.81607747104664, 9.704633713043904 ], [ 3.810599804324852, 9.205241202730122 ], [ 3.810251236087993, 9.17346191413759 ], [ 3.795327901948326, 9.1652536385605 ], [ 3.77073431023814, 9.146808624027926 ], [ 3.753826140749823, 9.120677948273396 ], [ 3.752289056705422, 9.086861610296751 ], [ 3.743066311439009, 9.046896935142684 ], [ 3.720009803773223, 9.013080597166038 ], [ 3.682179689069415, 8.994165421314051 ], [ 3.655451297908712, 8.980800629233329 ], [ 3.603774308796631, 8.960129738188414 ], [ 3.524797201135414, 8.928539275724177 ], [ 3.416131496302171, 8.860165596267507 ], [ 3.38799476618459, 8.842461586238471 ], [ 3.338807343764017, 8.825552939749798 ], [ 3.281934500121622, 8.804033279128191 ], [ 3.23735833183423, 8.782514571507249 ], [ 3.19739365568006, 8.796348571906833 ], [ 3.183559656280522, 8.81171894135025 ], [ 3.163577317703471, 8.808645248261826 ], [ 3.131298064771215, 8.777902603373661 ], [ 3.103630065972141, 8.75023460357454 ], [ 3.051368475462823, 8.728715896953588 ], [ 3.0144779683975, 8.710269928420416 ], [ 2.942233801310977, 8.638026237334259 ], [ 2.920714377689535, 8.611895560579683 ], [ 2.888435124757279, 8.608820915490583 ], [ 2.840784788381143, 8.610358237535138 ], [ 2.802357197271363, 8.610358237535138 ], [ 2.785398358748637, 8.597389796723689 ], [ 2.7563886640379, 8.575206052650856 ], [ 2.7563886640379, 8.581943512228634 ], [ 2.746944426620985, 8.719444274653938 ], [ 2.742957591912159, 8.770763396522909 ], [ 2.745277405488366, 8.795276642178521 ], [ 2.783055306156655, 9.016666412602433 ], [ 2.789443970497473, 9.043888092098314 ], [ 2.794722080083659, 9.056943892969116 ], [ 2.813611029917809, 9.0652770986311 ], [ 2.905277729201032, 9.078887938879063 ], [ 2.96749973347795, 9.081665038765948 ], [ 2.987499714067042, 9.061109542799443 ], [ 3.004999636957393, 9.0652770986311 ], [ 3.094999790108261, 9.090555190806413 ], [ 3.131388663832809, 9.19444274939309 ], [ 3.166388510613558, 9.302776337000694 ], [ 3.16671051983235, 9.339327735835639 ], [ 3.166944026991018, 9.365833282844903 ], [ 3.165832996236077, 9.37138748161874 ], [ 3.159999847272729, 9.386110305622196 ], [ 3.152222156988159, 9.405553816833162 ], [ 3.144999981081071, 9.418888091893166 ], [ 3.141944408004917, 9.429164885875764 ], [ 3.141666412816051, 9.441110610992325 ], [ 3.171388626010867, 9.496387481550357 ], [ 3.198198607227027, 9.522074080003222 ], [ 3.245605880438006, 9.586571308826024 ], [ 3.285580824599094, 9.636444811712749 ], [ 3.320987204656092, 9.672612619287065 ], [ 3.352777481256112, 9.703054427970812 ], [ 3.337222098686937, 9.734998702675455 ], [ 3.331110953534733, 9.755832671831172 ], [ 3.330832958345809, 9.768888473701963 ], [ 3.331456832769732, 9.774168015289149 ], [ 3.331171297575679, 9.781020861945365 ], [ 3.333455580127747, 9.791300133929667 ], [ 3.341165034365986, 9.807861183182126 ], [ 3.352871982320323, 9.824136696240544 ], [ 3.366577677632677, 9.837271321164906 ], [ 3.471388816846911, 9.855833052776745 ], [ 3.476943968621413, 9.856943130530965 ], [ 3.483888626339933, 9.856666565343062 ], [ 3.501944064607756, 9.853332520077743 ], [ 3.512221812591008, 9.849443436435308 ], [ 3.521111011630808, 9.844444275038597 ], [ 3.525277615461846, 9.844165801849385 ], [ 3.558888435298798, 9.880277634385664 ], [ 3.606388568572925, 9.943887710605736 ], [ 3.609444141649021, 9.948055267437383 ], [ 3.612013817394995, 9.95351552914741 ], [ 3.616110801178706, 9.962221145062415 ], [ 3.658266227821343, 10.061826119739351 ], [ 3.658428770931778, 10.062210176000292 ], [ 3.675833224757298, 10.103333473941632 ], [ 3.679974306570955, 10.120173618383717 ], [ 3.684444426608195, 10.151109696403353 ], [ 3.68428556750024, 10.156665662178341 ], [ 3.709280156482919, 10.113816462064335 ], [ 3.712481736658219, 10.108327866335117 ], [ 3.71466565114207, 10.101776122883507 ], [ 3.715393781636806, 10.089399338474038 ] ] ] ] } },
{ "type": "Feature", "properties": { "fid": 681.0, "OBJECTID": 681.0, "lganame": "Moro", "statecode": "KW", "LGA_UID": "23_12" }, "geometry": { "type": "MultiPolygon", "coordinates": [ [ [ [ 4.889473438368782, 9.13614082277968 ], [ 4.887438296985977, 9.13139247855338 ], [ 4.886081696064252, 9.124608993944321 ], [ 4.891508578751541, 9.119182587257342 ], [ 4.897613524899555, 9.117147445874593 ], [ 4.89964866628236, 9.106293678499981 ], [ 4.900326728743096, 9.099510192890875 ], [ 4.900326728743096, 9.092048644821148 ], [ 4.900326728743096, 9.086622238134112 ], [ 4.898292065360636, 9.082551956368548 ], [ 4.897648435923315, 9.075474302559655 ], [ 4.897613524899555, 9.07509040829882 ], [ 4.892186642212266, 9.069664000611795 ], [ 4.890830040290496, 9.063558578463471 ], [ 4.892865180673311, 9.059488296697907 ], [ 4.890408039003773, 9.056834220894586 ], [ 4.884603500059882, 9.057663918458331 ], [ 4.881287097806535, 9.054347038204639 ], [ 4.877555370271011, 9.047713279697348 ], [ 4.880043029961257, 9.042737961316845 ], [ 4.878384589834411, 9.033617020119607 ], [ 4.878384589834411, 9.029471397302814 ], [ 4.877555370271011, 9.021179198668676 ], [ 4.872580527890818, 9.020350456105575 ], [ 4.865946770383516, 9.01786232041502 ], [ 4.858484268313077, 9.016203880288174 ], [ 4.851850509805786, 9.013716697598227 ], [ 4.851850509805786, 9.007082939090935 ], [ 4.851021290242329, 8.99796199789364 ], [ 4.839412689354845, 8.992157935950104 ], [ 4.830291748157606, 8.990499495823258 ], [ 4.82780408946735, 8.984695434879654 ], [ 4.812878609326162, 8.97474479711866 ], [ 4.804586886692334, 8.96230697566773 ], [ 4.802099228002078, 8.951527596343681 ], [ 4.804586886692334, 8.928310393568665 ], [ 4.807074547382626, 8.914214133990924 ], [ 4.80624532681918, 8.895142555032692 ], [ 4.808732985509437, 8.879387856328094 ], [ 4.812878609326162, 8.861145972933627 ], [ 4.814119716169444, 8.853699874874337 ], [ 4.815366268016419, 8.846220969792796 ], [ 4.826145649340503, 8.830466270088209 ], [ 4.829196773413628, 8.82491885531897 ], [ 4.835267066538108, 8.813881873819867 ], [ 4.847704886988993, 8.798956870679035 ], [ 4.862629890129824, 8.783202170974448 ], [ 4.870092869200562, 8.764960288579971 ], [ 4.880776405459528, 8.746441840997534 ], [ 4.869801521002614, 8.741346358535395 ], [ 4.860983372011106, 8.737277030770485 ], [ 4.854877948862793, 8.731849670082852 ], [ 4.845381260410193, 8.724388123013057 ], [ 4.84063291518396, 8.713535308639109 ], [ 4.833849429574855, 8.704716681647255 ], [ 4.825031280583346, 8.693184852811896 ], [ 4.808751105521765, 8.680974959515879 ], [ 4.780939101624767, 8.661980628610138 ], [ 4.765336990023911, 8.647057533470559 ], [ 4.741595267892535, 8.630777359408967 ], [ 4.721923350526367, 8.61381912188665 ], [ 4.713783263995538, 8.605000495894785 ], [ 4.706999779386479, 8.598217010285737 ], [ 4.691398143785932, 8.584650040067629 ], [ 4.681206257860993, 8.57615728429721 ], [ 4.679187775489538, 8.57447528815436 ], [ 4.663586139888992, 8.561586380396932 ], [ 4.650019168670838, 8.555481911249217 ], [ 4.641899092153665, 8.554809464792356 ], [ 4.640326266084969, 8.553524866919531 ], [ 4.638900188116054, 8.552966655540217 ], [ 4.637919759449858, 8.551850230781668 ], [ 4.638133090594806, 8.55103601322844 ], [ 4.639308878393706, 8.549902004457977 ], [ 4.639499021522909, 8.548101606234695 ], [ 4.639270849367847, 8.546592650209391 ], [ 4.638924082132235, 8.544490812781305 ], [ 4.637142823921977, 8.543910438386945 ], [ 4.634754142298959, 8.543123045851985 ], [ 4.63318545623315, 8.542453174396826 ], [ 4.631593002151135, 8.541818557965655 ], [ 4.630012432077194, 8.541183939534449 ], [ 4.628562585092141, 8.540514065079321 ], [ 4.627077087082796, 8.539647339490386 ], [ 4.625460864984632, 8.538718911859576 ], [ 4.623951598959138, 8.538002023372485 ], [ 4.622584940030606, 8.537367398941285 ], [ 4.621372774206975, 8.536873801605907 ], [ 4.620089303334908, 8.536415461294496 ], [ 4.618401777188296, 8.535957119983038 ], [ 4.616987583227456, 8.535651558775442 ], [ 4.615799184419984, 8.535393006599804 ], [ 4.61442064248331, 8.535099198400133 ], [ 4.613386734780818, 8.534875903248405 ], [ 4.612106234910812, 8.534496887990883 ], [ 4.610600533887748, 8.533711828457513 ], [ 4.60970685828056, 8.533269937157229 ], [ 4.60835683836325, 8.532611799710082 ], [ 4.606968788420147, 8.531756221128774 ], [ 4.605362073328479, 8.530731404432458 ], [ 4.602080270098611, 8.528675018035244 ], [ 4.600028539704567, 8.537282977883933 ], [ 4.592517859601401, 8.552043588913079 ], [ 4.590360685135693, 8.556909726219374 ], [ 4.572688580128329, 8.558873176553448 ], [ 4.557765006988461, 8.559551239014183 ], [ 4.552323341291128, 8.559770584163175 ], [ 4.550207614853605, 8.559856415221532 ], [ 4.530975341786188, 8.569263457613147 ], [ 4.522844791261832, 8.571295737993978 ], [ 4.514714717737832, 8.570279121303258 ], [ 4.508616923594673, 8.570279121303258 ], [ 4.49845457068983, 8.566721915886319 ], [ 4.492864608891693, 8.560625075743758 ], [ 4.485242843713081, 8.55910015070765 ], [ 4.479101180540113, 8.561439514297149 ], [ 4.47863721822489, 8.564689635505431 ], [ 4.47253942508172, 8.576376915446417 ], [ 4.454754352997611, 8.590604782113587 ], [ 4.442050934366193, 8.60889720854243 ], [ 4.431656297303562, 8.619787635941975 ], [ 4.431656195303447, 8.619787576941917 ], [ 4.42070960986581, 8.631256103734245 ], [ 4.394794464257643, 8.656154632651635 ], [ 4.368879317649544, 8.67393875073509 ], [ 4.342456340696344, 8.690199851783746 ], [ 4.340947852671434, 8.717814858546831 ], [ 4.301136498621474, 8.74659313610033 ], [ 4.2578746672271, 8.734192900674941 ], [ 4.234586175403649, 8.804730209601757 ], [ 4.194975853490291, 8.816330910483885 ], [ 4.221106529244878, 8.860906600770988 ], [ 4.257997036310257, 8.900871276925102 ], [ 4.292989471085946, 8.923915793582751 ], [ 4.321018219130167, 8.94237327612376 ], [ 4.334852218529704, 8.957744597567853 ], [ 4.334852218529704, 8.980800629233329 ], [ 4.329013347562466, 8.989559174184365 ], [ 4.338026523686494, 8.993165015634361 ], [ 4.348753451974972, 8.995309830091628 ], [ 4.360016345627571, 8.998528481278584 ], [ 4.375033854831258, 9.009254455566349 ], [ 4.398096560501301, 9.023736000405904 ], [ 4.428131579908666, 9.03607177678748 ], [ 4.443685055476521, 9.041971206795836 ], [ 4.459239006044697, 9.04679870607589 ], [ 4.471038342061775, 9.053234100448435 ], [ 4.488201140723106, 9.059670447821645 ], [ 4.502146244198173, 9.068251609652179 ], [ 4.524136066139192, 9.0741519926612 ], [ 4.549880027630991, 9.074687958025379 ], [ 4.587960242504721, 9.082733154491677 ], [ 4.603514194072886, 9.084342002584833 ], [ 4.609950066445776, 9.081660270762711 ], [ 4.629794597929219, 9.081660270762711 ], [ 4.63643363844011, 9.081371561566527 ], [ 4.654466151692361, 9.080587387033745 ], [ 4.674847125540282, 9.08487892194961 ], [ 4.702736855490059, 9.093460082780155 ], [ 4.717217922329269, 9.101505280246442 ], [ 4.73438072199059, 9.120276451000564 ], [ 4.752616405380877, 9.139585495120173 ], [ 4.764554977492537, 9.149931908150052 ], [ 4.768706322313221, 9.153530120594894 ], [ 4.772460936864263, 9.147629737585873 ], [ 4.785332679610008, 9.135293961204297 ], [ 4.80088663117823, 9.136366843933274 ], [ 4.80580490451996, 9.136366843933274 ], [ 4.807594258735719, 9.136369975935395 ], [ 4.809118541771397, 9.135055137042002 ], [ 4.811572718438924, 9.133533658008218 ], [ 4.812258002904514, 9.132943551607298 ], [ 4.812581610124369, 9.132067910012324 ], [ 4.813571464796951, 9.1317062317666 ], [ 4.815155234873032, 9.131622474709673 ], [ 4.816468696765469, 9.131866131875256 ], [ 4.818398916077001, 9.132391517232179 ], [ 4.819508032830583, 9.133082530701699 ], [ 4.828239917763483, 9.134222031475929 ], [ 4.848084450246915, 9.141194344213318 ], [ 4.857202053441881, 9.14870262131484 ], [ 4.865247249908236, 9.150311470407985 ], [ 4.87168312128108, 9.15513896868805 ], [ 4.876071453262739, 9.157646179391577 ], [ 4.879298210455204, 9.152420997841318 ], [ 4.881333350837963, 9.146316527693614 ], [ 4.884046554681447, 9.14088916800597 ], [ 4.889473438368782, 9.13614082277968 ] ] ] ] } },
{ "type": "Feature", "properties": { "fid": 707.0, "OBJECTID": 707.0, "lganame": "Asa", "statecode": "KW", "LGA_UID": "23_01" }, "geometry": { "type": "MultiPolygon", "coordinates": [ [ [ [ 4.234586175403649, 8.804730209601757 ], [ 4.2578746672271, 8.734192900674941 ], [ 4.301136498621474, 8.74659313610033 ], [ 4.340947852671434, 8.717814858546831 ], [ 4.342456340696344, 8.690199851783746 ], [ 4.368879317649544, 8.67393875073509 ], [ 4.394794464257643, 8.656154632651635 ], [ 4.42070960986581, 8.631256103734245 ], [ 4.431656195303447, 8.619787576941917 ], [ 4.431656297303562, 8.619787635941975 ], [ 4.442050934366193, 8.60889720854243 ], [ 4.454754352997611, 8.590604782113587 ], [ 4.47253942508172, 8.576376915446417 ], [ 4.47863721822489, 8.564689635505431 ], [ 4.479101180540113, 8.561439514297149 ], [ 4.477445346415038, 8.555110451996882 ], [ 4.476096153498361, 8.549953461492919 ], [ 4.477722509603382, 8.542364031336263 ], [ 4.479350979709864, 8.534444281955189 ], [ 4.483718394677283, 8.50726985949143 ], [ 4.487052096942364, 8.496991380507666 ], [ 4.48977202079044, 8.488950350044149 ], [ 4.490191461075426, 8.487681038181734 ], [ 4.490225682098696, 8.48760917213292 ], [ 4.49489736627288, 8.477798462466978 ], [ 4.498729735876793, 8.462468262050834 ], [ 4.499372238313356, 8.459898133304534 ], [ 4.499978541725284, 8.45747280065666 ], [ 4.501787863954632, 8.452587955337663 ], [ 4.505060196178022, 8.443753242334878 ], [ 4.51115799032118, 8.436638831500943 ], [ 4.515730858428242, 8.432065964393928 ], [ 4.51877975549985, 8.424952506560658 ], [ 4.526909828023861, 8.421903610489039 ], [ 4.534025000858264, 8.417278564346589 ], [ 4.537072658928992, 8.415297508000549 ], [ 4.552316666286572, 8.412248610928941 ], [ 4.568068980989551, 8.41021633054811 ], [ 4.574839092589514, 8.408450300348193 ], [ 4.576769856901365, 8.410006560405577 ], [ 4.577925394686531, 8.410850902979291 ], [ 4.579384333677808, 8.411916936703562 ], [ 4.580834562663142, 8.41284037433104 ], [ 4.581751476286172, 8.413424219727744 ], [ 4.581969101434026, 8.413562792821892 ], [ 4.582284277648171, 8.413712910923891 ], [ 4.583573438524127, 8.414326937341059 ], [ 4.584999518493078, 8.414385718381027 ], [ 4.58652161652725, 8.413846634014703 ], [ 4.587406025128189, 8.413533401801885 ], [ 4.588413370812589, 8.412886212362139 ], [ 4.588413450812652, 8.41288616136211 ], [ 4.588829935095646, 8.411200356216682 ], [ 4.589677844671769, 8.407768266884773 ], [ 4.591173247687834, 8.407696459835961 ], [ 4.593775841456136, 8.407167428476498 ], [ 4.595950610933812, 8.406920546308754 ], [ 4.59609498303189, 8.406879082280625 ], [ 4.597055821684762, 8.406603126093103 ], [ 4.598006358330565, 8.405878402600706 ], [ 4.5988189268827, 8.40525887117974 ], [ 4.601405360640058, 8.402864604552974 ], [ 4.604564438786497, 8.400223424758394 ], [ 4.613070398565924, 8.394016358540966 ], [ 4.614381092456426, 8.393059904891118 ], [ 4.616663031006908, 8.389423170420116 ], [ 4.616591726958461, 8.383991481729538 ], [ 4.617126506321824, 8.382192658507336 ], [ 4.617768241757858, 8.381310879908199 ], [ 4.619943011235534, 8.379617858757911 ], [ 4.623182586436656, 8.376766982820868 ], [ 4.628027558728604, 8.372616720000963 ], [ 4.628537178074851, 8.371597290308273 ], [ 4.631586075146458, 8.374138832035158 ], [ 4.634058809826513, 8.375920464245667 ], [ 4.63510460053709, 8.376409563578022 ], [ 4.635751089976338, 8.377199648114811 ], [ 4.636679403607104, 8.378638486092427 ], [ 4.636891952751512, 8.37896792531626 ], [ 4.643781662432787, 8.376679419761331 ], [ 4.649371147230568, 8.373122215344381 ], [ 4.66185379571192, 8.358917659693077 ], [ 4.661853769711911, 8.358917642693086 ], [ 4.65043731995496, 8.351404304588073 ], [ 4.648345738533862, 8.34853535063877 ], [ 4.641851902121573, 8.336314201335085 ], [ 4.637989521497275, 8.326872825920134 ], [ 4.628977776374199, 8.308849334673994 ], [ 4.627690315499422, 8.303270339883341 ], [ 4.624257088166758, 8.288680076969911 ], [ 4.622111796709078, 8.281384468012902 ], [ 4.60108423242184, 8.263360976766819 ], [ 4.590785027424033, 8.251344680602301 ], [ 4.584776878341756, 8.240187645021592 ], [ 4.583060265175448, 8.235037803522516 ], [ 4.583060265175448, 8.229458808731863 ], [ 4.583060265175448, 8.220018387317566 ], [ 4.584776878341756, 8.212722778360501 ], [ 4.588639258966111, 8.204569816820992 ], [ 4.592930316881677, 8.198561667738716 ], [ 4.597651005089119, 8.18611621928261 ], [ 4.594646931048032, 8.171096802077614 ], [ 4.591642857006889, 8.166805267161749 ], [ 4.584347725050179, 8.159081458913761 ], [ 4.578373840991219, 8.156143496917537 ], [ 4.568399866214349, 8.152459164414211 ], [ 4.567305581470862, 8.149512264411953 ], [ 4.569290140819248, 8.147579575098803 ], [ 4.572344391894489, 8.141230338784794 ], [ 4.572629607088288, 8.139159831377981 ], [ 4.57207337071037, 8.136277083419259 ], [ 4.573675397798866, 8.13134827207034 ], [ 4.572914823282076, 8.12636008868111 ], [ 4.568256300116843, 8.125701268233513 ], [ 4.565575273295167, 8.123461267711491 ], [ 4.561297038388318, 8.120920074984895 ], [ 4.560726606000742, 8.118096510066437 ], [ 4.557589233869066, 8.115414104243825 ], [ 4.550173626830485, 8.11146105155791 ], [ 4.5493179802491, 8.10877860173531 ], [ 4.544469312954675, 8.107366778776054 ], [ 4.541474548919894, 8.105954950816795 ], [ 4.539335431466441, 8.104260750665674 ], [ 4.537909353497525, 8.101295883651176 ], [ 4.536673417657767, 8.098001561412843 ], [ 4.534962124494996, 8.096401452325665 ], [ 4.533060686203044, 8.093295340215207 ], [ 4.53182475236332, 8.087741927441925 ], [ 4.529923314071368, 8.079646984941746 ], [ 4.528497235102407, 8.078140931918483 ], [ 4.527365324333346, 8.076054433500815 ], [ 4.505629062564537, 8.091959000307213 ], [ 4.495437144639652, 8.117099762389159 ], [ 4.494964123318255, 8.122775078245297 ], [ 4.494078158716263, 8.133406639468944 ], [ 4.494078158716263, 8.149713515548683 ], [ 4.494078158716263, 8.166700363090456 ], [ 4.490001201946143, 8.182328223708851 ], [ 4.483886241791311, 8.202712058558689 ], [ 4.480495579487524, 8.210510345857301 ], [ 4.471919083660225, 8.216350081825112 ], [ 4.461601740650053, 8.227438370359096 ], [ 4.459682309345908, 8.23355517051516 ], [ 4.457122008606291, 8.235075646548239 ], [ 4.452410676405179, 8.239430060506891 ], [ 4.444023075706184, 8.246953915618974 ], [ 4.440632344402331, 8.250558800068347 ], [ 4.440625045397383, 8.253964179382137 ], [ 4.417978287009987, 8.273376464571868 ], [ 4.391735077178964, 8.304002762381003 ], [ 4.38714219205832, 8.313188531622302 ], [ 4.359507489281839, 8.368457938175254 ], [ 4.348138808557337, 8.391195296624232 ], [ 4.25976848551386, 8.575006484515256 ], [ 4.209143639116633, 8.680658340300738 ], [ 4.213420868022808, 8.682601928621295 ], [ 4.210346698934075, 8.69182491288791 ], [ 4.206113338057719, 8.703819275037517 ], [ 4.201124190667826, 8.717955588642496 ], [ 4.190364361357013, 8.75330924966363 ], [ 4.194975853490291, 8.816330910483885 ], [ 4.234586175403649, 8.804730209601757 ] ] ] ] } },
{ "type": "Feature", "properties": { "fid": 724.0, "OBJECTID": 724.0, "lganame": "Ekiti", "statecode": "KW", "LGA_UID": "23_04" }, "geometry": { "type": "MultiPolygon", "coordinates": [ [ [ [ 5.497963904809467, 8.110664368016614 ], [ 5.475030422227235, 8.10815429731116 ], [ 5.449063300583816, 8.105895995776734 ], [ 5.421214580661911, 8.10552024752144 ], [ 5.398257732063769, 8.10363864924301 ], [ 5.387344359648694, 8.102132797219838 ], [ 5.371161937653483, 8.096487999384465 ], [ 5.364011287794938, 8.090466499293143 ], [ 5.360624313493645, 8.082940102179293 ], [ 5.358742714215168, 8.073907852042282 ], [ 5.358742714215168, 8.0633707048828 ], [ 5.360248089238041, 8.053586006234582 ], [ 5.361377239005208, 8.043424606330348 ], [ 5.360624313493645, 8.038532257006239 ], [ 5.359210013532675, 8.036108017359084 ], [ 5.357989787703616, 8.034016608938089 ], [ 5.351968764612593, 8.02573680931232 ], [ 5.345947265521261, 8.020092010476958 ], [ 5.340302466685898, 8.015575409408143 ], [ 5.332399368316146, 8.009554863317476 ], [ 5.317722321343751, 8.007673264038999 ], [ 5.29777622179131, 8.007673264038999 ], [ 5.282862185657962, 8.008471488581392 ], [ 5.269551276613811, 8.011059761339993 ], [ 5.262400626755266, 8.012941359618424 ], [ 5.256755828919893, 8.018210411198481 ], [ 5.2444515225597, 8.020535468778291 ], [ 5.230788708276464, 8.021973609755435 ], [ 5.220251083116636, 8.020844459988211 ], [ 5.202939987354569, 8.017081261431315 ], [ 5.195789337496024, 8.018210411198481 ], [ 5.191649913683477, 8.022350311011394 ], [ 5.188262939382184, 8.029500007869274 ], [ 5.181865215035259, 8.036273956471859 ], [ 5.17697286571115, 8.038908958262198 ], [ 5.164929866528496, 8.047187804887301 ], [ 5.162611484953231, 8.049506187462498 ], [ 5.16365385066149, 8.055550574569395 ], [ 5.170174599092036, 8.081199645996719 ], [ 5.19060707097492, 8.113369941854955 ], [ 5.206257342608524, 8.125977516421187 ], [ 5.241470813534477, 8.142063141350604 ], [ 5.276684284460373, 8.153366089030442 ], [ 5.29624748175263, 8.161190987347084 ], [ 5.323635578361518, 8.168147087073407 ], [ 5.346241473721193, 8.171190262141124 ], [ 5.366239548308954, 8.171190262141124 ], [ 5.405365466893159, 8.178580284162308 ], [ 5.434492587683678, 8.185101508593164 ], [ 5.454055785975925, 8.197709084159442 ], [ 5.4575333603388, 8.206403732067031 ], [ 5.466228008246389, 8.202490807408367 ], [ 5.471879482086308, 8.204229354589643 ], [ 5.477531432926526, 8.205099106180569 ], [ 5.49492073074174, 8.214663505679141 ], [ 5.512310027556964, 8.216402053860406 ], [ 5.524482249827429, 8.215967177564949 ], [ 5.530568599962805, 8.211185455315956 ], [ 5.53708982539365, 8.205533981476094 ], [ 5.539698124165909, 8.198577880749724 ], [ 5.539698124165909, 8.190752983433072 ], [ 5.538393974279757, 8.178580284162308 ], [ 5.53708982539365, 8.163364409823828 ], [ 5.536654949098192, 8.156409264098158 ], [ 5.532742500439895, 8.146844863599597 ], [ 5.526221275008993, 8.139019966282945 ], [ 5.517961502396872, 8.131194114965638 ], [ 5.504484653240013, 8.123804091944464 ], [ 5.497963904809467, 8.114674567741361 ], [ 5.497963904809467, 8.110664368016614 ] ] ] ] } },
{ "type": "Feature", "properties": { "fid": 759.0, "OBJECTID": 759.0, "lganame": "Kaiama", "statecode": "KW", "LGA_UID": "23_11" }, "geometry": { "type": "MultiPolygon", "coordinates": [ [ [ [ 3.823319196967077, 10.054306029629799 ], [ 3.833034991568525, 10.047019004678589 ], [ 3.851039647801827, 10.055203438239516 ], [ 3.855438452790622, 10.053553836118738 ], [ 3.864133834698691, 10.050292968903079 ], [ 3.872317553259165, 10.042109489342806 ], [ 3.882138251931849, 10.03556251489448 ], [ 3.890322208492478, 10.030652045558043 ], [ 3.903416395389343, 10.019194602773211 ], [ 3.890322208492478, 10.015920638548721 ], [ 3.887048721268286, 10.004463195763947 ], [ 3.887048721268286, 9.988095283642679 ], [ 3.909963607837881, 9.98973274175529 ], [ 3.9214208126225, 9.999552727427499 ], [ 3.934515237519577, 9.999552727427499 ], [ 3.949246167528543, 9.99136924686718 ], [ 3.954156398864825, 9.983184814306242 ], [ 3.952519654752734, 9.978275298970459 ], [ 3.941062211967903, 9.976637839857915 ], [ 3.936151980631621, 9.973364829634022 ], [ 3.934515237519577, 9.970090866409521 ], [ 3.934515237519577, 9.966817856185685 ], [ 3.941062211967903, 9.961907386849248 ], [ 3.949246167528543, 9.961907386849248 ], [ 3.959066868201262, 9.960269927736704 ], [ 3.965613841649599, 9.956996917512811 ], [ 3.970524072985882, 9.948813437952538 ], [ 3.968887328873791, 9.942265510503546 ], [ 3.960703611313306, 9.937355995167763 ], [ 3.959066868201262, 9.934082030943216 ], [ 3.942698956079994, 9.932445525831326 ], [ 3.934515237519577, 9.927535057494879 ], [ 3.936151980631621, 9.916077613710058 ], [ 3.945972443304186, 9.90789318114912 ], [ 3.954156398864825, 9.90789318114912 ], [ 3.962340355425397, 9.90789318114912 ], [ 3.96725058576169, 9.902983664813348 ], [ 3.980017424436141, 9.906583786259489 ], [ 3.982636213215471, 9.898727416921417 ], [ 3.985255240995002, 9.893489838362768 ], [ 3.994421005222705, 9.900036811811106 ], [ 4.002277850561086, 9.906583786259489 ], [ 4.011443614788789, 9.898727416921417 ], [ 4.01275300967842, 9.885633469024697 ], [ 4.016681194347484, 9.868611336458969 ], [ 4.020609379016491, 9.8607540131203 ], [ 4.021918773906179, 9.856825829451282 ], [ 4.027156830465174, 9.856825829451282 ], [ 4.038941383472206, 9.864683150789972 ], [ 4.052035809369272, 9.863373755900284 ], [ 4.057273387927978, 9.856825829451282 ], [ 4.070367335824699, 9.856825829451282 ], [ 4.078224182163012, 9.854207038671916 ], [ 4.080842971942388, 9.851588248892597 ], [ 4.083461760721718, 9.851588248892597 ], [ 4.095246314728797, 9.867301940569291 ], [ 4.095246314728797, 9.877777099686682 ], [ 4.1148877140742, 9.881705284355689 ], [ 4.124053478301903, 9.875158309907363 ], [ 4.122744083412215, 9.8607540131203 ], [ 4.118815898743208, 9.855516433561604 ], [ 4.127982139971209, 9.851588248892597 ], [ 4.14107608786793, 9.8607540131203 ], [ 4.143142663272101, 9.860983623276297 ], [ 4.152861117875318, 9.862063408009988 ], [ 4.171192646330724, 9.820162772540471 ], [ 4.206547260352522, 9.782189368739296 ], [ 4.209918021642807, 9.778295517093625 ], [ 4.282493590954516, 9.69445800812997 ], [ 4.350583553218428, 9.58839511906524 ], [ 4.387247086129548, 9.562206268271154 ], [ 4.443552017386139, 9.509829520683581 ], [ 4.44430478689759, 9.508922876067572 ], [ 4.50116682053266, 9.440430640530337 ], [ 4.578422546024285, 9.388053893942754 ], [ 4.609726906294156, 9.361758232076113 ], [ 4.617050171269966, 9.330439567796532 ], [ 4.639310360394745, 9.308178901671454 ], [ 4.685140132533888, 9.292466163995414 ], [ 4.713947296106994, 9.278062820209016 ], [ 4.737516880121461, 9.268896102980648 ], [ 4.754539489687488, 9.247945785745912 ], [ 4.757158279466864, 9.224376677731811 ], [ 4.751920699908169, 9.199497222827404 ], [ 4.751920699908169, 9.1798563004823 ], [ 4.764554977492537, 9.149931908150052 ], [ 4.752616405380877, 9.139585495120173 ], [ 4.73438072199059, 9.120276451000564 ], [ 4.717217922329269, 9.101505280246442 ], [ 4.702736855490059, 9.093460082780155 ], [ 4.674847125540282, 9.08487892194961 ], [ 4.654466151692361, 9.080587387033745 ], [ 4.63643363844011, 9.081371560566538 ], [ 4.629794597929219, 9.081660270762711 ], [ 4.609950066445776, 9.081660270762711 ], [ 4.603514194072886, 9.084342002584833 ], [ 4.587960242504721, 9.082733154491677 ], [ 4.549880027630991, 9.074687958025379 ], [ 4.524136066139192, 9.0741519926612 ], [ 4.502146244198173, 9.068251609652179 ], [ 4.488201140723106, 9.059670447821645 ], [ 4.471038342061775, 9.053234100448435 ], [ 4.459239006044697, 9.04679870607589 ], [ 4.443685055476521, 9.041971206795836 ], [ 4.428131579908666, 9.03607177678748 ], [ 4.398096560501301, 9.023736000405904 ], [ 4.375033854831258, 9.009254455566349 ], [ 4.360016345627571, 8.998528481278584 ], [ 4.348753451974972, 8.995309830091628 ], [ 4.338026523686494, 8.993165015634361 ], [ 4.329013347562466, 8.989559174184365 ], [ 4.325629711263446, 8.994634627632877 ], [ 4.316407203997187, 8.997709273721966 ], [ 4.290276527242611, 8.991560935544442 ], [ 4.27336835875434, 8.979264259189449 ], [ 4.253385544176922, 8.966966628833745 ], [ 4.210460186011176, 8.970032691917027 ], [ 4.133491515714582, 8.994634627632877 ], [ 4.072007178938861, 9.014616966209928 ], [ 4.012060165207686, 9.03459930378699 ], [ 3.990540503586089, 9.048433304186574 ], [ 3.972095251053418, 9.077638626030193 ], [ 3.944427252254286, 9.148345947072471 ], [ 3.921370744588501, 9.172939300782502 ], [ 3.862960576901514, 9.188310623226585 ], [ 3.826070069836135, 9.182162285049117 ], [ 3.810251236087993, 9.17346191413759 ], [ 3.810599804324852, 9.205241202730122 ], [ 3.81607747104664, 9.704633713043904 ], [ 3.819940804671603, 10.056839943351463 ], [ 3.823319196967077, 10.054306029629799 ] ] ] ] } }
]
}
