{
"type": "FeatureCollection",
"name": "Lagos",
"crs": { "type": "name", "properties": { "name": "urn:ogc:def:crs:OGC:1.3:CRS84" } },
"features": [
{ "type": "Feature", "properties": { "fid": 11.0, "OBJECTID": 11.0, "lganame": "Shomolu", "statecode": "LA", "LGA_UID": "24_19" }, "geometry": { "type": "MultiPolygon", "coordinates": [ [ [ [ 3.379525900430394, 6.548398017530076 ], [ 3.384202002607594, 6.546974658562931 ], [ 3.391114473304299, 6.548601150668105 ], [ 3.395587444343448, 6.549617767358825 ], [ 3.39762043972479, 6.549211025082457 ], [ 3.401686668487571, 6.535995960103435 ], [ 3.40463352248986, 6.532024384404963 ], [ 3.408886194379306, 6.52629232351029 ], [ 3.405478239063768, 6.52325344144549 ], [ 3.398840426553704, 6.523797511815189 ], [ 3.389691353337355, 6.523797511815189 ], [ 3.38155889481169, 6.522780895124413 ], [ 3.378102779463461, 6.521764278433693 ], [ 3.376272917220149, 6.519934654190536 ], [ 3.368344068832869, 6.518561840257803 ], [ 3.368148100699727, 6.524395589221569 ], [ 3.368016461610239, 6.528314311884117 ], [ 3.367743757424989, 6.536432432400034 ], [ 3.367613688336576, 6.54030442003085 ], [ 3.367061298961289, 6.55674840720377 ], [ 3.367063277962643, 6.557194563506926 ], [ 3.368888617202856, 6.557147980475236 ], [ 3.379525900430394, 6.548398017530076 ] ] ] ] } },
{ "type": "Feature", "properties": { "fid": 13.0, "OBJECTID": 13.0, "lganame": "Surulere", "statecode": "LA", "LGA_UID": "24_20" }, "geometry": { "type": "MultiPolygon", "coordinates": [ [ [ [ 3.369063843321896, 6.516852868096635 ], [ 3.383940220429736, 6.481531620097485 ], [ 3.380964994408203, 6.480143070154043 ], [ 3.375907182971616, 6.480837344625741 ], [ 3.372237682478385, 6.480837344625741 ], [ 3.369361638524254, 6.480638981490983 ], [ 3.367080687974465, 6.479250430547552 ], [ 3.365791559098568, 6.477663994469594 ], [ 3.365105866632632, 6.475426673949471 ], [ 3.363034487225264, 6.476493834674557 ], [ 3.360257626338523, 6.477286816213336 ], [ 3.357798099667377, 6.478556633076153 ], [ 3.351133585139166, 6.478635788129907 ], [ 3.34724617049784, 6.477763175537007 ], [ 3.341692447724313, 6.474906920596311 ], [ 3.33980059643892, 6.473393439567985 ], [ 3.335424662465641, 6.470463752577416 ], [ 3.32106447170861, 6.460388183731538 ], [ 3.316458940579366, 6.459038257814314 ], [ 3.318939447264711, 6.463617801925864 ], [ 3.326868533652203, 6.471953391589523 ], [ 3.328291654619136, 6.477849482595673 ], [ 3.32849502575732, 6.481305598943891 ], [ 3.326868533652203, 6.484761715292166 ], [ 3.324428796994482, 6.489641189607539 ], [ 3.322395801613141, 6.49513053933731 ], [ 3.323310614234742, 6.501026630343404 ], [ 3.323340671255153, 6.50113979442034 ], [ 3.326682420525742, 6.498806806835148 ], [ 3.32815221352439, 6.499948127610651 ], [ 3.329621054522363, 6.501088710385602 ], [ 3.333011072825741, 6.504655997809436 ], [ 3.333903371432029, 6.505750549553113 ], [ 3.334560815878717, 6.507127782488851 ], [ 3.336202643994284, 6.508755332594717 ], [ 3.336261925034535, 6.508809673631617 ], [ 3.337573213925509, 6.510011689448334 ], [ 3.337901579148593, 6.511182383243806 ], [ 3.339211600038709, 6.511242846284858 ], [ 3.339757559409691, 6.511268044301971 ], [ 3.342441591233353, 6.511753453631798 ], [ 3.345868014561461, 6.511810560670597 ], [ 3.349023179705227, 6.512681444262341 ], [ 3.351064758092377, 6.512724274291429 ], [ 3.352078407781107, 6.512367355048923 ], [ 3.352949291372852, 6.512295971000412 ], [ 3.354234200245855, 6.512709997281718 ], [ 3.356646972885244, 6.512453016107145 ], [ 3.358988969476513, 6.511709881602201 ], [ 3.359329249707685, 6.511601907528814 ], [ 3.359616540902891, 6.511510749466879 ], [ 3.360344656397615, 6.510696972913991 ], [ 3.363328500425041, 6.510040242467767 ], [ 3.364952110528179, 6.515554921214743 ], [ 3.365857024143054, 6.51536862908813 ], [ 3.366313881453436, 6.515578021230397 ], [ 3.366816541794947, 6.514878459755096 ], [ 3.36758391831637, 6.515187789965296 ], [ 3.368345344833699, 6.515684502302747 ], [ 3.36803542062313, 6.516429867809222 ], [ 3.369063843321896, 6.516852868096635 ] ] ] ] } },
{ "type": "Feature", "properties": { "fid": 110.0, "OBJECTID": 110.0, "lganame": "Ibeju Lekki", "statecode": "LA", "LGA_UID": "24_09" }, "geometry": { "type": "MultiPolygon", "coordinates": [ [ [ [ 3.663826941599609, 6.491602420940126 ], [ 3.763760328499643, 6.534254073919897 ], [ 3.796492814739793, 6.547644615018157 ], [ 3.81831455156663, 6.556323527915083 ], [ 3.83170509266489, 6.560291289610973 ], [ 3.848567247121935, 6.563018799464203 ], [ 3.856750249681909, 6.56202697779031 ], [ 3.860470057209341, 6.561035156116418 ], [ 3.868901013937773, 6.557563304757423 ], [ 3.872372627296556, 6.555827617578132 ], [ 3.923372029948268, 6.513460158791418 ], [ 3.934154987274781, 6.503828526247162 ], [ 3.937087059267014, 6.502900123616371 ], [ 3.941818953482084, 6.50248193733222 ], [ 3.944998979642776, 6.500664234097201 ], [ 3.94695496597177, 6.499232769124603 ], [ 3.950545073411092, 6.498637198719905 ], [ 3.95462489118313, 6.49869584975977 ], [ 3.959902047768708, 6.499246597134004 ], [ 3.95966649060864, 6.431384087024583 ], [ 3.944482803292033, 6.432844162016636 ], [ 3.917578697011947, 6.434661865251712 ], [ 3.906671523601062, 6.436843394733955 ], [ 3.890310764484695, 6.437207221981168 ], [ 3.871768712886251, 6.436843394733955 ], [ 3.855044364522826, 6.437570572228026 ], [ 3.835411549183277, 6.437934399475239 ], [ 3.821232318549164, 6.437934399475239 ], [ 3.810325146138211, 6.437934399475239 ], [ 3.799054384480257, 6.437570572228026 ], [ 3.784147978352053, 6.435389041745793 ], [ 3.765969515000677, 6.433571338510717 ], [ 3.760515928295206, 6.431389809028474 ], [ 3.748517990143171, 6.429935455040322 ], [ 3.734702348756116, 6.427754401558389 ], [ 3.72561287858025, 6.427390575311165 ], [ 3.699799538041248, 6.425936222323003 ], [ 3.67907595596057, 6.423027992347045 ], [ 3.661624432103054, 6.423391341593913 ], [ 3.641991614763526, 6.422664165099832 ], [ 3.630803108161444, 6.422573090037929 ], [ 3.67303705185742, 6.475641251095283 ], [ 3.671513556822276, 6.478891373303554 ], [ 3.67070078827004, 6.484985828444451 ], [ 3.669583558510908, 6.48803281751475 ], [ 3.667044400785699, 6.490165709963946 ], [ 3.663826941599609, 6.491602420940126 ] ] ], [ [ [ 3.997103453045327, 6.425187110814022 ], [ 3.997103453045327, 6.490765095371216 ], [ 4.000720023502595, 6.490850925429527 ], [ 4.003656864498055, 6.490732193348833 ], [ 4.008551120823483, 6.489181995295553 ], [ 4.009445190430938, 6.487007140817866 ], [ 4.009357929371674, 6.483520985449161 ], [ 4.012780189696912, 6.480003834059403 ], [ 4.01383495341355, 6.476696967812586 ], [ 4.01538085946396, 6.474044800010574 ], [ 4.017417907848028, 6.472049235654652 ], [ 4.024106979392911, 6.470201015398857 ], [ 4.026473045000557, 6.469991207256328 ], [ 4.030304908604137, 6.467697143697592 ], [ 4.034136772207717, 6.465402126138258 ], [ 4.037725924646395, 6.464805125732596 ], [ 4.04131603208566, 6.464209080327635 ], [ 4.044985770579103, 6.463046073537441 ], [ 4.050202847123842, 6.459230899945169 ], [ 4.051749229174561, 6.456580162144121 ], [ 4.053376198279977, 6.453361987957521 ], [ 4.056387901326332, 6.448624133738406 ], [ 4.058506011765473, 6.446061133996977 ], [ 4.065838813747746, 6.439683913663941 ], [ 4.068528174575079, 6.43721103698374 ], [ 4.069912909515892, 6.435690879950869 ], [ 4.071949958900007, 6.433693885593982 ], [ 4.076579094045258, 6.435064315525153 ], [ 4.082034587752048, 6.435064315525153 ], [ 4.087378025382634, 6.436104774232092 ], [ 4.089824200044688, 6.435329913705573 ], [ 4.094147204981994, 6.433691024592065 ], [ 4.098873138193028, 6.429221152554987 ], [ 4.100749016467603, 6.428356170967277 ], [ 4.102622985740879, 6.427492142380231 ], [ 4.104498863015465, 6.426628112793139 ], [ 4.107597828121015, 6.425374984941698 ], [ 4.109963893728661, 6.425167083800432 ], [ 4.11624479299627, 6.424272537192621 ], [ 4.127413749585003, 6.429857253987166 ], [ 4.140556334514827, 6.432584762840406 ], [ 4.144771576378844, 6.433080673177358 ], [ 4.151714802096478, 6.430849074661069 ], [ 4.158658503814365, 6.421921729595397 ], [ 4.165353775363485, 6.420186043416038 ], [ 4.180975913977989, 6.421177864089941 ], [ 4.186705588871064, 6.422165870761262 ], [ 4.195358275750152, 6.423657893774987 ], [ 4.204781532152822, 6.41944217691065 ], [ 4.211476802701952, 6.410267352676783 ], [ 4.214948177060535, 6.404563903801545 ], [ 4.241102694831341, 6.382299899674194 ], [ 4.197714329350958, 6.388197421681298 ], [ 4.150846957506815, 6.397124289746671 ], [ 4.106707572516143, 6.40530777030699 ], [ 4.076207160792535, 6.411755084687627 ], [ 4.051409720943866, 6.416218280720159 ], [ 4.039031028533145, 6.417937755888431 ], [ 4.035739422296615, 6.417937755888431 ], [ 4.022650719403487, 6.420482634617599 ], [ 4.00338125231076, 6.424118519087983 ], [ 3.997103453045327, 6.425187110814022 ] ] ] ] } },
{ "type": "Feature", "properties": { "fid": 111.0, "OBJECTID": 111.0, "lganame": "Epe", "statecode": "LA", "LGA_UID": "24_07" }, "geometry": { "type": "MultiPolygon", "coordinates": [ [ [ [ 3.699962139151751, 6.682374953561123 ], [ 3.707864999521348, 6.683033943008866 ], [ 3.815373658568433, 6.682108402379981 ], [ 3.916836738507868, 6.680704117425819 ], [ 3.919335127205386, 6.680661201396674 ], [ 3.969429255242005, 6.679797648809938 ], [ 4.050180435108643, 6.680025100964485 ], [ 4.073162078723556, 6.679252625439631 ], [ 4.078526974368742, 6.679176331387794 ], [ 4.091480732170226, 6.678992748263056 ], [ 4.091296196044823, 6.676961421882879 ], [ 4.09240436579779, 6.675114631628048 ], [ 4.09277343704855, 6.672528743871055 ], [ 4.094251156052621, 6.670681952616235 ], [ 4.09185028142133, 6.667912005734195 ], [ 4.090372562417258, 6.66606521647941 ], [ 4.091480732170226, 6.662371634969759 ], [ 4.09185028142133, 6.660339831589283 ], [ 4.093327522425056, 6.658677578459844 ], [ 4.092588901923193, 6.656461715954265 ], [ 4.095231055718386, 6.651519298596099 ], [ 4.091480732170226, 6.652583122318958 ], [ 4.09055757454297, 6.650736332064128 ], [ 4.089633941915451, 6.648335457432836 ], [ 4.087972163786333, 6.644826889048943 ], [ 4.08538627602934, 6.642795085668411 ], [ 4.08446312040212, 6.639840125660669 ], [ 4.081508160394321, 6.637624264155079 ], [ 4.078922748637694, 6.637439251029377 ], [ 4.076706409131759, 6.637070178778629 ], [ 4.074559211672863, 6.635638713806031 ], [ 4.070426940865161, 6.633191586143312 ], [ 4.068395615484974, 6.633191586143312 ], [ 4.066693306328318, 6.634893894299921 ], [ 4.064332484724275, 6.636146545151064 ], [ 4.061562537842235, 6.636700629527525 ], [ 4.058792113959839, 6.635962009025661 ], [ 4.05786895833262, 6.633930205645186 ], [ 4.058607577834493, 6.629867553884765 ], [ 4.057683945206918, 6.62746667925353 ], [ 4.05657577545395, 6.624696255371134 ], [ 4.053805827571921, 6.62100267386154 ], [ 4.050481319313064, 6.619155883606709 ], [ 4.051404952940629, 6.616016388473554 ], [ 4.053805827571921, 6.614354134344126 ], [ 4.056531906424141, 6.611081600120599 ], [ 4.056022644078155, 6.608876227622147 ], [ 4.055933475017525, 6.605656147434274 ], [ 4.055875300978016, 6.603553295005497 ], [ 4.057574272132399, 6.59949350424705 ], [ 4.057499409081515, 6.596439838172216 ], [ 4.059261799279, 6.594275950701956 ], [ 4.061120032541567, 6.588450908744107 ], [ 4.062079430193421, 6.586159229187047 ], [ 4.063204764958016, 6.582680701823563 ], [ 4.064886570100725, 6.580557346380829 ], [ 4.066097735923677, 6.57569265407551 ], [ 4.066284180050388, 6.571547508259073 ], [ 4.067058562576506, 6.569550036901887 ], [ 4.065440655477232, 6.566706180969618 ], [ 4.064938068135746, 6.56239604904107 ], [ 4.068231106373219, 6.563551902826418 ], [ 4.071724891747067, 6.562435627067941 ], [ 4.074369430543925, 6.562299727975642 ], [ 4.076335429879691, 6.561621665514906 ], [ 4.080267905551636, 6.560401439685847 ], [ 4.083386897670835, 6.558977603718404 ], [ 4.086099147513721, 6.558773993580076 ], [ 4.087188721253995, 6.560910702031833 ], [ 4.088607788218212, 6.562638760205971 ], [ 4.090641974600317, 6.561825274653245 ], [ 4.091167449957368, 6.558509350400243 ], [ 4.089619159905396, 6.555962085669478 ], [ 4.091971873503951, 6.555282593207835 ], [ 4.095366954810743, 6.550733089116648 ], [ 4.093583106598714, 6.549289227135603 ], [ 4.094737053382744, 6.545981406888075 ], [ 4.100100040026632, 6.545557021599734 ], [ 4.103037834022757, 6.545907973838212 ], [ 4.106353283275439, 6.546450138206581 ], [ 4.109479427399492, 6.54689693451013 ], [ 4.109479427399492, 6.552256584151792 ], [ 4.110596180158268, 6.55560636542782 ], [ 4.110596180158268, 6.558286190248623 ], [ 4.116402626103479, 6.563422679738608 ], [ 4.119975566531139, 6.564985751800634 ], [ 4.12220907204869, 6.56632566471103 ], [ 4.124665259717574, 6.568559170228639 ], [ 4.128908633600759, 6.571015357897465 ], [ 4.132308482910787, 6.571258545062733 ], [ 4.138267516959672, 6.572847366142241 ], [ 4.143002987177169, 6.575086593663684 ], [ 4.146080971268532, 6.577614784381467 ], [ 4.150186062057742, 6.58039569927098 ], [ 4.155615806746994, 6.58675241459008 ], [ 4.159720897536204, 6.590592861199468 ], [ 4.162237167245905, 6.592182159279332 ], [ 4.166342258035115, 6.593373775088992 ], [ 4.169150351943074, 6.592352867395334 ], [ 4.171562671582137, 6.591560840857198 ], [ 4.174912452858166, 6.589774608643495 ], [ 4.178262234134195, 6.588657855884719 ], [ 4.179602146044601, 6.586424828367512 ], [ 4.186748504900208, 6.58486127930513 ], [ 4.194118022907446, 6.585531234760367 ], [ 4.198807716093881, 6.585754870912297 ], [ 4.199584960621962, 6.588473796759672 ], [ 4.201487540914684, 6.586871146670774 ], [ 4.204391002887462, 6.585531234760367 ], [ 4.207517147011515, 6.583968162698284 ], [ 4.2117605208947, 6.581735134181088 ], [ 4.2126536365015, 6.578608513056679 ], [ 4.215333462322349, 6.577714920449523 ], [ 4.217413424735582, 6.57240295384031 ], [ 4.218013287143151, 6.569675445987059 ], [ 4.220036506517829, 6.567516803520391 ], [ 4.221983432840659, 6.565439701109085 ], [ 4.223108291605001, 6.561960696745246 ], [ 4.225383282150744, 6.561189175221045 ], [ 4.228733063426716, 6.557616233793397 ], [ 4.226499556909175, 6.553596497062188 ], [ 4.227616309667951, 6.551586627696565 ], [ 4.224712848695219, 6.543100356930552 ], [ 4.222256660026346, 6.537740707288947 ], [ 4.214440345715502, 6.531934261343736 ], [ 4.211143970475803, 6.528088569730755 ], [ 4.2060971260467, 6.525256156806279 ], [ 4.203320980160413, 6.524242878117775 ], [ 4.201116084662317, 6.523320198490865 ], [ 4.198338984775376, 6.522307872803026 ], [ 4.194009780833881, 6.519895077163653 ], [ 4.191804886335774, 6.518971919536398 ], [ 4.185029983732534, 6.517333984423487 ], [ 4.181109905069036, 6.516143798614848 ], [ 4.178334236183105, 6.5151309969267 ], [ 4.176371097849255, 6.512509823145706 ], [ 4.174899100849075, 6.510542869809285 ], [ 4.173997879236765, 6.50866699153471 ], [ 4.16770601296173, 6.503633022114343 ], [ 4.165502071464232, 6.502708912486469 ], [ 4.16058445012294, 6.5006427760826 ], [ 4.156153679112435, 6.498784541820044 ], [ 4.155010223335523, 6.496640682363363 ], [ 4.157011031694992, 6.492209911352859 ], [ 4.158382892627117, 6.489768027693742 ], [ 4.159440994346028, 6.48720788995422 ], [ 4.160012721734518, 6.481776714264015 ], [ 4.160954475374353, 6.476819037895496 ], [ 4.161073208455036, 6.474720001469336 ], [ 4.164872169036244, 6.474630356408397 ], [ 4.168302059366738, 6.47420167911713 ], [ 4.172018527891908, 6.47362995072865 ], [ 4.17473411573701, 6.47205781866046 ], [ 4.177449702582123, 6.470056534300682 ], [ 4.182880402272019, 6.468484402232491 ], [ 4.186025143408699, 6.467055321261512 ], [ 4.189598082836369, 6.466483592873089 ], [ 4.19217061958426, 6.465483189193321 ], [ 4.193742751652451, 6.463196277639497 ], [ 4.200460434216836, 6.463196277639497 ], [ 4.203461647256006, 6.461909770765374 ], [ 4.205748557809841, 6.463053225542296 ], [ 4.207791805198156, 6.464179039307226 ], [ 4.213389397001436, 6.464474677508122 ], [ 4.215181828219329, 6.463339328736708 ], [ 4.217325686675963, 6.463053225542296 ], [ 4.218754767646942, 6.459765911308693 ], [ 4.219969749472511, 6.4554781913954 ], [ 4.221827983735068, 6.450475692996463 ], [ 4.22379255306987, 6.448615073732242 ], [ 4.225829601453995, 6.445616244694691 ], [ 4.227973460910619, 6.444758892112134 ], [ 4.230689048755721, 6.445473670597835 ], [ 4.233404635600834, 6.445473670597835 ], [ 4.235691547154715, 6.444758892112134 ], [ 4.237406731320107, 6.44190025316982 ], [ 4.236883162964375, 6.438172816637234 ], [ 4.243409634398802, 6.436183453285537 ], [ 4.24526739066107, 6.434468269120146 ], [ 4.24998426386594, 6.433753489634512 ], [ 4.253271580099522, 6.434325218022934 ], [ 4.253963946569968, 6.436204910300091 ], [ 4.253342628147777, 6.439041615227552 ], [ 4.254343509827834, 6.441328525781387 ], [ 4.259145737090705, 6.442461013550826 ], [ 4.263808727259004, 6.443560600297985 ], [ 4.265706061548144, 6.442900657849577 ], [ 4.268421650393293, 6.442471980558309 ], [ 4.272423267112174, 6.442758082752675 ], [ 4.275138854957277, 6.44190025316982 ], [ 4.276282309734199, 6.439613341615996 ], [ 4.278997897579359, 6.437898636450939 ], [ 4.281284809133183, 6.438755989033439 ], [ 4.284000396978286, 6.43675517967398 ], [ 4.287573338405934, 6.436040401188336 ], [ 4.291146754833903, 6.436612128576826 ], [ 4.295577048844109, 6.434611320217357 ], [ 4.298721789980789, 6.43518304760579 ], [ 4.301939964167389, 6.438798904062594 ], [ 4.303938388525239, 6.43947076751914 ], [ 4.309226513118233, 6.43947076751914 ], [ 4.316617489140071, 6.43804025654714 ], [ 4.324056625194601, 6.437792301378693 ], [ 4.332735538091526, 6.439527987557994 ], [ 4.337199211124414, 6.439527987557994 ], [ 4.343398571336593, 6.435808182030542 ], [ 4.344638348178933, 6.433824538682757 ], [ 4.34761428820093, 6.43134498599801 ], [ 4.350093841885666, 6.429857253987166 ], [ 4.350837708391111, 6.427625179470567 ], [ 4.350837708391111, 6.421683311433355 ], [ 4.350837708391111, 6.415349007129521 ], [ 4.350837708391111, 6.389730452722915 ], [ 4.350837708391111, 6.377373695327094 ], [ 4.350837708391111, 6.371037483021894 ], [ 4.346622466527037, 6.370839118887147 ], [ 4.329606532965499, 6.372818947232361 ], [ 4.301863194115242, 6.376046658425423 ], [ 4.277065754266516, 6.378278731941975 ], [ 4.248796463058852, 6.381254195963663 ], [ 4.241102694831341, 6.382299899674194 ], [ 4.214948177060535, 6.404563903801545 ], [ 4.211476802701952, 6.410267352676783 ], [ 4.204781532152822, 6.41944217691065 ], [ 4.195358275750152, 6.423657893774987 ], [ 4.186705588871064, 6.422165870761262 ], [ 4.180975913977989, 6.421177864089941 ], [ 4.165353775363485, 6.420186043416038 ], [ 4.158658503814365, 6.421921729595397 ], [ 4.151714802096478, 6.430849074661069 ], [ 4.144771576378844, 6.433080673177358 ], [ 4.140556334514827, 6.432584762840406 ], [ 4.127413749585003, 6.429857253987166 ], [ 4.11624479299627, 6.424272537192621 ], [ 4.109963893728661, 6.425167083800432 ], [ 4.107597828121015, 6.425374984941698 ], [ 4.104498863015465, 6.426628112793139 ], [ 4.102622985740879, 6.427492142380231 ], [ 4.100749016467603, 6.428356170967277 ], [ 4.098873138193028, 6.429221152554987 ], [ 4.094147204981994, 6.433691024592065 ], [ 4.089824200044688, 6.435329913705573 ], [ 4.087378025382634, 6.436104774232092 ], [ 4.082034587752048, 6.435064315525153 ], [ 4.076579094045258, 6.435064315525153 ], [ 4.071949958900007, 6.433693885593982 ], [ 4.069912909515892, 6.435690879950869 ], [ 4.068528174575079, 6.43721103698374 ], [ 4.065838813747746, 6.439683913663941 ], [ 4.058506011765473, 6.446061133996977 ], [ 4.056387901326332, 6.448624133738406 ], [ 4.053376198279977, 6.453361987957521 ], [ 4.051749229174561, 6.456580162144121 ], [ 4.050202847123842, 6.459230899945169 ], [ 4.044985770579103, 6.463046073537441 ], [ 4.04131603208566, 6.464209080327635 ], [ 4.037725924646395, 6.464805125732596 ], [ 4.034136772207717, 6.465402126138258 ], [ 4.030304908604137, 6.467697143697592 ], [ 4.026473045000557, 6.469991207256328 ], [ 4.024106979392911, 6.470201015398857 ], [ 4.017417907848028, 6.472049235654652 ], [ 4.01538085946396, 6.474044800010574 ], [ 4.01383495341355, 6.476696967812586 ], [ 4.012780189696912, 6.480003834059403 ], [ 4.009357929371674, 6.483520985449161 ], [ 4.009445190430938, 6.487007140817866 ], [ 4.008551120823483, 6.489181995295553 ], [ 4.003656864498055, 6.490732193348833 ], [ 4.000720023502595, 6.490850925429527 ], [ 3.997103453045327, 6.490765095371216 ], [ 3.997103453045327, 6.425187110814022 ], [ 3.986293553700477, 6.427027225064307 ], [ 3.963388681137701, 6.431026458781616 ], [ 3.95966649060864, 6.431384087024583 ], [ 3.959902047768708, 6.499246597134004 ], [ 3.95462489118313, 6.49869584975977 ], [ 3.950545073411092, 6.498637198719905 ], [ 3.94695496597177, 6.499232769124603 ], [ 3.944998979642776, 6.500664234097201 ], [ 3.941818953482084, 6.50248193733222 ], [ 3.937087059267014, 6.502900123616371 ], [ 3.934154987274781, 6.503828526247162 ], [ 3.923372029948268, 6.513460158791418 ], [ 3.872372627296556, 6.555827617578132 ], [ 3.868901013937773, 6.557563304757423 ], [ 3.860470057209341, 6.561035156116418 ], [ 3.856750249681909, 6.56202697779031 ], [ 3.848567247121935, 6.563018799464203 ], [ 3.83170509266489, 6.560291289610973 ], [ 3.81831455156663, 6.556323527915083 ], [ 3.796492814739793, 6.547644615018157 ], [ 3.763760328499643, 6.534254073919897 ], [ 3.663826941599609, 6.491602420940126 ], [ 3.659629821747842, 6.49189233813712 ], [ 3.655770063125317, 6.491790771068111 ], [ 3.652621507985998, 6.490876675446998 ], [ 3.647847651742381, 6.488439082790762 ], [ 3.646324157707284, 6.486001492134562 ], [ 3.644292593326895, 6.482345103650232 ], [ 3.642058133808689, 6.479602336786627 ], [ 3.639722109221509, 6.479196071510614 ], [ 3.636878014289039, 6.480414867338709 ], [ 3.6341357234258, 6.481837273305189 ], [ 3.62895560290616, 6.484376431030398 ], [ 3.626314878111884, 6.484985828444451 ], [ 3.622189283308728, 6.48601818114588 ], [ 3.620148181921934, 6.487076282864848 ], [ 3.61946773545958, 6.48934412040569 ], [ 3.619997024819213, 6.491611957946589 ], [ 3.622869491770928, 6.493199825025499 ], [ 3.626876116493236, 6.494333743795949 ], [ 3.628766059777377, 6.495996474925676 ], [ 3.628766059777377, 6.499247074134303 ], [ 3.628085613315022, 6.501817225880586 ], [ 3.625742196722797, 6.508469582400551 ], [ 3.625454902527565, 6.51110410719059 ], [ 3.627568006963315, 6.51067209189705 ], [ 3.627084016634512, 6.514069080205161 ], [ 3.629456997246848, 6.517911910816167 ], [ 3.63027691780394, 6.520355225476294 ], [ 3.631587028694071, 6.523453235581258 ], [ 3.632406950251152, 6.525896072241039 ], [ 3.63461899775416, 6.530870913621243 ], [ 3.63600993169922, 6.533402920341587 ], [ 3.637239932534953, 6.537067889831746 ], [ 3.638060093092236, 6.539511204491873 ], [ 3.638961076704391, 6.541388034767124 ], [ 3.640110970485694, 6.545618056641217 ], [ 3.641582966485828, 6.54758405697703 ], [ 3.642526388126839, 6.550214766764441 ], [ 3.64583802237695, 6.554615020754227 ], [ 3.647391081432204, 6.556015014705451 ], [ 3.648291111043704, 6.557890891980037 ], [ 3.650335073432473, 6.559947014377087 ], [ 3.652539014929971, 6.560870171004296 ], [ 3.655807018150426, 6.562538147137616 ], [ 3.659074068370217, 6.564206123270935 ], [ 3.664134978808875, 6.56557607720174 ], [ 3.66838407469595, 6.568553925225046 ], [ 3.67034602202898, 6.571176052006649 ], [ 3.672880887751319, 6.573885917847917 ], [ 3.675415039473137, 6.576597213690093 ], [ 3.677869081140557, 6.579874038916557 ], [ 3.679912089528671, 6.581929207312953 ], [ 3.68203592297175, 6.583417892324405 ], [ 3.684650897748497, 6.585563182782039 ], [ 3.687346934580319, 6.587141990854775 ], [ 3.689471006023496, 6.588631152866583 ], [ 3.691514015411656, 6.590686798263278 ], [ 3.693639039855498, 6.592175961275132 ], [ 3.695190906909943, 6.593575954226367 ], [ 3.696743964965151, 6.594975948177591 ], [ 3.698787928353909, 6.597031115573941 ], [ 3.70075011268716, 6.599652767355281 ], [ 3.702713013020855, 6.602273941136218 ], [ 3.704659224343175, 6.604873656902612 ], [ 3.702215671682893, 6.60873603752691 ], [ 3.70155119923146, 6.612456799054996 ], [ 3.700488090509111, 6.614317417319171 ], [ 3.700355053418718, 6.618304253028043 ], [ 3.69809603688384, 6.622689724007785 ], [ 3.696634053890477, 6.62587881117463 ], [ 3.694109201174967, 6.626277447445489 ], [ 3.692248820910891, 6.627207756077553 ], [ 3.690521001736954, 6.629333972522261 ], [ 3.688926457653508, 6.631593227057294 ], [ 3.686268567847605, 6.63278961187018 ], [ 3.684806823854444, 6.63438415495358 ], [ 3.682547569319354, 6.637706280210807 ], [ 3.682281733138723, 6.639965533745908 ], [ 3.682813406499974, 6.643819332364387 ], [ 3.684806823854444, 6.64767312998282 ], [ 3.686353206905096, 6.650095939629011 ], [ 3.688793420563115, 6.653919220226783 ], [ 3.690122366466085, 6.655779839490947 ], [ 3.689856768285608, 6.65843772929685 ], [ 3.690255403556478, 6.660430907651119 ], [ 3.690786838917575, 6.662557125095816 ], [ 3.690786838917575, 6.665480614082185 ], [ 3.691717147549639, 6.668005942798004 ], [ 3.695969582438977, 6.673587321590333 ], [ 3.697482824467158, 6.67639732449959 ], [ 3.698760509335273, 6.678770065111735 ], [ 3.699962139151751, 6.682374953561123 ] ] ] ] } },
{ "type": "Feature", "properties": { "fid": 523.0, "OBJECTID": 523.0, "lganame": "Apapa", "statecode": "LA", "LGA_UID": "24_05" }, "geometry": { "type": "MultiPolygon", "coordinates": [ [ [ [ 3.341692447724313, 6.474906920596311 ], [ 3.34724617049784, 6.477763175537007 ], [ 3.351133585139166, 6.478635788129907 ], [ 3.357798099667377, 6.478556633076153 ], [ 3.360257626338523, 6.477286816213336 ], [ 3.363034487225264, 6.476493834674557 ], [ 3.365105866632632, 6.475426673949471 ], [ 3.363708734683371, 6.471515179291771 ], [ 3.364700556357263, 6.466953278192193 ], [ 3.369659184726402, 6.467746734731293 ], [ 3.374419450960772, 6.468837261472288 ], [ 3.377097129780168, 6.468242645068244 ], [ 3.379278898262555, 6.466556548922654 ], [ 3.381162642542449, 6.463217257653753 ], [ 3.37878894792965, 6.461384773408668 ], [ 3.376679659496517, 6.459754944301267 ], [ 3.3750531673914, 6.456705093229004 ], [ 3.3768827916345, 6.452232361189999 ], [ 3.379932403706562, 6.449182510117794 ], [ 3.385644196587464, 6.446019172968477 ], [ 3.393147706685738, 6.441863537144911 ], [ 3.398840426553704, 6.436780452691153 ], [ 3.399880409260334, 6.434388638066025 ], [ 3.395993947619672, 6.431901455376135 ], [ 3.392131089995019, 6.432104587514118 ], [ 3.388064861232181, 6.433121204204895 ], [ 3.384202002607594, 6.430884837685369 ], [ 3.38155889481169, 6.428851604303873 ], [ 3.38277888264065, 6.426005363369995 ], [ 3.383388758054991, 6.423768996850526 ], [ 3.383185386916807, 6.420719146778254 ], [ 3.380949020397338, 6.418076037982416 ], [ 3.377899408325277, 6.418685913396757 ], [ 3.375866412943935, 6.420109272363902 ], [ 3.373019934009903, 6.420922278916294 ], [ 3.370376825214009, 6.420719146778254 ], [ 3.368953705247065, 6.419295787811166 ], [ 3.368547200970852, 6.415432930186512 ], [ 3.367733955418316, 6.413400172805382 ], [ 3.362854481102943, 6.412586689252635 ], [ 3.357161760234987, 6.412586689252635 ], [ 3.35451865243914, 6.410960197147517 ], [ 3.350452422676312, 6.408723830627991 ], [ 3.347809552880619, 6.408723830627991 ], [ 3.345776320499112, 6.410147189595136 ], [ 3.341710090736342, 6.412586689252635 ], [ 3.338457107526096, 6.413196563667043 ], [ 3.337033986559106, 6.414823054772171 ], [ 3.337440728835475, 6.417263031430025 ], [ 3.339880466493184, 6.419906139225873 ], [ 3.350859164952681, 6.424378872264867 ], [ 3.354722022577334, 6.426818370922433 ], [ 3.35431551930111, 6.428851604303873 ], [ 3.351672410505273, 6.429868220994649 ], [ 3.349232673847553, 6.429461478718281 ], [ 3.345979690637307, 6.427834987613153 ], [ 3.342930078565246, 6.427225113198745 ], [ 3.339067220940592, 6.427631855475113 ], [ 3.335814237730347, 6.428444862027504 ], [ 3.332357883381917, 6.430071354132679 ], [ 3.331341266691197, 6.434137820895614 ], [ 3.334391116763413, 6.435967445138772 ], [ 3.338827371777654, 6.436401367433575 ], [ 3.341295719454763, 6.436030865181863 ], [ 3.345103979042335, 6.434920311427277 ], [ 3.349784851222751, 6.435396193750648 ], [ 3.35041975965413, 6.443568230303129 ], [ 3.352323770947805, 6.447614670052531 ], [ 3.352403164001771, 6.451898574963252 ], [ 3.356925488074467, 6.452533245394477 ], [ 3.357242823290107, 6.456897259359607 ], [ 3.356925488074467, 6.462530136186899 ], [ 3.34891223862985, 6.462054252863538 ], [ 3.348674297468165, 6.465703487343035 ], [ 3.346294164850974, 6.469908714200244 ], [ 3.344389914557155, 6.471178055062751 ], [ 3.341692447724313, 6.474906920596311 ] ] ] ] } },
{ "type": "Feature", "properties": { "fid": 559.0, "OBJECTID": 559.0, "lganame": "Mushin", "statecode": "LA", "LGA_UID": "24_16" }, "geometry": { "type": "MultiPolygon", "coordinates": [ [ [ [ 3.368345344833699, 6.515684502302747 ], [ 3.36758391831637, 6.515187789965296 ], [ 3.366816541794947, 6.514878459755096 ], [ 3.366313881453436, 6.515578021230397 ], [ 3.365857024143054, 6.51536862908813 ], [ 3.364952110528179, 6.515554921214743 ], [ 3.363328500425041, 6.510040242467767 ], [ 3.360344656397615, 6.510696972913991 ], [ 3.359616540902891, 6.511510749466879 ], [ 3.359329249707685, 6.511601907528814 ], [ 3.358988969476513, 6.511709881602201 ], [ 3.356646972885244, 6.512453016107145 ], [ 3.354234200245855, 6.512709997281718 ], [ 3.352949291372852, 6.512295971000412 ], [ 3.352078407781107, 6.512367355048923 ], [ 3.351064758092377, 6.512724274291429 ], [ 3.349023179705227, 6.512681444262341 ], [ 3.345868014561461, 6.511810560670597 ], [ 3.342441591233353, 6.511753453631798 ], [ 3.339757559409691, 6.511268044301971 ], [ 3.339211600038709, 6.511242846284858 ], [ 3.337901579148593, 6.511182383243806 ], [ 3.337573213925509, 6.510011689448334 ], [ 3.336261925034535, 6.508809673631617 ], [ 3.336202643994284, 6.508755332594717 ], [ 3.334560815878717, 6.507127782488851 ], [ 3.333903371432029, 6.505750549553113 ], [ 3.333011072825741, 6.504655997809436 ], [ 3.329621054522363, 6.501088710385602 ], [ 3.32815221352439, 6.499948127610651 ], [ 3.326682420525742, 6.498806806835148 ], [ 3.323340671255153, 6.50113979442034 ], [ 3.324320792921128, 6.504829883927584 ], [ 3.324402896976892, 6.507898727012673 ], [ 3.325759189898406, 6.510539928807248 ], [ 3.328735477920702, 6.512259561975668 ], [ 3.33057759817234, 6.513323897698854 ], [ 3.331136190551831, 6.513742842983504 ], [ 3.333861255403406, 6.515786640372141 ], [ 3.334014684507679, 6.516209506659493 ], [ 3.335324623397696, 6.519819827112542 ], [ 3.335610704592057, 6.522969645252658 ], [ 3.336402427129997, 6.531686665175471 ], [ 3.33765649498207, 6.545494210557081 ], [ 3.338548792588369, 6.549277554127684 ], [ 3.341142405350581, 6.551311992509966 ], [ 3.351296755250019, 6.555499845355428 ], [ 3.35185722763083, 6.555717185503113 ], [ 3.352161372837486, 6.555835127583236 ], [ 3.354448351391397, 6.556774046221165 ], [ 3.357610654539997, 6.558230276210622 ], [ 3.361186984969947, 6.558365905302765 ], [ 3.367069011966521, 6.558487258385242 ], [ 3.367063277962643, 6.557194563506926 ], [ 3.367061298961289, 6.55674840720377 ], [ 3.367613688336576, 6.54030442003085 ], [ 3.367743757424989, 6.536432432400034 ], [ 3.368016461610239, 6.528314311884117 ], [ 3.368148100699727, 6.524395589221569 ], [ 3.368344068832869, 6.518561840257803 ], [ 3.369063843321896, 6.516852868096635 ], [ 3.36803542062313, 6.516429867809222 ], [ 3.368345344833699, 6.515684502302747 ] ] ] ] } },
{ "type": "Feature", "properties": { "fid": 566.0, "OBJECTID": 566.0, "lganame": "Kosofe", "statecode": "LA", "LGA_UID": "24_13" }, "geometry": { "type": "MultiPolygon", "coordinates": [ [ [ [ 3.371541739005522, 6.638493537745717 ], [ 3.376695155507036, 6.638493537745717 ], [ 3.434690713912289, 6.639135838182142 ], [ 3.434937954080283, 6.63196659131097 ], [ 3.435331821347859, 6.620542525548842 ], [ 3.439960957493156, 6.615219115931836 ], [ 3.439960957493156, 6.610821723944014 ], [ 3.442275286065637, 6.609432697000273 ], [ 3.442969798537547, 6.607349872585075 ], [ 3.44644141189633, 6.607349872585075 ], [ 3.452459096985081, 6.601563453653455 ], [ 3.453847884928678, 6.599711895395444 ], [ 3.457551003444792, 6.599248886080829 ], [ 3.459402799702957, 6.596934318508204 ], [ 3.460328579331986, 6.594157218621262 ], [ 3.465509414852136, 6.585466384716256 ], [ 3.459907055045619, 6.584590912121428 ], [ 3.457129955158678, 6.583579063433945 ], [ 3.454272985217528, 6.583131790130039 ], [ 3.451086998052801, 6.580897807612132 ], [ 3.45018601444059, 6.579020977336938 ], [ 3.448061942997413, 6.577531815325131 ], [ 3.446589946997278, 6.575565814989318 ], [ 3.444466113554199, 6.574077128977819 ], [ 3.442254066051248, 6.569100856596663 ], [ 3.441024065215515, 6.565436840107168 ], [ 3.440776110047011, 6.563083171507913 ], [ 3.439874887434712, 6.56120586423242 ], [ 3.439054965877574, 6.558763980573246 ], [ 3.438153982265419, 6.556887150298053 ], [ 3.43219208721456, 6.553639889091642 ], [ 3.429012060053878, 6.555459023327671 ], [ 3.426564932391216, 6.55623292885349 ], [ 3.424608946062222, 6.557663917825835 ], [ 3.42250943163566, 6.558961390707395 ], [ 3.420125008015589, 6.560434817708483 ], [ 3.41718697501932, 6.56055498079013 ], [ 3.414820910411663, 6.56076383593205 ], [ 3.411473989137619, 6.55966186518333 ], [ 3.409573077846005, 6.557629107802143 ], [ 3.410808085685176, 6.552034855001125 ], [ 3.41219305962619, 6.550516128969207 ], [ 3.415043115562639, 6.546909808518876 ], [ 3.415936947169996, 6.544734955041179 ], [ 3.416663884663876, 6.539639949579396 ], [ 3.416656970659176, 6.535587787826103 ], [ 3.416408062490063, 6.533235073227559 ], [ 3.415587901932838, 6.530792235567787 ], [ 3.41297292715609, 6.528646946110143 ], [ 3.408886194379306, 6.52629232351029 ], [ 3.40463352248986, 6.532024384404963 ], [ 3.401686668487571, 6.535995960103435 ], [ 3.39762043972479, 6.549211025082457 ], [ 3.395587444343448, 6.549617767358825 ], [ 3.391114473304299, 6.548601150668105 ], [ 3.384202002607594, 6.546974658562931 ], [ 3.379525900430394, 6.548398017530076 ], [ 3.368888617202856, 6.557147980475236 ], [ 3.367477417244004, 6.567574023559246 ], [ 3.370730162454095, 6.574397087195223 ], [ 3.374697208149541, 6.579950808968704 ], [ 3.379131556162463, 6.585913658020161 ], [ 3.38401937548349, 6.592486382486015 ], [ 3.381005764435884, 6.59621954002256 ], [ 3.377870798305821, 6.600102900661113 ], [ 3.37382435755643, 6.605576992380463 ], [ 3.369857549861194, 6.610496043722776 ], [ 3.365811348112004, 6.617477894466617 ], [ 3.364779949411229, 6.623031616240098 ], [ 3.365017890572858, 6.625967026234548 ], [ 3.365573167950174, 6.628744125121443 ], [ 3.367001294920499, 6.6320762633855 ], [ 3.371541739005522, 6.638493537745717 ] ] ] ] } },
{ "type": "Feature", "properties": { "fid": 615.0, "OBJECTID": 615.0, "lganame": "Ifako\/Ijaye", "statecode": "LA", "LGA_UID": "24_10" }, "geometry": { "type": "MultiPolygon", "coordinates": [ [ [ [ 3.317112923023728, 6.667160511223585 ], [ 3.321761608182271, 6.666386126697432 ], [ 3.327884197342257, 6.666985035104346 ], [ 3.333111047893681, 6.667549610487981 ], [ 3.336017608868531, 6.66812038387576 ], [ 3.338281393406703, 6.666890144039883 ], [ 3.342215538079756, 6.665897369365325 ], [ 3.344873427885659, 6.6652269359098 ], [ 3.351315737262894, 6.657836913888673 ], [ 3.348117590089942, 6.655138493055176 ], [ 3.34423041344877, 6.651858806826795 ], [ 3.342293501132701, 6.65030908577387 ], [ 3.343649387053972, 6.646241188009924 ], [ 3.34423041344877, 6.642173767246277 ], [ 3.344617843712001, 6.638880730008793 ], [ 3.343455790922462, 6.634038447718694 ], [ 3.342293501132701, 6.63152027100773 ], [ 3.339969157553412, 6.629389762560152 ], [ 3.338225842368956, 6.627259254112573 ], [ 3.337257384710938, 6.625322341796505 ], [ 3.335167885291185, 6.624426842188086 ], [ 3.332996129815569, 6.62377262074358 ], [ 3.328734635920114, 6.623191357348617 ], [ 3.325635671814496, 6.621448040164125 ], [ 3.316338062497209, 6.645660399615281 ], [ 3.314756870422855, 6.647460936838684 ], [ 3.307191372282489, 6.647377013781636 ], [ 3.306032166494845, 6.648122811288374 ], [ 3.306029684493183, 6.648151566307888 ], [ 3.295306641207333, 6.65530111816571 ], [ 3.295163330109972, 6.65539667023063 ], [ 3.293488990972321, 6.657151676423041 ], [ 3.291699887756749, 6.661003875040478 ], [ 3.290434959897254, 6.662298650920206 ], [ 3.289586674320901, 6.663166952510153 ], [ 3.288885665844589, 6.663351055635246 ], [ 3.287702141040484, 6.663661880846462 ], [ 3.284313788738245, 6.663109846471343 ], [ 3.283190682975146, 6.663395380665349 ], [ 3.282992031840138, 6.663516735747805 ], [ 3.278973756109906, 6.665971492415736 ], [ 3.271445663994939, 6.671295192032915 ], [ 3.271003880694764, 6.672728979007104 ], [ 3.269351737572208, 6.678090932650321 ], [ 3.269484987662736, 6.680851106525722 ], [ 3.268568378039959, 6.682159573414765 ], [ 3.263679102717958, 6.685590993746246 ], [ 3.259461709852417, 6.690260979919287 ], [ 3.259861708124163, 6.69093418137669 ], [ 3.261134385988896, 6.693116187859232 ], [ 3.262877703173444, 6.696602821228282 ], [ 3.265008449621178, 6.696796417359792 ], [ 3.266649245736005, 6.695483685467877 ], [ 3.269975423995959, 6.692459106412798 ], [ 3.276360989334705, 6.686652184467277 ], [ 3.27817010856387, 6.685451507651464 ], [ 3.280486107137506, 6.683914660607229 ], [ 3.28449869186386, 6.68129396382659 ], [ 3.287597894969622, 6.680097103013395 ], [ 3.290802002146677, 6.678859711172663 ], [ 3.296613693095424, 6.676615237647638 ], [ 3.304131031203099, 6.67371177667485 ], [ 3.307542561521075, 6.672394275779709 ], [ 3.309558629890887, 6.671615601250608 ], [ 3.312794209089361, 6.669707297954005 ], [ 3.317112923023728, 6.667160511223585 ] ] ] ] } },
{ "type": "Feature", "properties": { "fid": 622.0, "OBJECTID": 622.0, "lganame": "Ajeromi\/Ifelodun", "statecode": "LA", "LGA_UID": "24_02" }, "geometry": { "type": "MultiPolygon", "coordinates": [ [ [ [ 3.316458940579366, 6.459038257814314 ], [ 3.32106447170861, 6.460388183731538 ], [ 3.335424662465641, 6.470463752577416 ], [ 3.33980059643892, 6.473393439567985 ], [ 3.341692447724313, 6.474906920596311 ], [ 3.344389914557155, 6.471178055062751 ], [ 3.346294164850974, 6.469908714200244 ], [ 3.348674297468165, 6.465703487343035 ], [ 3.34891223862985, 6.462054252863538 ], [ 3.356925488074467, 6.462530136186899 ], [ 3.357242823290107, 6.456897259359607 ], [ 3.356925488074467, 6.452533245394477 ], [ 3.352403164001771, 6.451898574963252 ], [ 3.352323770947805, 6.447614670052531 ], [ 3.35041975965413, 6.443568230303129 ], [ 3.349784851222751, 6.435396193750648 ], [ 3.345103979042335, 6.434920311427277 ], [ 3.341295719454763, 6.436030865181863 ], [ 3.338827371777654, 6.436401367433575 ], [ 3.335610866592162, 6.438813686072649 ], [ 3.32971477458608, 6.440033435901398 ], [ 3.323209047165733, 6.441253661730514 ], [ 3.320565939369885, 6.444506644940759 ], [ 3.319142818402895, 6.449182510117794 ], [ 3.317719460435796, 6.451622485775658 ], [ 3.316499709607058, 6.454671859847565 ], [ 3.316458940579366, 6.459038257814314 ] ] ] ] } },
{ "type": "Feature", "properties": { "fid": 624.0, "OBJECTID": 624.0, "lganame": "Lagos Island", "statecode": "LA", "LGA_UID": "24_14" }, "geometry": { "type": "MultiPolygon", "coordinates": [ [ [ [ 3.468771935068844, 6.56154298846144 ], [ 3.467783451397224, 6.550670624074201 ], [ 3.471407651859693, 6.546387672164144 ], [ 3.475530147660777, 6.543371201114553 ], [ 3.477216958806878, 6.540999888503393 ], [ 3.479093075081607, 6.540134906915682 ], [ 3.484390019680632, 6.535755156939842 ], [ 3.486917973398249, 6.534412861027818 ], [ 3.488792895672191, 6.533548832440715 ], [ 3.491321087389963, 6.532207965529665 ], [ 3.49499106388356, 6.531044959739461 ], [ 3.497929095879783, 6.530926227658824 ], [ 3.500866889875908, 6.530806064577177 ], [ 3.503722905816403, 6.531251906880073 ], [ 3.506580113757764, 6.531699181183967 ], [ 3.512125968525879, 6.529672145806728 ], [ 3.516448975463163, 6.52803182569221 ], [ 3.518975973180147, 6.526690959781149 ], [ 3.522727012728808, 6.524961947606357 ], [ 3.526316881167986, 6.524365902201396 ], [ 3.52917408910929, 6.524812221504646 ], [ 3.531460046662517, 6.525168895746958 ], [ 3.535949944713195, 6.5264501566175 ], [ 3.538155079211435, 6.527372837244457 ], [ 3.539707899266546, 6.528772831195681 ], [ 3.541913032764796, 6.52969598782289 ], [ 3.544528007541544, 6.531840801280225 ], [ 3.546652078984778, 6.533329964292022 ], [ 3.548937081537304, 6.5336871145347 ], [ 3.55268788308581, 6.531959057360552 ], [ 3.556359052580206, 6.530796050570359 ], [ 3.558725119187841, 6.530587196428428 ], [ 3.563296080293583, 6.531301021913464 ], [ 3.56697297079188, 6.534191131877151 ], [ 3.571141004623826, 6.537734985285056 ], [ 3.573184013011996, 6.53979110668206 ], [ 3.576128006012254, 6.543723106353696 ], [ 3.57817196840108, 6.545777797749736 ], [ 3.580214976789193, 6.547832966146132 ], [ 3.583240031844582, 6.551199913433834 ], [ 3.584141016456726, 6.553077220709383 ], [ 3.587656974845686, 6.557097912441236 ], [ 3.590352057676853, 6.558677196514282 ], [ 3.59394192711602, 6.558080196108676 ], [ 3.597450971500223, 6.558050156088257 ], [ 3.600549935605841, 6.556797981237423 ], [ 3.602916002213476, 6.556589127095549 ], [ 3.605935097264819, 6.555902957629314 ], [ 3.611728907201439, 6.556230067851573 ], [ 3.617443085083949, 6.557122231457754 ], [ 3.619808911691393, 6.556912899315535 ], [ 3.623970031518695, 6.55640602097111 ], [ 3.625845908793281, 6.555541992384065 ], [ 3.627882957177349, 6.553544998027178 ], [ 3.629348040172772, 6.551459788610373 ], [ 3.63244700427839, 6.550208091759941 ], [ 3.63538503627467, 6.550087928678295 ], [ 3.637831925937178, 6.549313068151775 ], [ 3.642526388126839, 6.550214766764441 ], [ 3.641582966485828, 6.54758405697703 ], [ 3.640110970485694, 6.545618056641217 ], [ 3.638961076704391, 6.541388034767124 ], [ 3.638060093092236, 6.539511204491873 ], [ 3.637239932534953, 6.537067889831746 ], [ 3.63600993169922, 6.533402920341587 ], [ 3.63461899775416, 6.530870913621243 ], [ 3.632406950251152, 6.525896072241039 ], [ 3.631587028694071, 6.523453235581258 ], [ 3.63027691780394, 6.520355225476294 ], [ 3.629456997246848, 6.517911910816167 ], [ 3.615839242994184, 6.519431113848441 ], [ 3.589456558068377, 6.526234627471069 ], [ 3.57036900509928, 6.512778759328455 ], [ 3.569461823482925, 6.502724648497178 ], [ 3.572183371332073, 6.491460799843878 ], [ 3.559218883523329, 6.476871013930804 ], [ 3.512387752703773, 6.467648505664556 ], [ 3.500292540485646, 6.461903571761127 ], [ 3.470999717582572, 6.46470022166136 ], [ 3.463440180446185, 6.466590404945634 ], [ 3.45693898202893, 6.468858242486533 ], [ 3.445070743965005, 6.46953868894883 ], [ 3.429498196384202, 6.469084739640437 ], [ 3.420351267169281, 6.468026637921469 ], [ 3.411052941851551, 6.464322567404736 ], [ 3.406318187634497, 6.464496135522666 ], [ 3.406318187634497, 6.460479258793384 ], [ 3.407241106261552, 6.457157611536502 ], [ 3.408521414131485, 6.453557014090052 ], [ 3.409209250598849, 6.451622485775658 ], [ 3.408192634908062, 6.447149276736297 ], [ 3.407176018217342, 6.443693161388012 ], [ 3.404329777283465, 6.438610553934666 ], [ 3.401890038625766, 6.436170578276801 ], [ 3.399880409260334, 6.434388638066025 ], [ 3.398840426553704, 6.436780452691153 ], [ 3.393147706685738, 6.441863537144911 ], [ 3.385644196587464, 6.446019172968477 ], [ 3.379932403706562, 6.449182510117794 ], [ 3.3768827916345, 6.452232361189999 ], [ 3.3750531673914, 6.456705093229004 ], [ 3.376679659496517, 6.459754944301267 ], [ 3.37878894792965, 6.461384773408668 ], [ 3.381162642542449, 6.463217257653753 ], [ 3.387251615679645, 6.466870785136166 ], [ 3.394038677291121, 6.468209743045918 ], [ 3.395335913172573, 6.472072123670216 ], [ 3.394932031898122, 6.474903106593729 ], [ 3.395180941067224, 6.477255821192273 ], [ 3.396410941902957, 6.480919837681824 ], [ 3.39772200579381, 6.484018802787432 ], [ 3.397317885519215, 6.486848830710301 ], [ 3.397164106414721, 6.492033005232713 ], [ 3.399207114802834, 6.494089126629717 ], [ 3.402312993913142, 6.496889113532177 ], [ 3.40697097807805, 6.501089096385897 ], [ 3.409996033133382, 6.504455089672888 ], [ 3.410002947138082, 6.508506775425815 ], [ 3.409107923529973, 6.510682105903868 ], [ 3.407238960260088, 6.515597820243897 ], [ 3.405774117264798, 6.51768398266131 ], [ 3.404309034269374, 6.51977014507878 ], [ 3.405478239063768, 6.52325344144549 ], [ 3.408886194379306, 6.52629232351029 ], [ 3.41297292715609, 6.528646946110143 ], [ 3.415587901932838, 6.530792235567787 ], [ 3.416408062490063, 6.533235073227559 ], [ 3.416656970659176, 6.535587787826103 ], [ 3.416663884663876, 6.539639949579396 ], [ 3.415936947169996, 6.544734955041179 ], [ 3.415043115562639, 6.546909808518876 ], [ 3.41219305962619, 6.550516128969207 ], [ 3.410808085685176, 6.552034855001125 ], [ 3.409573077846005, 6.557629107802143 ], [ 3.411473989137619, 6.55966186518333 ], [ 3.414820910411663, 6.56076383593205 ], [ 3.41718697501932, 6.56055498079013 ], [ 3.420125008015589, 6.560434817708483 ], [ 3.42250943163566, 6.558961390707395 ], [ 3.424608946062222, 6.557663917825835 ], [ 3.426564932391216, 6.55623292885349 ], [ 3.429012060053878, 6.555459023327671 ], [ 3.43219208721456, 6.553639889091642 ], [ 3.438153982265419, 6.556887150298053 ], [ 3.439054965877574, 6.558763980573246 ], [ 3.439874887434712, 6.56120586423242 ], [ 3.440776110047011, 6.563083171507913 ], [ 3.441024065215515, 6.565436840107168 ], [ 3.442254066051248, 6.569100856596663 ], [ 3.444466113554199, 6.574077128977819 ], [ 3.446589946997278, 6.575565814989318 ], [ 3.448061942997413, 6.577531815325131 ], [ 3.45018601444059, 6.579020977336938 ], [ 3.451086998052801, 6.580897807612132 ], [ 3.454272985217528, 6.583131790130039 ], [ 3.457129955158678, 6.583579063433945 ], [ 3.459907055045619, 6.584590912121428 ], [ 3.465509414852136, 6.585466384716256 ], [ 3.468316077759141, 6.587061881800366 ], [ 3.470931052535889, 6.589207172257943 ], [ 3.469552993599564, 6.594779015043798 ], [ 3.474694967093285, 6.595582007589371 ], [ 3.477294921859823, 6.597189425681506 ], [ 3.481291532575369, 6.591194629608367 ], [ 3.479808806567917, 6.58427572290725 ], [ 3.474537372986219, 6.576203823422816 ], [ 3.470419168188073, 6.568955898498189 ], [ 3.468771935068844, 6.56154298846144 ] ] ] ] } },
{ "type": "Feature", "properties": { "fid": 625.0, "OBJECTID": 625.0, "lganame": "Agege", "statecode": "LA", "LGA_UID": "24_01" }, "geometry": { "type": "MultiPolygon", "coordinates": [ [ [ [ 3.306032166494845, 6.648122811288374 ], [ 3.307191372282489, 6.647377013781636 ], [ 3.314756870422855, 6.647460936838684 ], [ 3.316338062497209, 6.645660399615281 ], [ 3.325635671814496, 6.621448040164125 ], [ 3.328734635920114, 6.623191357348617 ], [ 3.332996129815569, 6.62377262074358 ], [ 3.335167885291185, 6.624426842188086 ], [ 3.337644814974169, 6.617187023268968 ], [ 3.336869955447696, 6.613312720636543 ], [ 3.329896926709807, 6.61234426497856 ], [ 3.331357001701861, 6.605445385291091 ], [ 3.327960014393796, 6.607308387556884 ], [ 3.325054407419543, 6.607695579819961 ], [ 3.321761608182271, 6.607501983688451 ], [ 3.31904983533974, 6.605952262635469 ], [ 3.31682936583104, 6.60472742380324 ], [ 3.316241264431426, 6.604403018582843 ], [ 3.312638892983784, 6.606535781031937 ], [ 3.310423719478706, 6.607858397930613 ], [ 3.309074401561929, 6.60866403647799 ], [ 3.305976402456963, 6.610799774929148 ], [ 3.304929438745603, 6.613141164520016 ], [ 3.30444610841721, 6.614684882568895 ], [ 3.303844690008532, 6.616605758874016 ], [ 3.301086938134802, 6.619537576866037 ], [ 3.298723804529175, 6.622049866573036 ], [ 3.298038520063528, 6.624067649944038 ], [ 3.298428549328548, 6.625708462058867 ], [ 3.298590555438636, 6.626390003521976 ], [ 3.3062238656251, 6.645901583779164 ], [ 3.30616341058402, 6.6466020742551 ], [ 3.306032166494845, 6.648122811288374 ] ] ] ] } },
{ "type": "Feature", "properties": { "fid": 626.0, "OBJECTID": 626.0, "lganame": "Ikeja", "statecode": "LA", "LGA_UID": "24_11" }, "geometry": { "type": "MultiPolygon", "coordinates": [ [ [ [ 3.37382435755643, 6.605576992380463 ], [ 3.377870798305821, 6.600102900661113 ], [ 3.381005764435884, 6.59621954002256 ], [ 3.38401937548349, 6.592486382486015 ], [ 3.379131556162463, 6.585913658020161 ], [ 3.374697208149541, 6.579950808968704 ], [ 3.370730162454095, 6.574397087195223 ], [ 3.367477417244004, 6.567574023559246 ], [ 3.368888617202856, 6.557147980475236 ], [ 3.367063277962643, 6.557194563506926 ], [ 3.367069011966521, 6.558487258385242 ], [ 3.361186984969947, 6.558365905302765 ], [ 3.357610654539997, 6.558230276210622 ], [ 3.354448351391397, 6.556774046221165 ], [ 3.352161372837486, 6.555835127583236 ], [ 3.338806867763708, 6.589488029448773 ], [ 3.336482525184408, 6.588519572790801 ], [ 3.333770752341934, 6.58580779994827 ], [ 3.334933043131628, 6.579222202473659 ], [ 3.334739447000118, 6.571280479077643 ], [ 3.328928471051825, 6.565276145997984 ], [ 3.325441836682785, 6.564888476734552 ], [ 3.322149038445502, 6.564501286471454 ], [ 3.322149038445502, 6.55907773978646 ], [ 3.323698521498329, 6.555009842022514 ], [ 3.321761608182271, 6.55423545849635 ], [ 3.318274974813278, 6.551136017390434 ], [ 3.315938559225799, 6.55073934512086 ], [ 3.31568963305665, 6.571808387436306 ], [ 3.315484727917408, 6.589151439220075 ], [ 3.317550100320716, 6.593401157107564 ], [ 3.319118522386418, 6.598345420466956 ], [ 3.319548846678799, 6.599701969388661 ], [ 3.319263439484871, 6.60022938674706 ], [ 3.31682936583104, 6.60472742380324 ], [ 3.31904983533974, 6.605952262635469 ], [ 3.321761608182271, 6.607501983688451 ], [ 3.325054407419543, 6.607695579819961 ], [ 3.327960014393796, 6.607308387556884 ], [ 3.331357001701861, 6.605445385291091 ], [ 3.329896926709807, 6.61234426497856 ], [ 3.336869955447696, 6.613312720636543 ], [ 3.337644814974169, 6.617187023268968 ], [ 3.335167885291185, 6.624426842188086 ], [ 3.337257384710938, 6.625322341796505 ], [ 3.338225842368956, 6.627259254112573 ], [ 3.339969157553412, 6.629389762560152 ], [ 3.342293501132701, 6.63152027100773 ], [ 3.343455790922462, 6.634038447718694 ], [ 3.344617843712001, 6.638880730008793 ], [ 3.34423041344877, 6.642173767246277 ], [ 3.343649387053972, 6.646241188009924 ], [ 3.342293501132701, 6.65030908577387 ], [ 3.34423041344877, 6.651858806826795 ], [ 3.348117590089942, 6.655138493055176 ], [ 3.351315737262894, 6.657836913888673 ], [ 3.355852365345356, 6.652633190352958 ], [ 3.367474079241731, 6.643723488299258 ], [ 3.369888543882269, 6.640619278190059 ], [ 3.371541739005522, 6.638493537745717 ], [ 3.367001294920499, 6.6320762633855 ], [ 3.365573167950174, 6.628744125121443 ], [ 3.365017890572858, 6.625967026234548 ], [ 3.364779949411229, 6.623031616240098 ], [ 3.365811348112004, 6.617477894466617 ], [ 3.369857549861194, 6.610496043722776 ], [ 3.37382435755643, 6.605576992380463 ] ] ] ] } },
{ "type": "Feature", "properties": { "fid": 657.0, "OBJECTID": 657.0, "lganame": "Ojo", "statecode": "LA", "LGA_UID": "24_17" }, "geometry": { "type": "MultiPolygon", "coordinates": [ [ [ [ 3.211388350188827, 6.512818813355693 ], [ 3.240461587942718, 6.486998080811702 ], [ 3.250830411987863, 6.481712341220259 ], [ 3.254482348469196, 6.478796517239118 ], [ 3.252965212438369, 6.478459358010014 ], [ 3.250477075747767, 6.478355407939375 ], [ 3.242494822324204, 6.476629256766557 ], [ 3.238835095837601, 6.471953391589523 ], [ 3.238631963699561, 6.457111834505383 ], [ 3.231922626140886, 6.45914459188657 ], [ 3.23110938058835, 6.456501961091021 ], [ 3.228873014068824, 6.452028751051671 ], [ 3.225823401996763, 6.449589252394162 ], [ 3.222367047648333, 6.449589252394162 ], [ 3.218097447747311, 6.448369502565413 ], [ 3.212811470155771, 6.447556019012666 ], [ 3.217894315609328, 6.440033435901398 ], [ 3.220740556543205, 6.43637418741514 ], [ 3.212811470155771, 6.433731078619246 ], [ 3.207322121425989, 6.433731078619246 ], [ 3.204272509353927, 6.433731078619246 ], [ 3.200612782867324, 6.431697845237807 ], [ 3.200206279591157, 6.428648472165889 ], [ 3.201019526143682, 6.425801754231657 ], [ 3.19918966290038, 6.419702530087534 ], [ 3.200612782867324, 6.416449546877288 ], [ 3.202442646110626, 6.414416313495792 ], [ 3.204978942833918, 6.400849819277994 ], [ 3.200511216798304, 6.400716782187601 ], [ 3.18061971728298, 6.400122642783913 ], [ 3.164986133660705, 6.399759292537055 ], [ 3.150806904026581, 6.398668288795761 ], [ 3.129356146451812, 6.398304938548847 ], [ 3.113722562829537, 6.398668288795761 ], [ 3.095180511231035, 6.397214412807898 ], [ 3.076902627812103, 6.396850585560685 ], [ 3.072730779977519, 6.399371624273613 ], [ 3.079236507397866, 6.405064106141424 ], [ 3.083709478437015, 6.408723830627991 ], [ 3.086352587232909, 6.409740448318757 ], [ 3.088792085890418, 6.410147189595136 ], [ 3.091231822548082, 6.40913057290436 ], [ 3.094281672620355, 6.40811395621364 ], [ 3.09773778896863, 6.407707213937272 ], [ 3.102617264283992, 6.408520699489998 ], [ 3.106886864184958, 6.40913057290436 ], [ 3.106683493046773, 6.412383556114605 ], [ 3.107496737599377, 6.41604280460092 ], [ 3.108513355290086, 6.420109272363902 ], [ 3.109123229704494, 6.425191878817259 ], [ 3.106886864184958, 6.428648472165889 ], [ 3.106073617632433, 6.431697845237807 ], [ 3.107090235323142, 6.434747696310012 ], [ 3.106683493046773, 6.438000678520268 ], [ 3.104650496665442, 6.440643787316105 ], [ 3.102820635422177, 6.444099902664391 ], [ 3.100787401040691, 6.447962761289034 ], [ 3.099364281073747, 6.450605869084882 ], [ 3.097534656830589, 6.454061985433157 ], [ 3.095704793587288, 6.455688476538285 ], [ 3.094484805758384, 6.458128452196149 ], [ 3.093468428067752, 6.460364818715618 ], [ 3.093597651155562, 6.464630126613713 ], [ 3.093671560205792, 6.467073917274149 ], [ 3.097127913554232, 6.466057300583429 ], [ 3.102210760007779, 6.465447426169021 ], [ 3.106886864184958, 6.468700409379267 ], [ 3.110749721809611, 6.468903541517307 ], [ 3.113392829605459, 6.470326900484395 ], [ 3.115222453848617, 6.471750259451539 ], [ 3.115832567263169, 6.47378301583268 ], [ 3.116239070539336, 6.476019382352206 ], [ 3.116645812815705, 6.480288982253171 ], [ 3.115425824986801, 6.482322215634667 ], [ 3.113189459467264, 6.483948707739785 ], [ 3.111766337500342, 6.485575198844913 ], [ 3.111969470638371, 6.487811565364439 ], [ 3.111969470638371, 6.491674422989036 ], [ 3.106683493046773, 6.4941143986469 ], [ 3.103946209186915, 6.499459267278496 ], [ 3.109108924694738, 6.500844955219975 ], [ 3.111393929247299, 6.501202106462642 ], [ 3.114331961243579, 6.501081944381042 ], [ 3.118412018015761, 6.501141071421216 ], [ 3.121659279222115, 6.500112533722358 ], [ 3.123716115619686, 6.500813007198303 ], [ 3.130162953999957, 6.500661850095582 ], [ 3.133430004219804, 6.502329826228902 ], [ 3.136205912105879, 6.503343104917349 ], [ 3.140777111211776, 6.504056931402374 ], [ 3.143634081152982, 6.50450277270528 ], [ 3.147514581789608, 6.502919196629364 ], [ 3.155649424316834, 6.50180625887316 ], [ 3.157017946246697, 6.504858016946685 ], [ 3.159874916187846, 6.505304813250234 ], [ 3.163223028462767, 6.506405829998357 ], [ 3.165070759718219, 6.507014195411728 ], [ 3.166569947736832, 6.507507800747078 ], [ 3.168775082235129, 6.508430958374333 ], [ 3.171061038788309, 6.50878906161762 ], [ 3.174613237201868, 6.507490157735106 ], [ 3.177074431874132, 6.508471012401515 ], [ 3.179516076533105, 6.509849072337886 ], [ 3.182457684531812, 6.513895512087231 ], [ 3.184807777128583, 6.516785145050619 ], [ 3.186571598327021, 6.519096850621281 ], [ 3.189397573247106, 6.521421432200725 ], [ 3.191240072498999, 6.52293682123036 ], [ 3.19457435576453, 6.523625850698522 ], [ 3.197072506461893, 6.524859904537038 ], [ 3.200002193452463, 6.527748108499395 ], [ 3.203960419141879, 6.529477595674507 ], [ 3.204882382768346, 6.52440738722953 ], [ 3.206134080618767, 6.520026684253082 ], [ 3.206915379149621, 6.517291546394688 ], [ 3.209073328615887, 6.515133709928534 ], [ 3.211388350188827, 6.512818813355693 ] ] ] ] } },
{ "type": "Feature", "properties": { "fid": 663.0, "OBJECTID": 663.0, "lganame": "Eti Osa", "statecode": "LA", "LGA_UID": "24_08" }, "geometry": { "type": "MultiPolygon", "coordinates": [ [ [ [ 3.629456997246848, 6.517911910816167 ], [ 3.627084016634512, 6.514069080205161 ], [ 3.627568006963315, 6.51067209189705 ], [ 3.625454902527565, 6.51110410719059 ], [ 3.625742196722797, 6.508469582400551 ], [ 3.628085613315022, 6.501817225880586 ], [ 3.628766059777377, 6.499247074134303 ], [ 3.628766059777377, 6.495996474925676 ], [ 3.626876116493236, 6.494333743795949 ], [ 3.622869491770928, 6.493199825025499 ], [ 3.619997024819213, 6.491611957946589 ], [ 3.61946773545958, 6.48934412040569 ], [ 3.620148181921934, 6.487076282864848 ], [ 3.622189283308728, 6.48601818114588 ], [ 3.626314878111884, 6.484985828444451 ], [ 3.62895560290616, 6.484376431030398 ], [ 3.6341357234258, 6.481837273305189 ], [ 3.636878014289039, 6.480414867338709 ], [ 3.639722109221509, 6.479196071510614 ], [ 3.642058133808689, 6.479602336786627 ], [ 3.644292593326895, 6.482345103650232 ], [ 3.646324157707284, 6.486001492134562 ], [ 3.647847651742381, 6.488439082790762 ], [ 3.652621507985998, 6.490876675446998 ], [ 3.655770063125317, 6.491790771068111 ], [ 3.659629821747842, 6.49189233813712 ], [ 3.663826941599609, 6.491602420940126 ], [ 3.667044400785699, 6.490165709963946 ], [ 3.669583558510908, 6.48803281751475 ], [ 3.67070078827004, 6.484985828444451 ], [ 3.671513556822276, 6.478891373303554 ], [ 3.67303705185742, 6.475641251095283 ], [ 3.630803108161444, 6.422573090037929 ], [ 3.6179959774596, 6.422300815852964 ], [ 3.574730873063004, 6.42120981211167 ], [ 3.539828062348192, 6.421573639358883 ], [ 3.508924484350644, 6.419392108876593 ], [ 3.487837315022887, 6.420119286370721 ], [ 3.467477322189268, 6.420119286370721 ], [ 3.446753740108534, 6.419392108876593 ], [ 3.419122458334414, 6.418664932382512 ], [ 3.412941694134872, 6.41721057939435 ], [ 3.405291079936603, 6.412123202937721 ], [ 3.404863118645835, 6.409325123036581 ], [ 3.404695033531652, 6.406404972052485 ], [ 3.403794049919441, 6.404528140777245 ], [ 3.402346372935824, 6.400687218167491 ], [ 3.398027182001158, 6.406690598246541 ], [ 3.402906656316532, 6.427428246336774 ], [ 3.399880409260334, 6.434388638066025 ], [ 3.401890038625766, 6.436170578276801 ], [ 3.404329777283465, 6.438610553934666 ], [ 3.407176018217342, 6.443693161388012 ], [ 3.408192634908062, 6.447149276736297 ], [ 3.409209250598849, 6.451622485775658 ], [ 3.408521414131485, 6.453557014090052 ], [ 3.407241106261552, 6.457157611536502 ], [ 3.406318187634497, 6.460479258793384 ], [ 3.406318187634497, 6.464496135522666 ], [ 3.411052941851551, 6.464322567404736 ], [ 3.420351267169281, 6.468026637921469 ], [ 3.429498196384202, 6.469084739640437 ], [ 3.445070743965005, 6.46953868894883 ], [ 3.45693898202893, 6.468858242486533 ], [ 3.463440180446185, 6.466590404945634 ], [ 3.470999717582572, 6.46470022166136 ], [ 3.500292540485646, 6.461903571761127 ], [ 3.512387752703773, 6.467648505664556 ], [ 3.559218883523329, 6.476871013930804 ], [ 3.572183371332073, 6.491460799843878 ], [ 3.569461823482925, 6.502724648497178 ], [ 3.57036900509928, 6.512778759328455 ], [ 3.589456558068377, 6.526234627471069 ], [ 3.615839242994184, 6.519431113848441 ], [ 3.629456997246848, 6.517911910816167 ] ] ] ] } },
{ "type": "Feature", "properties": { "fid": 682.0, "OBJECTID": 682.0, "lganame": "Amuwo Odofin", "statecode": "LA", "LGA_UID": "24_04" }, "geometry": { "type": "MultiPolygon", "coordinates": [ [ [ [ 3.290912867222005, 6.49565696669498 ], [ 3.291187525408588, 6.48150873208192 ], [ 3.300539969763179, 6.484151839877825 ], [ 3.315178155709134, 6.487811565364439 ], [ 3.317821263504982, 6.491064547574638 ], [ 3.319244385471904, 6.495334148475649 ], [ 3.320464373300865, 6.497773647133158 ], [ 3.323310614234742, 6.501026630343404 ], [ 3.322395801613141, 6.49513053933731 ], [ 3.324428796994482, 6.489641189607539 ], [ 3.326868533652203, 6.484761715292166 ], [ 3.32849502575732, 6.481305598943891 ], [ 3.328291654619136, 6.477849482595673 ], [ 3.326868533652203, 6.471953391589523 ], [ 3.318939447264711, 6.463617801925864 ], [ 3.316458940579366, 6.459038257814314 ], [ 3.316499709607058, 6.454671859847565 ], [ 3.317719460435796, 6.451622485775658 ], [ 3.319142818402895, 6.449182510117794 ], [ 3.320565939369885, 6.444506644940759 ], [ 3.323209047165733, 6.441253661730514 ], [ 3.32971477458608, 6.440033435901398 ], [ 3.335610866592162, 6.438813686072649 ], [ 3.338827371777654, 6.436401367433575 ], [ 3.334391116763413, 6.435967445138772 ], [ 3.331341266691197, 6.434137820895614 ], [ 3.332357883381917, 6.430071354132679 ], [ 3.335814237730347, 6.428444862027504 ], [ 3.339067220940592, 6.427631855475113 ], [ 3.342930078565246, 6.427225113198745 ], [ 3.345979690637307, 6.427834987613153 ], [ 3.349232673847553, 6.429461478718281 ], [ 3.351672410505273, 6.429868220994649 ], [ 3.35431551930111, 6.428851604303873 ], [ 3.354722022577334, 6.426818370922433 ], [ 3.350859164952681, 6.424378872264867 ], [ 3.339880466493184, 6.419906139225873 ], [ 3.337440728835475, 6.417263031430025 ], [ 3.337033986559106, 6.414823054772171 ], [ 3.338457107526096, 6.413196563667043 ], [ 3.341710090736342, 6.412586689252635 ], [ 3.345776320499112, 6.410147189595136 ], [ 3.347809552880619, 6.408723830627991 ], [ 3.350452422676312, 6.408723830627991 ], [ 3.35451865243914, 6.410960197147517 ], [ 3.357161760234987, 6.412586689252635 ], [ 3.362854481102943, 6.412586689252635 ], [ 3.367733955418316, 6.413400172805382 ], [ 3.368547200970852, 6.415432930186512 ], [ 3.368953705247065, 6.419295787811166 ], [ 3.370376825214009, 6.420719146778254 ], [ 3.373019934009903, 6.420922278916294 ], [ 3.375866412943935, 6.420109272363902 ], [ 3.377899408325277, 6.418685913396757 ], [ 3.380949020397338, 6.418076037982416 ], [ 3.383185386916807, 6.420719146778254 ], [ 3.383388758054991, 6.423768996850526 ], [ 3.38277888264065, 6.426005363369995 ], [ 3.38155889481169, 6.428851604303873 ], [ 3.384202002607594, 6.430884837685369 ], [ 3.388064861232181, 6.433121204204895 ], [ 3.392131089995019, 6.432104587514118 ], [ 3.395993947619672, 6.431901455376135 ], [ 3.399880409260334, 6.434388638066025 ], [ 3.402906656316532, 6.427428246336774 ], [ 3.398027182001158, 6.406690598246541 ], [ 3.402346372935824, 6.400687218167491 ], [ 3.405004024741572, 6.396037102007995 ], [ 3.405407906015967, 6.393206120084471 ], [ 3.406374453672697, 6.390175819025501 ], [ 3.39948964099483, 6.390306473114265 ], [ 3.395853757524378, 6.391396998855271 ], [ 3.38270735659205, 6.392435073560591 ], [ 3.370040177985288, 6.394669056078442 ], [ 3.338409662493859, 6.398304938548847 ], [ 3.312959671201781, 6.400122642783913 ], [ 3.266422509581957, 6.400849819277994 ], [ 3.235518931584409, 6.400849819277994 ], [ 3.204978942833918, 6.400849819277994 ], [ 3.202442646110626, 6.414416313495792 ], [ 3.200612782867324, 6.416449546877288 ], [ 3.19918966290038, 6.419702530087534 ], [ 3.201019526143682, 6.425801754231657 ], [ 3.200206279591157, 6.428648472165889 ], [ 3.200612782867324, 6.431697845237807 ], [ 3.204272509353927, 6.433731078619246 ], [ 3.207322121425989, 6.433731078619246 ], [ 3.212811470155771, 6.433731078619246 ], [ 3.220740556543205, 6.43637418741514 ], [ 3.217894315609328, 6.440033435901398 ], [ 3.212811470155771, 6.447556019012666 ], [ 3.218097447747311, 6.448369502565413 ], [ 3.222367047648333, 6.449589252394162 ], [ 3.225823401996763, 6.449589252394162 ], [ 3.228873014068824, 6.452028751051671 ], [ 3.23110938058835, 6.456501961091021 ], [ 3.231922626140886, 6.45914459188657 ], [ 3.238631963699561, 6.457111834505383 ], [ 3.238835095837601, 6.471953391589523 ], [ 3.242494822324204, 6.476629256766557 ], [ 3.250477075747767, 6.478355407939375 ], [ 3.252965212438369, 6.478459358010014 ], [ 3.262114285654718, 6.480492592391499 ], [ 3.264757156450401, 6.481712341220259 ], [ 3.268010138660657, 6.482728957911036 ], [ 3.27532935063374, 6.484761715292166 ], [ 3.28183531805422, 6.485575198844913 ], [ 3.284478425850068, 6.486591815535633 ], [ 3.288341284474711, 6.4941143986469 ], [ 3.290912867222005, 6.49565696669498 ] ] ] ] } },
{ "type": "Feature", "properties": { "fid": 736.0, "OBJECTID": 736.0, "lganame": "Badagry", "statecode": "LA", "LGA_UID": "24_06" }, "geometry": { "type": "MultiPolygon", "coordinates": [ [ [ [ 2.892274857366203, 6.501963138979761 ], [ 2.897996902254079, 6.502581120399611 ], [ 2.901379584552444, 6.50191211694505 ], [ 2.903510571000368, 6.501490592658683 ], [ 2.906568050077738, 6.503921032310018 ], [ 2.909425020018944, 6.50436687461297 ], [ 2.914156914234013, 6.503949165329175 ], [ 2.916604041896733, 6.503173827802357 ], [ 2.920191050333926, 6.501204014463951 ], [ 2.924273968108082, 6.502635956436905 ], [ 2.927864074547415, 6.502038956031242 ], [ 2.930227518153231, 6.501806735873458 ], [ 2.935776948923831, 6.501262187503471 ], [ 2.938553094810061, 6.501254559498307 ], [ 2.941577910865306, 6.501245975492452 ], [ 2.944457053821566, 6.501070976373569 ], [ 2.946712971354316, 6.500934124280604 ], [ 2.948641776664886, 6.500264644825677 ], [ 2.952507019291147, 6.501259803501853 ], [ 2.957159042451963, 6.501409053603254 ], [ 2.963525056777371, 6.501823901885132 ], [ 2.969399928769064, 6.501585006722848 ], [ 2.974133014985, 6.501166821438687 ], [ 2.976499080592589, 6.500957966296767 ], [ 2.980499029310351, 6.501583098721539 ], [ 2.986783980580697, 6.502564907388603 ], [ 2.991106986517991, 6.500926018275095 ], [ 2.99461603190224, 6.500895977254686 ], [ 2.999267101062401, 6.501042843354469 ], [ 3.004570960666115, 6.500714779131556 ], [ 3.011099100101717, 6.499999045645211 ], [ 3.015749931261723, 6.500145911745051 ], [ 3.020483017477602, 6.499729156461854 ], [ 3.022929907140167, 6.498953818935036 ], [ 3.028314113798501, 6.498058796326916 ], [ 3.037045955731344, 6.498266220467883 ], [ 3.041697978892216, 6.498414039568274 ], [ 3.044064045499795, 6.4982051854264 ], [ 3.047573089884054, 6.498175144405991 ], [ 3.050349950770794, 6.499186993093474 ], [ 3.05271601737843, 6.498978137951553 ], [ 3.055001019930955, 6.499334812193922 ], [ 3.06316208847602, 6.499453068274249 ], [ 3.065527916083511, 6.499244213132386 ], [ 3.070832013687379, 6.498915194908818 ], [ 3.073851108738722, 6.498229980443227 ], [ 3.079644917675353, 6.498556136664831 ], [ 3.084788084169872, 6.499360085211094 ], [ 3.088296889553988, 6.499329090190031 ], [ 3.090662956161566, 6.49912023504811 ], [ 3.095866679697281, 6.497777462135787 ], [ 3.100538014871233, 6.499505997310223 ], [ 3.103946209186915, 6.499459267278496 ], [ 3.106683493046773, 6.4941143986469 ], [ 3.111969470638371, 6.491674422989036 ], [ 3.111969470638371, 6.487811565364439 ], [ 3.111766337500342, 6.485575198844913 ], [ 3.113189459467264, 6.483948707739785 ], [ 3.115425824986801, 6.482322215634667 ], [ 3.116645812815705, 6.480288982253171 ], [ 3.116239070539336, 6.476019382352206 ], [ 3.115832567263169, 6.47378301583268 ], [ 3.115222453848617, 6.471750259451539 ], [ 3.113392829605459, 6.470326900484395 ], [ 3.110749721809611, 6.468903541517307 ], [ 3.106886864184958, 6.468700409379267 ], [ 3.102210760007779, 6.465447426169021 ], [ 3.097127913554232, 6.466057300583429 ], [ 3.093671560205792, 6.467073917274149 ], [ 3.093597651155562, 6.464630126613713 ], [ 3.093468428067752, 6.460364818715618 ], [ 3.094484805758384, 6.458128452196149 ], [ 3.095704793587288, 6.455688476538285 ], [ 3.097534656830589, 6.454061985433157 ], [ 3.099364281073747, 6.450605869084882 ], [ 3.100787401040691, 6.447962761289034 ], [ 3.102820635422177, 6.444099902664391 ], [ 3.104650496665442, 6.440643787316105 ], [ 3.106683493046773, 6.438000678520268 ], [ 3.107090235323142, 6.434747696310012 ], [ 3.106073617632433, 6.431697845237807 ], [ 3.106886864184958, 6.428648472165889 ], [ 3.109123229704494, 6.425191878817259 ], [ 3.108513355290086, 6.420109272363902 ], [ 3.107496737599377, 6.41604280460092 ], [ 3.106683493046773, 6.412383556114605 ], [ 3.106886864184958, 6.40913057290436 ], [ 3.102617264283992, 6.408520699489998 ], [ 3.09773778896863, 6.407707213937272 ], [ 3.094281672620355, 6.40811395621364 ], [ 3.091231822548082, 6.40913057290436 ], [ 3.088792085890418, 6.410147189595136 ], [ 3.086352587232909, 6.409740448318757 ], [ 3.083709478437015, 6.408723830627991 ], [ 3.079236507397866, 6.405064106141424 ], [ 3.072730779977519, 6.399371624273613 ], [ 3.068990946436486, 6.396607399395464 ], [ 3.062458991998312, 6.396123409066604 ], [ 3.042462587411705, 6.395396232572523 ], [ 3.02319335931918, 6.394669056078442 ], [ 3.005378246214661, 6.395396232572523 ], [ 2.994107484556707, 6.395760058819747 ], [ 2.970111847252781, 6.396123409066604 ], [ 2.951206207407267, 6.395396232572523 ], [ 2.923211098385934, 6.393578529337503 ], [ 2.901033401317193, 6.393578529337503 ], [ 2.878128289754272, 6.392488002596508 ], [ 2.850497006980106, 6.391760826102427 ], [ 2.83595418909897, 6.388852119126113 ], [ 2.812321901041912, 6.387397766137951 ], [ 2.789417028479136, 6.383398533420689 ], [ 2.771601915374617, 6.382308005679704 ], [ 2.755241394258405, 6.380126476197461 ], [ 2.735244750671598, 6.376127243480141 ], [ 2.713794231096983, 6.373581885750696 ], [ 2.703980446429, 6.372600555083977 ], [ 2.704056978480992, 6.375636101146483 ], [ 2.703491926097058, 6.379598140838482 ], [ 2.703578949156224, 6.383083820206821 ], [ 2.703747034270407, 6.386003971190917 ], [ 2.70383501133017, 6.389490127559611 ], [ 2.703351021001311, 6.392886161867068 ], [ 2.702946900726772, 6.395717143790591 ], [ 2.703196048896018, 6.398069859389125 ], [ 2.70279192862148, 6.400900841312648 ], [ 2.703041076790726, 6.403254985912213 ], [ 2.703208922904764, 6.406174182895654 ], [ 2.702805995631024, 6.409005164819177 ], [ 2.702159882192007, 6.413534163896429 ], [ 2.70240902936132, 6.415886879494963 ], [ 2.702656983529778, 6.418241024094527 ], [ 2.70290589269888, 6.420594214693381 ], [ 2.70283198364865, 6.425211905830906 ], [ 2.702508926429175, 6.42747688336982 ], [ 2.702677010543368, 6.430397034353916 ], [ 2.702274084269618, 6.433227062276785 ], [ 2.702441931383646, 6.436147213260938 ], [ 2.702691077552913, 6.438499927859482 ], [ 2.702857970666344, 6.441420077843588 ], [ 2.70253610644761, 6.443685055382502 ], [ 2.702542067451702, 6.447737217135796 ], [ 2.702610970498483, 6.452376842288174 ], [ 2.710158347626589, 6.456112861826625 ], [ 2.713794231096983, 6.459021090802651 ], [ 2.719611406049523, 6.459384918049864 ], [ 2.722883463272694, 6.458657741555783 ], [ 2.732699870942497, 6.457930565061702 ], [ 2.735445975808375, 6.457930565061702 ], [ 2.73960709563562, 6.454444407693018 ], [ 2.744410991899656, 6.449075222044883 ], [ 2.747943401299779, 6.449357986237032 ], [ 2.752605915467711, 6.451194763485034 ], [ 2.758681535595827, 6.452042580061061 ], [ 2.763626813955909, 6.451759814868922 ], [ 2.768713236411884, 6.451335906580937 ], [ 2.773799895868024, 6.452466488349103 ], [ 2.775919199308021, 6.452466488349103 ], [ 2.779169082516148, 6.452042580061061 ], [ 2.784114121876087, 6.452748774540908 ], [ 2.786374807412074, 6.455009460076951 ], [ 2.789907216812196, 6.45741128870884 ], [ 2.794146060692299, 6.45938968705309 ], [ 2.799232483148273, 6.460095881532936 ], [ 2.806297063948307, 6.458824634669156 ], [ 2.813079118556402, 6.45599842074887 ], [ 2.81830692310848, 6.454585551788909 ], [ 2.823676108756558, 6.451477050676829 ], [ 2.828480005020594, 6.446814536508839 ], [ 2.831588507132665, 6.444836617164981 ], [ 2.833001375092635, 6.443140984012871 ], [ 2.842185497332821, 6.443988799588908 ], [ 2.852550745375538, 6.449971198653657 ], [ 2.853846073255625, 6.451702117829768 ], [ 2.854747056867836, 6.453577995104297 ], [ 2.855895995648496, 6.457808970979045 ], [ 2.857807635947324, 6.460040092494978 ], [ 2.859586239155817, 6.467747210731602 ], [ 2.86649417884945, 6.471382618201744 ], [ 2.868675470331539, 6.4717464454489 ], [ 2.873765468789941, 6.470655440707617 ], [ 2.879946231989493, 6.469928265213582 ], [ 2.885399817694918, 6.473564147683987 ], [ 2.889399052412216, 6.476109028413077 ], [ 2.893034696882467, 6.480108261130397 ], [ 2.89526653339891, 6.484850883352749 ], [ 2.896670580352861, 6.4877433783181 ], [ 2.896670580352861, 6.491742611035363 ], [ 2.896306992105849, 6.495014668258591 ], [ 2.894489049870629, 6.499014377976209 ], [ 2.892274857366203, 6.501963138979761 ] ] ] ] } },
{ "type": "Feature", "properties": { "fid": 744.0, "OBJECTID": 744.0, "lganame": "Alimosho", "statecode": "LA", "LGA_UID": "24_03" }, "geometry": { "type": "MultiPolygon", "coordinates": [ [ [ [ 3.283190682975146, 6.663395380665349 ], [ 3.284313788738245, 6.663109846471343 ], [ 3.287702141040484, 6.663661880846462 ], [ 3.288885665844589, 6.663351055635246 ], [ 3.289586674320901, 6.663166952510153 ], [ 3.290434959897254, 6.662298650920206 ], [ 3.291699887756749, 6.661003875040478 ], [ 3.293488990972321, 6.657151676423041 ], [ 3.295163330109972, 6.65539667023063 ], [ 3.295306641207333, 6.65530111816571 ], [ 3.306029684493183, 6.648151566307888 ], [ 3.306032166494845, 6.648122811288374 ], [ 3.30616341058402, 6.6466020742551 ], [ 3.3062238656251, 6.645901583779164 ], [ 3.298590555438636, 6.626390003521976 ], [ 3.298428549328548, 6.625708462058867 ], [ 3.298038520063528, 6.624067649944038 ], [ 3.298723804529175, 6.622049866573036 ], [ 3.301086938134802, 6.619537576866037 ], [ 3.303844690008532, 6.616605758874016 ], [ 3.30444610841721, 6.614684882568895 ], [ 3.304929438745603, 6.613141164520016 ], [ 3.305976402456963, 6.610799774929148 ], [ 3.309074401561929, 6.60866403647799 ], [ 3.310423719478706, 6.607858397930613 ], [ 3.312638892983784, 6.606535781031937 ], [ 3.316241264431426, 6.604403018582843 ], [ 3.31682936583104, 6.60472742380324 ], [ 3.319263439484871, 6.60022938674706 ], [ 3.319548846678799, 6.599701969388661 ], [ 3.319118522386418, 6.598345420466956 ], [ 3.317550100320716, 6.593401157107564 ], [ 3.315484727917408, 6.589151439220075 ], [ 3.31568963305665, 6.571808387436306 ], [ 3.315938559225799, 6.55073934512086 ], [ 3.313536881593961, 6.550331592843861 ], [ 3.311398745141162, 6.550167560732405 ], [ 3.311398745141162, 6.553847790232908 ], [ 3.307331085377427, 6.557721614864988 ], [ 3.302169263870212, 6.557123894458869 ], [ 3.299258275892328, 6.560251044583651 ], [ 3.298694716509374, 6.559800170277299 ], [ 3.298033714060296, 6.55927133591797 ], [ 3.295902966612516, 6.557915687996854 ], [ 3.292997598638465, 6.557915687996854 ], [ 3.287574052953403, 6.556172370812362 ], [ 3.287101527632387, 6.55443932463487 ], [ 3.286993026558662, 6.554041386364474 ], [ 3.285830735768911, 6.54687500049522 ], [ 3.287547382935315, 6.539149936246417 ], [ 3.288542508611442, 6.534671783203748 ], [ 3.288155079348201, 6.531185149834755 ], [ 3.287767887085124, 6.526149273413068 ], [ 3.286218166032143, 6.524018763965501 ], [ 3.283893824452889, 6.518788815411995 ], [ 3.285830735768911, 6.511428356410931 ], [ 3.287961483216691, 6.506585598120466 ], [ 3.289704800401182, 6.505229950199407 ], [ 3.291254282453963, 6.502905368619963 ], [ 3.291060686322453, 6.500387668909298 ], [ 3.290912867222005, 6.49565696669498 ], [ 3.288341284474711, 6.4941143986469 ], [ 3.284478425850068, 6.486591815535633 ], [ 3.28183531805422, 6.485575198844913 ], [ 3.27532935063374, 6.484761715292166 ], [ 3.272520116724991, 6.483981509762089 ], [ 3.268010138660657, 6.482728957911036 ], [ 3.264757156450401, 6.481712341220259 ], [ 3.262114285654718, 6.480492592391499 ], [ 3.254482348469196, 6.478796517239118 ], [ 3.250830411987863, 6.481712341220259 ], [ 3.240461587942718, 6.486998080811702 ], [ 3.211388350188827, 6.512818813355693 ], [ 3.209073328615887, 6.515133709928534 ], [ 3.206915379149621, 6.517291546394688 ], [ 3.206134080618767, 6.520026684253082 ], [ 3.204882382768346, 6.52440738722953 ], [ 3.203960419141879, 6.529477595674507 ], [ 3.204967021825837, 6.533184052192894 ], [ 3.20513510694002, 6.536102772176037 ], [ 3.205221890998985, 6.539588927544685 ], [ 3.204852123747742, 6.54218604930935 ], [ 3.204818963725245, 6.542418957467589 ], [ 3.203924894117733, 6.544594764945941 ], [ 3.203928947120517, 6.547192573711015 ], [ 3.201736449630801, 6.552176476097372 ], [ 3.20155715850899, 6.555401802288827 ], [ 3.201231509287709, 6.557111735450633 ], [ 3.200840473022026, 6.559165000845724 ], [ 3.197435616708617, 6.566333293716241 ], [ 3.196377276989494, 6.570621013629534 ], [ 3.196181058856155, 6.573322296464937 ], [ 3.19668018919532, 6.575318484821253 ], [ 3.196897984343309, 6.576189518413059 ], [ 3.199406862047965, 6.580310822213335 ], [ 3.207470893527102, 6.588375091692626 ], [ 3.216072559371526, 6.595005512197645 ], [ 3.229724168647124, 6.601042271299377 ], [ 3.233282804065084, 6.605851172566759 ], [ 3.235311031443132, 6.609843731279511 ], [ 3.23748111691765, 6.614116192182451 ], [ 3.240007638634268, 6.616025448479718 ], [ 3.240591049030684, 6.618102073890668 ], [ 3.24111676238789, 6.623126030304263 ], [ 3.241439103606922, 6.625326632799442 ], [ 3.24147725063284, 6.628627300042069 ], [ 3.239337206178732, 6.630732059472166 ], [ 3.239370108201115, 6.63398742668403 ], [ 3.238851308848609, 6.640009402775718 ], [ 3.239293337148922, 6.64224100129195 ], [ 3.240011214636695, 6.645865916754929 ], [ 3.240473269950655, 6.648199081340181 ], [ 3.241377353564928, 6.65418291140594 ], [ 3.241841077879997, 6.65986633326753 ], [ 3.243699681142857, 6.663207706537833 ], [ 3.244319438563934, 6.664321899294919 ], [ 3.246590137106807, 6.667577743507081 ], [ 3.248302698270379, 6.6700329781753 ], [ 3.249513626093176, 6.672148227612524 ], [ 3.251984357771903, 6.676464080544918 ], [ 3.254357576384393, 6.681670666082539 ], [ 3.256030742521205, 6.684486626995863 ], [ 3.259461709852417, 6.690260979919287 ], [ 3.263679102717958, 6.685590993746246 ], [ 3.268568378039959, 6.682159573414765 ], [ 3.269484987662736, 6.680851106525722 ], [ 3.269351737572208, 6.678090932650321 ], [ 3.271003880694764, 6.672728979007104 ], [ 3.271445663994939, 6.671295192032915 ], [ 3.278973756109906, 6.665971492415736 ], [ 3.282992031840138, 6.663516735747805 ], [ 3.283190682975146, 6.663395380665349 ] ] ] ] } },
{ "type": "Feature", "properties": { "fid": 746.0, "OBJECTID": 746.0, "lganame": "Lagos Mainland", "statecode": "LA", "LGA_UID": "24_15" }, "geometry": { "type": "MultiPolygon", "coordinates": [ [ [ [ 3.368344068832869, 6.518561840257803 ], [ 3.376272917220149, 6.519934654190536 ], [ 3.378102779463461, 6.521764278433693 ], [ 3.38155889481169, 6.522780895124413 ], [ 3.389691353337355, 6.523797511815189 ], [ 3.398840426553704, 6.523797511815189 ], [ 3.405478239063768, 6.52325344144549 ], [ 3.404309034269374, 6.51977014507878 ], [ 3.405774117264798, 6.51768398266131 ], [ 3.407238960260088, 6.515597820243897 ], [ 3.409107923529973, 6.510682105903868 ], [ 3.410002947138082, 6.508506775425815 ], [ 3.409996033133382, 6.504455089672888 ], [ 3.40697097807805, 6.501089096385897 ], [ 3.402312993913142, 6.496889113532177 ], [ 3.399207114802834, 6.494089126629717 ], [ 3.397164106414721, 6.492033005232713 ], [ 3.397317885519215, 6.486848830710301 ], [ 3.39772200579381, 6.484018802787432 ], [ 3.396410941902957, 6.480919837681824 ], [ 3.395180941067224, 6.477255821192273 ], [ 3.394932031898122, 6.474903106593729 ], [ 3.395335913172573, 6.472072123670216 ], [ 3.394038677291121, 6.468209743045918 ], [ 3.387251615679645, 6.466870785136166 ], [ 3.381162642542449, 6.463217257653753 ], [ 3.379278898262555, 6.466556548922654 ], [ 3.377097129780168, 6.468242645068244 ], [ 3.374419450960772, 6.468837261472288 ], [ 3.369659184726402, 6.467746734731293 ], [ 3.364700556357263, 6.466953278192193 ], [ 3.363708734683371, 6.471515179291771 ], [ 3.365105866632632, 6.475426673949471 ], [ 3.365791559098568, 6.477663994469594 ], [ 3.367080687974465, 6.479250430547552 ], [ 3.369361638524254, 6.480638981490983 ], [ 3.372237682478385, 6.480837344625741 ], [ 3.375907182971616, 6.480837344625741 ], [ 3.380964994408203, 6.480143070154043 ], [ 3.383940220429736, 6.481531620097485 ], [ 3.368344068832869, 6.518561840257803 ] ] ] ] } },
{ "type": "Feature", "properties": { "fid": 747.0, "OBJECTID": 747.0, "lganame": "Ikorodu", "statecode": "LA", "LGA_UID": "24_12" }, "geometry": { "type": "MultiPolygon", "coordinates": [ [ [ [ 3.444489240569908, 6.664900302687897 ], [ 3.444821357795604, 6.66822147394447 ], [ 3.447135925368229, 6.669610022887923 ], [ 3.449515819985265, 6.669776440000987 ], [ 3.453234672512053, 6.671268463014769 ], [ 3.457898377680806, 6.66567516321436 ], [ 3.465073346555869, 6.664749621585486 ], [ 3.464262486004941, 6.671816826387328 ], [ 3.465392827772916, 6.67374134069496 ], [ 3.467966317521473, 6.67933082649273 ], [ 3.463337421376366, 6.683959960638049 ], [ 3.596421479800711, 6.682339667537121 ], [ 3.699962139151751, 6.682374953561123 ], [ 3.698760509335273, 6.678770065111735 ], [ 3.697482824467158, 6.67639732449959 ], [ 3.695969582438977, 6.673587321590333 ], [ 3.691717147549639, 6.668005942798004 ], [ 3.690786838917575, 6.665480614082185 ], [ 3.690786838917575, 6.662557125095816 ], [ 3.690255403556478, 6.660430907651119 ], [ 3.689856768285608, 6.65843772929685 ], [ 3.690122366466085, 6.655779839490947 ], [ 3.688793420563115, 6.653919220226783 ], [ 3.686353206905096, 6.650095939629011 ], [ 3.684806823854444, 6.64767312998282 ], [ 3.682813406499974, 6.643819332364387 ], [ 3.682281733138723, 6.639965533745908 ], [ 3.682547569319354, 6.637706280210807 ], [ 3.684806823854444, 6.63438415495358 ], [ 3.686268567847605, 6.63278961187018 ], [ 3.688926457653508, 6.631593227057294 ], [ 3.690521001736954, 6.629333972522261 ], [ 3.692248820910891, 6.627207756077553 ], [ 3.694109201174967, 6.626277447445489 ], [ 3.696634053890477, 6.62587881117463 ], [ 3.69809603688384, 6.622689724007785 ], [ 3.700355053418718, 6.618304253028043 ], [ 3.700488090509111, 6.614317417319171 ], [ 3.70155119923146, 6.612456799054996 ], [ 3.702215671682893, 6.60873603752691 ], [ 3.704659224343175, 6.604873656902612 ], [ 3.702713013020855, 6.602273941136218 ], [ 3.70075011268716, 6.599652767355281 ], [ 3.698787928353909, 6.597031115573941 ], [ 3.696743964965151, 6.594975948177591 ], [ 3.695190906909943, 6.593575954226367 ], [ 3.693639039855498, 6.592175961275132 ], [ 3.691514015411656, 6.590686798263278 ], [ 3.689471006023496, 6.588631152866583 ], [ 3.687346934580319, 6.587141990854775 ], [ 3.684650897748497, 6.585563182782039 ], [ 3.68203592297175, 6.583417892324405 ], [ 3.679912089528671, 6.581929207312953 ], [ 3.677869081140557, 6.579874038916557 ], [ 3.675415039473137, 6.576597213690093 ], [ 3.672880887751319, 6.573885917847917 ], [ 3.67034602202898, 6.571176052006649 ], [ 3.66838407469595, 6.568553925225046 ], [ 3.664134978808875, 6.56557607720174 ], [ 3.659074068370217, 6.564206123270935 ], [ 3.655807018150426, 6.562538147137616 ], [ 3.652539014929971, 6.560870171004296 ], [ 3.650335073432473, 6.559947014377087 ], [ 3.648291111043704, 6.557890891980037 ], [ 3.647391081432204, 6.556015014705451 ], [ 3.64583802237695, 6.554615020754227 ], [ 3.642526388126839, 6.550214766764441 ], [ 3.637831925937178, 6.549313068151775 ], [ 3.63538503627467, 6.550087928678295 ], [ 3.63244700427839, 6.550208091759941 ], [ 3.629348040172772, 6.551459788610373 ], [ 3.627882957177349, 6.553544998027178 ], [ 3.625845908793281, 6.555541992384065 ], [ 3.623970031518695, 6.55640602097111 ], [ 3.619808911691393, 6.556912899315535 ], [ 3.617443085083949, 6.557122231457754 ], [ 3.611728907201439, 6.556230067851573 ], [ 3.605935097264819, 6.555902957629314 ], [ 3.602916002213476, 6.556589127095549 ], [ 3.600549935605841, 6.556797981237423 ], [ 3.597450971500223, 6.558050156088257 ], [ 3.59394192711602, 6.558080196108676 ], [ 3.590352057676853, 6.558677196514282 ], [ 3.587656974845686, 6.557097912441236 ], [ 3.584141016456726, 6.553077220709383 ], [ 3.583240031844582, 6.551199913433834 ], [ 3.580214976789193, 6.547832966146132 ], [ 3.57817196840108, 6.545777797749736 ], [ 3.576128006012254, 6.543723106353696 ], [ 3.573184013011996, 6.53979110668206 ], [ 3.571141004623826, 6.537734985285056 ], [ 3.56697297079188, 6.534191131877151 ], [ 3.563296080293583, 6.531301021913464 ], [ 3.558725119187841, 6.530587196428428 ], [ 3.556359052580206, 6.530796050570359 ], [ 3.55268788308581, 6.531959057360552 ], [ 3.548937081537304, 6.5336871145347 ], [ 3.546652078984778, 6.533329964292022 ], [ 3.544528007541544, 6.531840801280225 ], [ 3.541913032764796, 6.52969598782289 ], [ 3.539707899266546, 6.528772831195681 ], [ 3.538155079211435, 6.527372837244457 ], [ 3.535949944713195, 6.5264501566175 ], [ 3.531460046662517, 6.525168895746958 ], [ 3.52917408910929, 6.524812221504646 ], [ 3.526316881167986, 6.524365902201396 ], [ 3.522727012728808, 6.524961947606357 ], [ 3.518975973180147, 6.526690959781149 ], [ 3.516448975463163, 6.52803182569221 ], [ 3.512125968525879, 6.529672145806728 ], [ 3.506580113757764, 6.531699181183967 ], [ 3.503722905816403, 6.531251906880073 ], [ 3.500866889875908, 6.530806064577177 ], [ 3.497929095879783, 6.530926227658824 ], [ 3.49499106388356, 6.531044959739461 ], [ 3.491321087389963, 6.532207965529665 ], [ 3.488792895672191, 6.533548832440715 ], [ 3.486917973398249, 6.534412861027818 ], [ 3.484390019680632, 6.535755156939842 ], [ 3.479093075081607, 6.540134906915682 ], [ 3.477216958806878, 6.540999888503393 ], [ 3.475530147660777, 6.543371201114553 ], [ 3.471407651859693, 6.546387672164144 ], [ 3.467783451397224, 6.550670624074201 ], [ 3.468771935068844, 6.56154298846144 ], [ 3.470419168188073, 6.568955898498189 ], [ 3.474537372986219, 6.576203823422816 ], [ 3.479808806567917, 6.58427572290725 ], [ 3.481291532575369, 6.591194629608367 ], [ 3.477294921859823, 6.597189425681506 ], [ 3.474694967093285, 6.595582007589371 ], [ 3.469552993599564, 6.594779015043798 ], [ 3.470931052535889, 6.589207172257943 ], [ 3.468316077759141, 6.587061881800366 ], [ 3.465509414852136, 6.585466384716256 ], [ 3.460328579331986, 6.594157218621262 ], [ 3.459402799702957, 6.596934318508204 ], [ 3.457551003444792, 6.599248886080829 ], [ 3.453847884928678, 6.599711895395444 ], [ 3.452459096985081, 6.601563453653455 ], [ 3.44644141189633, 6.607349872585075 ], [ 3.442969798537547, 6.607349872585075 ], [ 3.442275286065637, 6.609432697000273 ], [ 3.439960957493156, 6.610821723944014 ], [ 3.439960957493156, 6.615219115931836 ], [ 3.435331821347859, 6.620542525548842 ], [ 3.434937954080283, 6.63196659131097 ], [ 3.434690713912289, 6.639135838182142 ], [ 3.44828176514676, 6.64058303816546 ], [ 3.457663535521249, 6.63943338438429 ], [ 3.456408977668843, 6.641914845070346 ], [ 3.454292059230454, 6.64447689081112 ], [ 3.4525749680638, 6.652251244093463 ], [ 3.449467420952374, 6.657844542893827 ], [ 3.444489240569908, 6.664900302687897 ] ] ] ] } },
{ "type": "Feature", "properties": { "fid": 754.0, "OBJECTID": 754.0, "lganame": "Oshodi\/Isolo", "statecode": "LA", "LGA_UID": "24_18" }, "geometry": { "type": "MultiPolygon", "coordinates": [ [ [ [ 3.341142405350581, 6.551311992509966 ], [ 3.338548792588369, 6.549277554127684 ], [ 3.33765649498207, 6.545494210557081 ], [ 3.336402427129997, 6.531686665175471 ], [ 3.335610704592057, 6.522969645252658 ], [ 3.335324623397696, 6.519819827112542 ], [ 3.334014684507679, 6.516209506659493 ], [ 3.333861255403406, 6.515786640372141 ], [ 3.331136190551831, 6.513742842983504 ], [ 3.33057759817234, 6.513323897698854 ], [ 3.328735477920702, 6.512259561975668 ], [ 3.325759189898406, 6.510539928807248 ], [ 3.324402896976892, 6.507898727012673 ], [ 3.324320792921128, 6.504829883927584 ], [ 3.323340671255153, 6.50113979442034 ], [ 3.323310614234742, 6.501026630343404 ], [ 3.320464373300865, 6.497773647133158 ], [ 3.319244385471904, 6.495334148475649 ], [ 3.317821263504982, 6.491064547574638 ], [ 3.315178155709134, 6.487811565364439 ], [ 3.300539969763179, 6.484151839877825 ], [ 3.291187525408588, 6.48150873208192 ], [ 3.290912867222005, 6.49565696669498 ], [ 3.291060686322453, 6.500387668909298 ], [ 3.291254282453963, 6.502905368619963 ], [ 3.289704800401182, 6.505229950199407 ], [ 3.287961483216691, 6.506585598120466 ], [ 3.285830735768911, 6.511428356410931 ], [ 3.283893824452889, 6.518788815411995 ], [ 3.286218166032143, 6.524018763965501 ], [ 3.287767887085124, 6.526149273413068 ], [ 3.288155079348201, 6.531185149834755 ], [ 3.288542508611442, 6.534671783203748 ], [ 3.287547382935315, 6.539149936246417 ], [ 3.285830735768911, 6.54687500049522 ], [ 3.286993026558662, 6.554041386364474 ], [ 3.287101527632387, 6.55443932463487 ], [ 3.287574052953403, 6.556172370812362 ], [ 3.292997598638465, 6.557915687996854 ], [ 3.295902966612516, 6.557915687996854 ], [ 3.298033714060296, 6.55927133591797 ], [ 3.298694716509374, 6.559800170277299 ], [ 3.299258275892328, 6.560251044583651 ], [ 3.302169263870212, 6.557123894458869 ], [ 3.307331085377427, 6.557721614864988 ], [ 3.311398745141162, 6.553847790232908 ], [ 3.311398745141162, 6.550167560732405 ], [ 3.313536881593961, 6.550331592843861 ], [ 3.315938559225799, 6.55073934512086 ], [ 3.318274974813278, 6.551136017390434 ], [ 3.321761608182271, 6.55423545849635 ], [ 3.323698521498329, 6.555009842022514 ], [ 3.322149038445502, 6.55907773978646 ], [ 3.322149038445502, 6.564501286471454 ], [ 3.325441836682785, 6.564888476734552 ], [ 3.328928471051825, 6.565276145997984 ], [ 3.334739447000118, 6.571280479077643 ], [ 3.334933043131628, 6.579222202473659 ], [ 3.333770752341934, 6.58580779994827 ], [ 3.336482525184408, 6.588519572790801 ], [ 3.338806867763708, 6.589488029448773 ], [ 3.352161372837486, 6.555835127583236 ], [ 3.35185722763083, 6.555717185503113 ], [ 3.351296755250019, 6.555499845355428 ], [ 3.341142405350581, 6.551311992509966 ] ] ] ] } }
]
}
