{
"type": "FeatureCollection",
"name": "Nasarawa",
"crs": { "type": "name", "properties": { "name": "urn:ogc:def:crs:OGC:1.3:CRS84" } },
"features": [
{ "type": "Feature", "properties": { "fid": 20.0, "OBJECTID": 20.0, "lganame": "Keffi", "statecode": "NA", "LGA_UID": "25_06" }, "geometry": { "type": "MultiPolygon", "coordinates": [ [ [ [ 7.913622856136158, 8.84215927103304 ], [ 7.903932094551749, 8.838635444638783 ], [ 7.89424133296734, 8.833350182047695 ], [ 7.881026744988674, 8.823658943462931 ], [ 7.867812157009951, 8.810444832484563 ], [ 7.862526417418565, 8.799873352301745 ], [ 7.855478763630003, 8.786658287322723 ], [ 7.848431109841442, 8.776086807139905 ], [ 7.833454608665647, 8.773444176344356 ], [ 7.825525761278357, 8.775205611541196 ], [ 7.814073086496762, 8.778729438935443 ], [ 7.808787345905387, 8.784015655527185 ], [ 7.802620410715235, 8.789301872118926 ], [ 7.794691563327945, 8.793705940111295 ], [ 7.781477451349588, 8.796349524907441 ], [ 7.775310516159436, 8.798992156703036 ], [ 7.771786689765179, 8.80075359289981 ], [ 7.767381667772156, 8.808682442287079 ], [ 7.766500950173736, 8.817492485273135 ], [ 7.767381667772156, 8.827182769857188 ], [ 7.769143580969285, 8.84039783483621 ], [ 7.773548602962308, 8.849206923821612 ], [ 7.781477451349588, 8.8580169678076 ], [ 7.785001277743845, 8.8668270107936 ], [ 7.795572757926664, 8.87475585918088 ], [ 7.802620410715235, 8.880922318370722 ], [ 7.804382323912364, 8.886208533962417 ], [ 7.805263518511083, 8.894136429349089 ], [ 7.809668063503807, 8.898541451342055 ], [ 7.811492442743372, 8.900105476404747 ], [ 7.817596911891087, 8.895898818546527 ], [ 7.829930782271333, 8.895017623947808 ], [ 7.837859153658314, 8.890612601954786 ], [ 7.851954937235746, 8.887969971159237 ], [ 7.866931438411541, 8.88444614376499 ], [ 7.88543176698164, 8.876517296377699 ], [ 7.897765160361644, 8.869469642589138 ], [ 7.90217018135462, 8.860659598603149 ], [ 7.910098552741601, 8.851850509617805 ], [ 7.912741660537449, 8.849206923821612 ], [ 7.913622856136158, 8.84215927103304 ] ] ] ] } },
{ "type": "Feature", "properties": { "fid": 36.0, "OBJECTID": 36.0, "lganame": "Nasarawa", "statecode": "NA", "LGA_UID": "25_09" }, "geometry": { "type": "MultiPolygon", "coordinates": [ [ [ [ 7.92815876001265, 8.651980399815443 ], [ 7.930361270509138, 8.649227141944721 ], [ 7.941813469290366, 8.643060683754925 ], [ 7.947980404480518, 8.638655662761892 ], [ 7.95414733867068, 8.635131836367634 ], [ 7.968242645247756, 8.635131836367634 ], [ 7.977933406832165, 8.63160800897333 ], [ 7.985862255219445, 8.625441550783535 ], [ 8.001719474993706, 8.621036529790501 ], [ 8.016695976169501, 8.615750313198816 ], [ 8.025506020155547, 8.610465049607683 ], [ 8.04312515312688, 8.605178833015941 ], [ 8.065149307091303, 8.593726158234404 ], [ 8.07836341906966, 8.587559700044608 ], [ 8.088935852253144, 8.578749657058609 ], [ 8.100388527034681, 8.571702003270047 ], [ 8.116245269808587, 8.568178176875733 ], [ 8.130341530386318, 8.559368133889734 ], [ 8.145317077561515, 8.559368133889734 ], [ 8.155008316146279, 8.549677849305681 ], [ 8.167342185526536, 8.540867805319635 ], [ 8.171746253518904, 8.541749000918401 ], [ 8.17446327236496, 8.544465064763813 ], [ 8.174082756106429, 8.540981293396783 ], [ 8.174918174674076, 8.538753509883065 ], [ 8.176327704631774, 8.527477264221375 ], [ 8.178442001068333, 8.517610549517428 ], [ 8.185489654856895, 8.507039070334599 ], [ 8.198880195955155, 8.483780860531738 ], [ 8.203108787828285, 8.473209381348909 ], [ 8.20592784874367, 8.456295012856401 ], [ 8.21050929985654, 8.442199707279315 ], [ 8.212623596293156, 8.430923461617624 ], [ 8.211918830814284, 8.421056746913678 ], [ 8.207690238941154, 8.407665252814752 ], [ 8.202756881589153, 8.392160416279978 ], [ 8.191480636927508, 8.3794746396606 ], [ 8.167517661645775, 8.367493628520037 ], [ 8.156241416984074, 8.368198394998899 ], [ 8.14285087588587, 8.366084098562339 ], [ 8.126641272872178, 8.366084098562339 ], [ 8.103383064069305, 8.361150742210327 ], [ 8.085763931097972, 8.352693558464068 ], [ 8.06532573721114, 8.33930206336521 ], [ 8.058278084422625, 8.325206756788077 ], [ 8.06109714533801, 8.318159102999573 ], [ 8.066030501690022, 8.315340042084131 ], [ 8.078011512830528, 8.308292389295559 ], [ 8.091402053928789, 8.306178092859 ], [ 8.099859237675048, 8.308997153774442 ], [ 8.115365028210533, 8.309701920253303 ], [ 8.129460334787609, 8.30194950098587 ], [ 8.146374702280127, 8.299835204549311 ], [ 8.156241416984074, 8.294197082718483 ], [ 8.163993835251517, 8.278691292182998 ], [ 8.161879538814901, 8.256843567338535 ], [ 8.166108130688031, 8.237110137930586 ], [ 8.168222427124647, 8.213147162648852 ], [ 8.168222427124647, 8.187775612410121 ], [ 8.162584305293763, 8.161699294692482 ], [ 8.152717589589827, 8.151127814509664 ], [ 8.135098456618437, 8.137736320410738 ], [ 8.112545013294437, 8.12505054479135 ], [ 8.094221114844231, 8.108840941777714 ], [ 8.084354401140217, 8.105317116383446 ], [ 8.061801909816893, 8.090517044327441 ], [ 8.059687614380323, 8.082058906580585 ], [ 8.049820899676376, 8.057392119820634 ], [ 8.047706604239806, 8.029201507666414 ], [ 8.050525665155192, 8.008057594300169 ], [ 8.052639960591762, 7.988324164892219 ], [ 8.055459022507193, 7.965066433089646 ], [ 8.06109714533801, 7.932647228062365 ], [ 8.06744003264771, 7.912913321654059 ], [ 8.068856238609953, 7.879503726953828 ], [ 8.040774344529666, 7.896435261458009 ], [ 7.994720936238537, 7.922950745474054 ], [ 7.972856998383008, 7.939232348536621 ], [ 7.931921004568892, 7.957374572863444 ], [ 7.90307903297213, 7.969004153765184 ], [ 7.877028942272318, 7.983425139563565 ], [ 7.867259978634763, 7.986216068459839 ], [ 7.838418007038001, 7.985285758827729 ], [ 7.810972214389892, 7.991333007936589 ], [ 7.782595634109327, 7.998776435994046 ], [ 7.760732174254144, 8.003428459154861 ], [ 7.73840284308244, 8.006218910050848 ], [ 7.697466850268313, 8.013662338108304 ], [ 7.676837921251945, 8.014471053657815 ], [ 7.677225589515331, 8.01662635812221 ], [ 7.66567611666801, 8.019343375968333 ], [ 7.624914168972168, 8.029534339892564 ], [ 7.583472728814684, 8.037686348431521 ], [ 7.542710304118543, 8.043121338124308 ], [ 7.505344867730457, 8.047198295894418 ], [ 7.450995444802572, 8.04651832643242 ], [ 7.445786953263678, 8.044860840306228 ], [ 7.432442188196546, 8.045692443871246 ], [ 7.404485226201075, 8.042964935018063 ], [ 7.400883197753672, 8.05016899091288 ], [ 7.3936638828485, 8.070221900537888 ], [ 7.389653206123455, 8.087868689528023 ], [ 7.383236407763491, 8.103911400428331 ], [ 7.381631850673273, 8.118350029238684 ], [ 7.381631850673273, 8.144820213223909 ], [ 7.388049126033536, 8.168884276574317 ], [ 7.392861843303535, 8.192145348379142 ], [ 7.399279117663809, 8.205781936644541 ], [ 7.408904552203808, 8.225834846269549 ], [ 7.416123867108979, 8.245888709895212 ], [ 7.425749301649034, 8.257920265070084 ], [ 7.432968615554216, 8.268348694155691 ], [ 7.432166100008942, 8.273962974970345 ], [ 7.431364059463988, 8.283588408510411 ], [ 7.432166100008942, 8.291609763960537 ], [ 7.434572696644125, 8.300433158955627 ], [ 7.432166100008942, 8.308454514405753 ], [ 7.432166100008942, 8.317277908400797 ], [ 7.436978817278941, 8.326101303395887 ], [ 7.442594051094261, 8.334122657846024 ], [ 7.442594051094261, 8.345353127476585 ], [ 7.438583374369159, 8.354978561016651 ], [ 7.431364059463988, 8.381448746001865 ], [ 7.432166100008942, 8.407116890442182 ], [ 7.444198132184169, 8.42716980006719 ], [ 7.465053558354441, 8.457651137777816 ], [ 7.484304905434783, 8.481715202128214 ], [ 7.499545096789802, 8.507383346568531 ], [ 7.505160331605111, 8.52583217610362 ], [ 7.514785767145099, 8.537062644734192 ], [ 7.518796443870201, 8.552302361088891 ], [ 7.522005081050281, 8.573158264259519 ], [ 7.5236091611402, 8.594013214429481 ], [ 7.519598484415155, 8.605243683060053 ], [ 7.520400523960063, 8.610857963874651 ], [ 7.522005081050281, 8.615671158145005 ], [ 7.522005081050281, 8.624494553140096 ], [ 7.517994404325236, 8.638933181950449 ], [ 7.512379168509938, 8.646954536400585 ], [ 7.499545096789802, 8.650162696580367 ], [ 7.49322843649793, 8.650736808970464 ], [ 7.496000767381588, 8.654301643392614 ], [ 7.501979828444064, 8.66865158114274 ], [ 7.541442871257345, 8.740403174894539 ], [ 7.565301418468152, 8.785279274385744 ], [ 7.57048511499022, 8.783134459928476 ], [ 7.586342334764424, 8.773444176344356 ], [ 7.606605052532018, 8.765515326957086 ], [ 7.61189079312345, 8.757586478569806 ], [ 7.625986098700537, 8.747896193985696 ], [ 7.645367621869354, 8.732919692809901 ], [ 7.655939102052173, 8.732038498211125 ], [ 7.662986754840745, 8.72499084542261 ], [ 7.6762013438194, 8.716180801436565 ], [ 7.698225497783824, 8.708251953049285 ], [ 7.709678172565361, 8.710895537845488 ], [ 7.725535870339911, 8.713538169641026 ], [ 7.743155003311301, 8.70737171245122 ], [ 7.759893416684235, 8.703847885056973 ], [ 7.791608334233047, 8.69944286306395 ], [ 7.806584835408898, 8.694156647472198 ], [ 7.831252098169102, 8.680942535493841 ], [ 7.837418556358955, 8.673013687106561 ], [ 7.845347403746246, 8.669489860712304 ], [ 7.861205100520806, 8.66772746951483 ], [ 7.876181601696601, 8.660679816726258 ], [ 7.899967669858142, 8.654513358536462 ], [ 7.914944172033927, 8.655394554135171 ], [ 7.92815876001265, 8.651980399815443 ] ] ] ] } },
{ "type": "Feature", "properties": { "fid": 276.0, "OBJECTID": 276.0, "lganame": "Toto", "statecode": "NA", "LGA_UID": "25_12" }, "geometry": { "type": "MultiPolygon", "coordinates": [ [ [ [ 7.444198132184169, 8.42716980006719 ], [ 7.432166100008942, 8.407116890442182 ], [ 7.431364059463988, 8.381448746001865 ], [ 7.438583374369159, 8.354978561016651 ], [ 7.442594051094261, 8.345353127476585 ], [ 7.442594051094261, 8.334122657846024 ], [ 7.436978817278941, 8.326101303395887 ], [ 7.432166100008942, 8.317277908400797 ], [ 7.432166100008942, 8.308454514405753 ], [ 7.434572696644125, 8.300433158955627 ], [ 7.432166100008942, 8.291609763960537 ], [ 7.431364059463988, 8.283588408510411 ], [ 7.432166100008942, 8.273962974970345 ], [ 7.432968615554216, 8.268348694155691 ], [ 7.425749301649034, 8.257920265070084 ], [ 7.416123867108979, 8.245888709895212 ], [ 7.408904552203808, 8.225834846269549 ], [ 7.399279117663809, 8.205781936644541 ], [ 7.392861843303535, 8.192145348379142 ], [ 7.388049126033536, 8.168884276574317 ], [ 7.381631850673273, 8.144820213223909 ], [ 7.381631850673273, 8.118350029238684 ], [ 7.383236407763491, 8.103911400428331 ], [ 7.389653206123455, 8.087868689528023 ], [ 7.3936638828485, 8.070221900537888 ], [ 7.400883197753672, 8.05016899091288 ], [ 7.404485226201075, 8.042964935018063 ], [ 7.393178462518676, 8.041861534268321 ], [ 7.305553912981907, 8.025581360206729 ], [ 7.25384092284537, 8.015047073049175 ], [ 7.195903301479461, 7.993021488083798 ], [ 7.117855072449345, 7.959024905984734 ], [ 7.072845458867448, 7.942744731923142 ], [ 7.035497189491082, 7.923113345584511 ], [ 7.006289004645453, 7.902523517594716 ], [ 6.979474545426285, 7.887680053509257 ], [ 6.966546534642305, 7.87906122165316 ], [ 6.963587760631981, 7.879294871811908 ], [ 6.962668419007343, 7.887567997433109 ], [ 6.959910393133384, 7.896760463678959 ], [ 6.954395294386131, 7.905033588300171 ], [ 6.95255661013681, 7.917903423044606 ], [ 6.957152843259735, 7.929853439164106 ], [ 6.960829734758022, 7.942722796908242 ], [ 6.963587760631981, 7.960188388775293 ], [ 6.978295325625083, 7.985927582263855 ], [ 6.97921466824971, 8.000635147256958 ], [ 6.97278022787782, 8.019939423373273 ], [ 6.970941543628555, 8.030051231243817 ], [ 6.977376461000745, 8.05027484898477 ], [ 6.987028598558936, 8.077852248722309 ], [ 6.987028598558936, 8.092559813715411 ], [ 6.98335123106034, 8.11554145833037 ], [ 6.997139931429103, 8.153230666938441 ], [ 7.002655506176666, 8.167018890306849 ], [ 7.0008172989277, 8.181727409300606 ], [ 6.992543697306189, 8.195515632669071 ], [ 6.979674338562063, 8.211143494287455 ], [ 6.972320556565478, 8.224931716655931 ], [ 6.970481873316203, 8.245155334396941 ], [ 6.964966296568605, 8.265378952137894 ], [ 6.959450721821042, 8.275490761008427 ], [ 6.953016281449152, 8.283763884629593 ], [ 6.941065788329354, 8.292956351875489 ], [ 6.934631347957463, 8.30122947749669 ], [ 6.934631347957463, 8.31042194374254 ], [ 6.941985129953991, 8.322372436862338 ], [ 6.95117759719983, 8.34627246910128 ], [ 6.955773830322755, 8.359142302845726 ], [ 6.957612513572087, 8.374769211463445 ], [ 6.969562530691576, 8.391315459705879 ], [ 6.980814909337028, 8.443727661317496 ], [ 6.985624979605234, 8.443420698108923 ], [ 6.999520416046551, 8.442533933506411 ], [ 7.035885413754841, 8.439712673589497 ], [ 7.069398255525243, 8.441828621027184 ], [ 7.079858211632313, 8.443081104878161 ], [ 7.086348843042344, 8.432664708800701 ], [ 7.083624407191223, 8.419933548150482 ], [ 7.124194216756507, 8.422788902090588 ], [ 7.140954248144169, 8.435336393616012 ], [ 7.139669339271165, 8.443188615951215 ], [ 7.133418983024342, 8.44949438423572 ], [ 7.149360740855968, 8.451403223532679 ], [ 7.20487569957578, 8.458050495049179 ], [ 7.27047530514767, 8.464397999362006 ], [ 7.313257656216251, 8.473566430591518 ], [ 7.365309515583021, 8.487671284175121 ], [ 7.380283338757067, 8.521520817174292 ], [ 7.395970201415537, 8.538444459673087 ], [ 7.418127060470056, 8.569902420047299 ], [ 7.443030834391038, 8.593281745932472 ], [ 7.47762346289511, 8.631333350786747 ], [ 7.479258537006046, 8.632776259767127 ], [ 7.49322843649793, 8.650736808970464 ], [ 7.499545096789802, 8.650162696580367 ], [ 7.512379168509938, 8.646954536400585 ], [ 7.517994404325236, 8.638933181950449 ], [ 7.522005081050281, 8.624494553140096 ], [ 7.522005081050281, 8.615671158145005 ], [ 7.520400523960063, 8.610857963874651 ], [ 7.519598484415155, 8.605243683060053 ], [ 7.5236091611402, 8.594013214429481 ], [ 7.522005081050281, 8.573158264259519 ], [ 7.518796443870201, 8.552302361088891 ], [ 7.514785767145099, 8.537062644734192 ], [ 7.505160331605111, 8.52583217610362 ], [ 7.499545096789802, 8.507383346568531 ], [ 7.484304905434783, 8.481715202128214 ], [ 7.465053558354441, 8.457651137777816 ], [ 7.444198132184169, 8.42716980006719 ] ] ] ] } },
{ "type": "Feature", "properties": { "fid": 386.0, "OBJECTID": 386.0, "lganame": "Karu", "statecode": "NA", "LGA_UID": "25_04" }, "geometry": { "type": "MultiPolygon", "coordinates": [ [ [ [ 7.792929649130826, 9.27559661853337 ], [ 7.808387300633569, 9.272846277664598 ], [ 7.82679843914309, 9.276432991101615 ], [ 7.872501408196115, 9.289969745299231 ], [ 7.897410243120476, 9.305919619136375 ], [ 7.919086633848565, 9.317365550913394 ], [ 7.940572881447451, 9.31417573874603 ], [ 7.983925663903619, 9.297850949654105 ], [ 7.996665296559627, 9.294660960486681 ], [ 8.014919099962242, 9.284903161856676 ], [ 8.044201242858037, 9.273268509951492 ], [ 8.060933896227084, 9.265762077851207 ], [ 8.0780791808765, 9.246327088646069 ], [ 8.078225136975675, 9.245200156880401 ], [ 8.083456038529846, 9.236811638180768 ], [ 8.087242994102894, 9.230739066054753 ], [ 8.070797603929009, 9.154648192354557 ], [ 8.070079073440809, 9.147037881183735 ], [ 8.063387870894474, 9.145213126943872 ], [ 8.049291611316733, 9.140808104950906 ], [ 8.038720131133914, 9.136403083957873 ], [ 8.025506020155547, 9.117902756387764 ], [ 8.021100998162524, 9.111736298197968 ], [ 8.016695976169501, 9.102926254211923 ], [ 8.010529517979705, 9.092354774029104 ], [ 7.997314930001039, 9.085307121240589 ], [ 7.970004559444874, 9.073854446458995 ], [ 7.949742316677657, 9.065044403472996 ], [ 7.937408924297699, 9.048306465100382 ], [ 7.92771816271329, 9.02540111453726 ], [ 7.916265487931696, 9.000734328777355 ], [ 7.906574726347287, 8.989281653995761 ], [ 7.892479419770211, 8.969900130826943 ], [ 7.88631248458006, 8.962852478038371 ], [ 7.864288329615704, 8.951399803256834 ], [ 7.847549915242723, 8.942589760270835 ], [ 7.832573414066871, 8.935542107482263 ], [ 7.819358826088205, 8.927613258094993 ], [ 7.812311172299644, 8.909112929524895 ], [ 7.811492442743372, 8.900105476404747 ], [ 7.809668063503807, 8.898541451342055 ], [ 7.805263518511083, 8.894136429349089 ], [ 7.804382323912364, 8.886208533962417 ], [ 7.802620410715235, 8.880922318370722 ], [ 7.795572757926664, 8.87475585918088 ], [ 7.785001277743845, 8.8668270107936 ], [ 7.781477451349588, 8.8580169678076 ], [ 7.773548602962308, 8.849206923821612 ], [ 7.769143580969285, 8.84039783483621 ], [ 7.767381667772156, 8.827182769857188 ], [ 7.766500950173736, 8.817492485273135 ], [ 7.767381667772156, 8.808682442287079 ], [ 7.771786689765179, 8.80075359289981 ], [ 7.775310516159436, 8.798992156703036 ], [ 7.781477451349588, 8.796349524907441 ], [ 7.794691563327945, 8.793705940111295 ], [ 7.802620410715235, 8.789301872118926 ], [ 7.808787345905387, 8.784015655527185 ], [ 7.814073086496762, 8.778729438935443 ], [ 7.825525761278357, 8.775205611541196 ], [ 7.833454608665647, 8.773444176344356 ], [ 7.848431109841442, 8.776086807139905 ], [ 7.855478763630003, 8.786658287322723 ], [ 7.862526417418565, 8.799873352301745 ], [ 7.867812157009951, 8.810444832484563 ], [ 7.881026744988674, 8.823658943462931 ], [ 7.89424133296734, 8.833350182047695 ], [ 7.903932094551749, 8.838635444638783 ], [ 7.913622856136158, 8.84215927103304 ], [ 7.920670508924729, 8.836874008441953 ], [ 7.92771816271329, 8.835111618244468 ], [ 7.9285988813117, 8.827182769857188 ], [ 7.926836967114525, 8.821897507266101 ], [ 7.92771816271329, 8.813968657878831 ], [ 7.931241989107548, 8.798110962104261 ], [ 7.933885097903442, 8.787539481921442 ], [ 7.933885097903442, 8.776968001738624 ], [ 7.933444499604036, 8.761110305964053 ], [ 7.932563305005317, 8.739967345598416 ], [ 7.92815876001265, 8.732919692809901 ], [ 7.925515652216802, 8.717061996035341 ], [ 7.922873020421207, 8.705609322253736 ], [ 7.924634932618346, 8.685347557486864 ], [ 7.92903947761107, 8.678298949697648 ], [ 7.92815876001265, 8.659798622127539 ], [ 7.92815876001265, 8.651980399815443 ], [ 7.914944172033927, 8.655394554135171 ], [ 7.899967669858142, 8.654513358536462 ], [ 7.876181601696601, 8.660679816726258 ], [ 7.861205100520806, 8.66772746951483 ], [ 7.845347403746246, 8.669489860712304 ], [ 7.837418556358955, 8.673013687106561 ], [ 7.831252098169102, 8.680942535493841 ], [ 7.806584835408898, 8.694156647472198 ], [ 7.791608334233047, 8.69944286306395 ], [ 7.759893416684235, 8.703847885056973 ], [ 7.743155003311301, 8.70737171245122 ], [ 7.725535870339911, 8.713538169641026 ], [ 7.709678172565361, 8.710895537845488 ], [ 7.698225497783824, 8.708251953049285 ], [ 7.6762013438194, 8.716180801436565 ], [ 7.662986754840745, 8.72499084542261 ], [ 7.655939102052173, 8.732038498211125 ], [ 7.645367621869354, 8.732919692809901 ], [ 7.625986098700537, 8.747896193985696 ], [ 7.61189079312345, 8.757586478569806 ], [ 7.606605052532018, 8.765515326957086 ], [ 7.586342334764424, 8.773444176344356 ], [ 7.57048511499022, 8.783134459928476 ], [ 7.565301418468152, 8.785279274385744 ], [ 7.591669083383749, 8.834875107083803 ], [ 7.594658852415137, 8.856400489709301 ], [ 7.59226703579003, 8.924564362023432 ], [ 7.591591298330854, 8.963088657198853 ], [ 7.5907079927307, 9.013440339410465 ], [ 7.589795258110541, 9.06546224475693 ], [ 7.58917264068748, 9.100944409865349 ], [ 7.589172519687452, 9.100944419865357 ], [ 7.588679314352305, 9.129055976965844 ], [ 7.603319168299436, 9.161440848969846 ], [ 7.640090129283521, 9.242789706242604 ], [ 7.667605876979223, 9.303650855594867 ], [ 7.724080474351013, 9.329254915991612 ], [ 7.731188925180902, 9.326137384873391 ], [ 7.751534310004615, 9.306998554869494 ], [ 7.763857841377899, 9.295858383300242 ], [ 7.770024775568061, 9.292334556905985 ], [ 7.792929649130826, 9.27559661853337 ] ] ] ] } },
{ "type": "Feature", "properties": { "fid": 421.0, "OBJECTID": 421.0, "lganame": "Kokona", "statecode": "NA", "LGA_UID": "25_07" }, "geometry": { "type": "MultiPolygon", "coordinates": [ [ [ [ 8.09906714713685, 9.039674704235495 ], [ 8.137571263298582, 9.036153770843157 ], [ 8.174012301058553, 9.047072487261914 ], [ 8.178793907307465, 9.040377616713101 ], [ 8.185842514096635, 9.031567573727102 ], [ 8.184080123899207, 9.019234657347454 ], [ 8.184080123899207, 9.010424614361455 ], [ 8.185842514096635, 8.992805481390064 ], [ 8.186722754694699, 8.977828979214223 ], [ 8.189366341490938, 8.969900130826943 ], [ 8.192890166885206, 8.961090087840944 ], [ 8.199056625075002, 8.952280997855553 ], [ 8.202580452469306, 8.939947128475296 ], [ 8.206104278863563, 8.933780670285444 ], [ 8.21050929985654, 8.922327994503917 ], [ 8.219319343842585, 8.913517951517917 ], [ 8.231652260222234, 8.902946472335088 ], [ 8.241343497806952, 8.888851165757956 ], [ 8.247509955996748, 8.878279685575137 ], [ 8.250152587792343, 8.857135773208881 ], [ 8.251306533576383, 8.85344409870055 ], [ 8.254557609785309, 8.843040465631759 ], [ 8.252796172588489, 8.821897507266101 ], [ 8.2536764141866, 8.812206267681404 ], [ 8.249272346194232, 8.804278374294768 ], [ 8.24574756579932, 8.794587134710014 ], [ 8.246628761398028, 8.783134459928476 ], [ 8.246628761398028, 8.772562980745647 ], [ 8.242223740405052, 8.760229111365334 ], [ 8.238699913010748, 8.752301215978719 ], [ 8.238699913010748, 8.739086150999697 ], [ 8.240462303208233, 8.725872040021329 ], [ 8.242223740405052, 8.721467018028306 ], [ 8.25191497798977, 8.718824387232758 ], [ 8.258962630778342, 8.718824387232758 ], [ 8.258962630778342, 8.708251953049285 ], [ 8.254557609785309, 8.70120430026077 ], [ 8.25191497798977, 8.695919036669693 ], [ 8.246321678189418, 8.69553279940726 ], [ 8.243448257237048, 8.695334435272457 ], [ 8.239140511310154, 8.695037842070917 ], [ 8.232393264725715, 8.695037842070917 ], [ 8.228569031127279, 8.695037842070917 ], [ 8.224066734068231, 8.692143440104303 ], [ 8.216235160747033, 8.687108993683637 ], [ 8.21369743302273, 8.68058204724889 ], [ 8.21006870255718, 8.671251296909077 ], [ 8.206682205256243, 8.661770821467542 ], [ 8.205663680564214, 8.658918380529485 ], [ 8.199422836323834, 8.649556160168288 ], [ 8.196854590578823, 8.645703315550463 ], [ 8.194380759897967, 8.639656067441649 ], [ 8.189687728709259, 8.628185271647737 ], [ 8.188925743191533, 8.626321793381635 ], [ 8.186799048746536, 8.619943619047945 ], [ 8.182758331001082, 8.607821464811536 ], [ 8.181964874461983, 8.602794647396024 ], [ 8.180491447460838, 8.593461990054948 ], [ 8.180115700205533, 8.591083527438855 ], [ 8.176591872811287, 8.576107025263013 ], [ 8.176285743603273, 8.568142890851789 ], [ 8.175799370272784, 8.555518150273883 ], [ 8.175710678212511, 8.553201674699949 ], [ 8.175022124744714, 8.548382759425692 ], [ 8.17446327236496, 8.544465064763813 ], [ 8.171746253518904, 8.541749000918401 ], [ 8.167342185526536, 8.540867805319635 ], [ 8.155008316146279, 8.549677849305681 ], [ 8.145317077561515, 8.559368133889734 ], [ 8.130341530386318, 8.559368133889734 ], [ 8.116245269808587, 8.568178176875733 ], [ 8.100388527034681, 8.571702003270047 ], [ 8.088935852253144, 8.578749657058609 ], [ 8.07836341906966, 8.587559700044608 ], [ 8.065149307091303, 8.593726158234404 ], [ 8.04312515312688, 8.605178833015941 ], [ 8.025506020155547, 8.610465049607683 ], [ 8.016695976169501, 8.615750313198816 ], [ 8.001719474993706, 8.621036529790501 ], [ 7.985862255219445, 8.625441550783535 ], [ 7.977933406832165, 8.63160800897333 ], [ 7.968242645247756, 8.635131836367634 ], [ 7.95414733867068, 8.635131836367634 ], [ 7.947980404480518, 8.638655662761892 ], [ 7.941813469290366, 8.643060683754925 ], [ 7.930361270509138, 8.649227141944721 ], [ 7.92815876001265, 8.651980399815443 ], [ 7.92815876001265, 8.659798622127539 ], [ 7.92903947761107, 8.678298949697648 ], [ 7.924634932618346, 8.685347557486864 ], [ 7.922873020421207, 8.705609322253736 ], [ 7.925515652216802, 8.717061996035341 ], [ 7.92815876001265, 8.732919692809901 ], [ 7.932563305005317, 8.739967345598416 ], [ 7.933444499604036, 8.761110305964053 ], [ 7.933885097903442, 8.776968001738624 ], [ 7.933885097903442, 8.787539481921442 ], [ 7.931241989107548, 8.798110962104261 ], [ 7.92771816271329, 8.813968657878831 ], [ 7.926836967114525, 8.821897507266101 ], [ 7.9285988813117, 8.827182769857188 ], [ 7.92771816271329, 8.835111618244468 ], [ 7.920670508924729, 8.836874008441953 ], [ 7.913622856136158, 8.84215927103304 ], [ 7.912741660537449, 8.849206923821612 ], [ 7.910098552741601, 8.851850509617805 ], [ 7.90217018135462, 8.860659598603149 ], [ 7.897765160361644, 8.869469642589138 ], [ 7.88543176698164, 8.876517296377699 ], [ 7.866931438411541, 8.88444614376499 ], [ 7.851954937235746, 8.887969971159237 ], [ 7.837859153658314, 8.890612601954786 ], [ 7.829930782271333, 8.895017623947808 ], [ 7.817596911891087, 8.895898818546527 ], [ 7.811492442743372, 8.900105476404747 ], [ 7.812311172299644, 8.909112929524895 ], [ 7.819358826088205, 8.927613258094993 ], [ 7.832573414066871, 8.935542107482263 ], [ 7.847549915242723, 8.942589760270835 ], [ 7.864288329615704, 8.951399803256834 ], [ 7.88631248458006, 8.962852478038371 ], [ 7.892479419770211, 8.969900130826943 ], [ 7.906574726347287, 8.989281653995761 ], [ 7.916265487931696, 9.000734328777355 ], [ 7.92771816271329, 9.02540111453726 ], [ 7.937408924297699, 9.048306465100382 ], [ 7.949742316677657, 9.065044403472996 ], [ 7.970004559444874, 9.073854446458995 ], [ 7.997314930001039, 9.085307121240589 ], [ 8.010529517979705, 9.092354774029104 ], [ 8.016695976169501, 9.102926254211923 ], [ 8.021100998162524, 9.111736298197968 ], [ 8.025506020155547, 9.117902756387764 ], [ 8.038720131133914, 9.136403083957873 ], [ 8.049291611316733, 9.140808104950906 ], [ 8.063387870894474, 9.145213126943872 ], [ 8.070079073440809, 9.147037881183735 ], [ 8.067351247587396, 9.118146158553145 ], [ 8.061646934711575, 9.052055201647477 ], [ 8.09906714713685, 9.039674704235495 ] ] ] ] } },
{ "type": "Feature", "properties": { "fid": 458.0, "OBJECTID": 458.0, "lganame": "Doma", "statecode": "NA", "LGA_UID": "25_03" }, "geometry": { "type": "MultiPolygon", "coordinates": [ [ [ [ 8.277809142583635, 8.503711700073836 ], [ 8.288475036830619, 8.50034332278517 ], [ 8.304332732605189, 8.502986907581374 ], [ 8.314904212788008, 8.502105712982598 ], [ 8.318551064265876, 8.499610901287497 ], [ 8.320484160579326, 8.498288155388764 ], [ 8.326581000721831, 8.494116782554499 ], [ 8.331642151160622, 8.49065303820106 ], [ 8.363357543709753, 8.484486580011264 ], [ 8.369536399907986, 8.484502792022283 ], [ 8.382286071570832, 8.483600616409262 ], [ 8.392661094620166, 8.483071327049629 ], [ 8.399477005251242, 8.48272418981378 ], [ 8.413902283052551, 8.48157024402974 ], [ 8.419477462840632, 8.478670120059235 ], [ 8.430311203201654, 8.47303390522967 ], [ 8.434254645881026, 8.471240997011478 ], [ 8.440001487785707, 8.468628883236704 ], [ 8.443136214915626, 8.466969490109193 ], [ 8.44908332795643, 8.463820456969586 ], [ 8.454977988961559, 8.460700034849424 ], [ 8.467752456641222, 8.451889991863425 ], [ 8.469102858558756, 8.450250625749504 ], [ 8.473793982746145, 8.444554328879178 ], [ 8.478046416635436, 8.439389229369738 ], [ 8.480085373020813, 8.436913489687583 ], [ 8.487692833189726, 8.425848007169122 ], [ 8.489776610605588, 8.422818184110497 ], [ 8.491829872000665, 8.418712616320931 ], [ 8.495528220513506, 8.411314964294604 ], [ 8.496824265394139, 8.408722877533364 ], [ 8.502035140934652, 8.397160529677308 ], [ 8.504978179934312, 8.386860846679156 ], [ 8.506694794100667, 8.357434272685168 ], [ 8.506694794100667, 8.343212128021889 ], [ 8.508166313100503, 8.326537131692021 ], [ 8.508166313100503, 8.311823844695027 ], [ 8.510128021433388, 8.292206764366142 ], [ 8.508166313100503, 8.278964996368984 ], [ 8.508656502433553, 8.26081848103928 ], [ 8.507675170766788, 8.237277985044614 ], [ 8.509636879099673, 8.216188430715249 ], [ 8.515522957098995, 8.202946662718091 ], [ 8.516013145432055, 8.195099831386528 ], [ 8.520916938763946, 8.184801102389031 ], [ 8.519446372764776, 8.177444458390539 ], [ 8.516013145432055, 8.165183067059502 ], [ 8.51268005416739, 8.157776833027356 ], [ 8.503683090054381, 8.158167839293014 ], [ 8.486098289106337, 8.149149895165749 ], [ 8.466258048625832, 8.139229774425473 ], [ 8.426578521665419, 8.112175941043688 ], [ 8.390506744156369, 8.077907561759901 ], [ 8.37111759198234, 8.046343803313846 ], [ 8.363452910774583, 8.01658439609372 ], [ 8.360296248629766, 7.98727607718007 ], [ 8.360296248629766, 7.962283598198894 ], [ 8.344406738833584, 7.973415651762593 ], [ 8.339716166646554, 7.960989482319576 ], [ 8.347916117218062, 7.928151387007631 ], [ 8.370844287796672, 7.902228233394055 ], [ 8.373993544936411, 7.899226582354572 ], [ 8.375716723107246, 7.897872889434836 ], [ 8.379281918529614, 7.896342623395071 ], [ 8.381896396306047, 7.8949300644353 ], [ 8.384986232405424, 7.894223781955418 ], [ 8.389026787150783, 7.89263464487567 ], [ 8.391106484563863, 7.89045692839602 ], [ 8.391997784169462, 7.886572323756639 ], [ 8.391819524048344, 7.883688275797056 ], [ 8.391581843886854, 7.880686489757466 ], [ 8.391878944088717, 7.87880300647771 ], [ 8.393423862138434, 7.875271449078184 ], [ 8.396216599035938, 7.866383566039303 ], [ 8.398474556570136, 7.857377767920298 ], [ 8.398712235731637, 7.854787829160557 ], [ 8.399365856175734, 7.850255397080957 ], [ 8.400613674023532, 7.847194506001244 ], [ 8.400978051271125, 7.843960945804213 ], [ 8.401031082307156, 7.841253861964844 ], [ 8.401506974630536, 7.838208151895458 ], [ 8.403193030776094, 7.835420965001674 ], [ 8.40555205837893, 7.830974589980542 ], [ 8.406313485896305, 7.828166826072845 ], [ 8.406313485896305, 7.825692187391439 ], [ 8.406123128766978, 7.822456120192669 ], [ 8.406294449883376, 7.8191629459551 ], [ 8.408664393493666, 7.811888140012229 ], [ 8.410073034450761, 7.808614001787589 ], [ 8.411611118495784, 7.806032763033784 ], [ 8.414991855792834, 7.805598748738873 ], [ 8.41634719671373, 7.803754191485609 ], [ 8.418650515278728, 7.803287816168734 ], [ 8.418328812060167, 7.802648216734156 ], [ 8.417903363771075, 7.801676445073838 ], [ 8.417838642727133, 7.800348706171746 ], [ 8.417798667699969, 7.79969768572937 ], [ 8.417855774738769, 7.799320779473305 ], [ 8.417758692672805, 7.799000979255993 ], [ 8.41708768521687, 7.798495581912618 ], [ 8.417161924267305, 7.798289996772894 ], [ 8.417401774430289, 7.798175781695306 ], [ 8.417504566500099, 7.798050146609967 ], [ 8.417430328449655, 7.797730347392644 ], [ 8.417293271356584, 7.797547605268505 ], [ 8.41686877506811, 7.796781417747923 ], [ 8.415570541186014, 7.794649421299312 ], [ 8.415719019286939, 7.793884186779394 ], [ 8.415307848007558, 7.793073266228419 ], [ 8.415469652117508, 7.792048193531912 ], [ 8.416183489602531, 7.790453956448687 ], [ 8.416944918119839, 7.789882885060706 ], [ 8.417446508460671, 7.788139215875958 ], [ 8.418542964205642, 7.785641734179023 ], [ 8.419207308657064, 7.784762284581461 ], [ 8.420060108236498, 7.782645516143248 ], [ 8.419709850998515, 7.781619493446101 ], [ 8.419355786757933, 7.78068293680974 ], [ 8.419081673571668, 7.779529374025969 ], [ 8.418978880501868, 7.778193069118004 ], [ 8.42059056559691, 7.774244710435255 ], [ 8.420535988559834, 7.774232693427109 ], [ 8.411993979755948, 7.76850891053806 ], [ 8.403155326750493, 7.766182898957652 ], [ 8.385478019739594, 7.768043518221873 ], [ 8.372159003689944, 7.770002364552795 ], [ 8.362218856936067, 7.77455615964692 ], [ 8.345472335557588, 7.784325123284475 ], [ 8.3287248611785, 7.791768074341576 ], [ 8.301744460846578, 7.802467345611262 ], [ 8.274763106514001, 7.814562320829225 ], [ 8.251503943710475, 7.822470188202203 ], [ 8.215219498056911, 7.834565163420166 ], [ 8.191029548620975, 7.848986149218604 ], [ 8.185447692828404, 7.852242470431065 ], [ 8.18312168124794, 7.853172779063186 ], [ 8.180357933370146, 7.852580546660818 ], [ 8.175678253190483, 7.855033398327407 ], [ 8.15986251844447, 7.859685421488223 ], [ 8.13939380553694, 7.861546039752454 ], [ 8.113808632152995, 7.863872051332862 ], [ 8.095201491510352, 7.868988990809555 ], [ 8.072406769022393, 7.877362251498823 ], [ 8.068856238609953, 7.879503726953828 ], [ 8.06744003264771, 7.912913321654059 ], [ 8.06109714533801, 7.932647228062365 ], [ 8.055459022507193, 7.965066433089646 ], [ 8.052639960591762, 7.988324164892219 ], [ 8.050525665155192, 8.008057594300169 ], [ 8.047706604239806, 8.029201507666414 ], [ 8.049820899676376, 8.057392119820634 ], [ 8.059687614380323, 8.082058906580585 ], [ 8.061801909816893, 8.090517044327441 ], [ 8.084354401140217, 8.105317116383446 ], [ 8.094221114844231, 8.108840941777714 ], [ 8.112545013294437, 8.12505054479135 ], [ 8.135098456618437, 8.137736320410738 ], [ 8.152717589589827, 8.151127814509664 ], [ 8.162584305293763, 8.161699294692482 ], [ 8.168222427124647, 8.187775612410121 ], [ 8.168222427124647, 8.213147162648852 ], [ 8.166108130688031, 8.237110137930586 ], [ 8.161879538814901, 8.256843567338535 ], [ 8.163993835251517, 8.278691292182998 ], [ 8.156241416984074, 8.294197082718483 ], [ 8.146374702280127, 8.299835204549311 ], [ 8.129460334787609, 8.30194950098587 ], [ 8.115365028210533, 8.309701920253303 ], [ 8.099859237675048, 8.308997153774442 ], [ 8.091402053928789, 8.306178092859 ], [ 8.078011512830528, 8.308292389295559 ], [ 8.066030501690022, 8.315340042084131 ], [ 8.06109714533801, 8.318159102999573 ], [ 8.058278084422625, 8.325206756788077 ], [ 8.06532573721114, 8.33930206336521 ], [ 8.085763931097972, 8.352693558464068 ], [ 8.103383064069305, 8.361150742210327 ], [ 8.126641272872178, 8.366084098562339 ], [ 8.14285087588587, 8.366084098562339 ], [ 8.156241416984074, 8.368198394998899 ], [ 8.167517661645775, 8.367493628520037 ], [ 8.191480636927508, 8.3794746396606 ], [ 8.202756881589153, 8.392160416279978 ], [ 8.207690238941154, 8.407665252814752 ], [ 8.211918830814284, 8.421056746913678 ], [ 8.212623596293156, 8.430923461617624 ], [ 8.21050929985654, 8.442199707279315 ], [ 8.20592784874367, 8.456295012856401 ], [ 8.203108787828285, 8.473209381348909 ], [ 8.198880195955155, 8.483780860531738 ], [ 8.185489654856895, 8.507039070334599 ], [ 8.178442001068333, 8.517610549517428 ], [ 8.176327704631774, 8.527477264221375 ], [ 8.174918174674076, 8.538753509883065 ], [ 8.174082756106429, 8.540981293396783 ], [ 8.179935455083069, 8.545933722761674 ], [ 8.185401916797275, 8.5505590439044 ], [ 8.190317154136949, 8.551006317208305 ], [ 8.200926781345686, 8.551970481863407 ], [ 8.204782485965438, 8.552320480101173 ], [ 8.216480254913563, 8.546779633336428 ], [ 8.221521378338764, 8.544391631713893 ], [ 8.226924896010189, 8.538988113042478 ], [ 8.237313271068615, 8.528599738984042 ], [ 8.239140511310154, 8.526772498742559 ], [ 8.24651241331901, 8.520535468504761 ], [ 8.250593185091702, 8.517082214158449 ], [ 8.255469322404792, 8.514440536363566 ], [ 8.269063949641691, 8.507077217360518 ], [ 8.271736145457339, 8.505629539376912 ], [ 8.277809142583635, 8.503711700073836 ] ] ] ] } },
{ "type": "Feature", "properties": { "fid": 461.0, "OBJECTID": 461.0, "lganame": "Akwanga", "statecode": "NA", "LGA_UID": "25_01" }, "geometry": { "type": "MultiPolygon", "coordinates": [ [ [ [ 8.331637031157186, 9.178693289692092 ], [ 8.332963943058758, 9.177808762091104 ], [ 8.336584090518443, 9.177808762091104 ], [ 8.346986770586568, 9.177808762091104 ], [ 8.352755939506494, 9.177808762091104 ], [ 8.357630729818652, 9.177808762091104 ], [ 8.381496429034257, 9.177421569828027 ], [ 8.387311934985632, 9.175717353670052 ], [ 8.389398590403459, 9.172193593275836 ], [ 8.389691684602553, 9.171698638939574 ], [ 8.39178180702271, 9.16816902154136 ], [ 8.395512580557579, 9.161951065316543 ], [ 8.401764869805731, 9.155939102231685 ], [ 8.412955284409122, 9.145178794920582 ], [ 8.4184179311207, 9.139926910352131 ], [ 8.41943552181209, 9.138764044562038 ], [ 8.42418289203772, 9.133338927875911 ], [ 8.429317815526645, 9.12747044288858 ], [ 8.430751800501014, 9.125831603775055 ], [ 8.43696784972451, 9.12065124525526 ], [ 8.441974640126375, 9.11647892042032 ], [ 8.44660854327492, 9.112617492796687 ], [ 8.452239550100899, 9.104426748231447 ], [ 8.454324721517708, 9.101393700170661 ], [ 8.456299781859627, 9.098521233218946 ], [ 8.462333678959396, 9.089772224274384 ], [ 8.462759176248483, 9.089155252855221 ], [ 8.465571185159149, 9.085077841084797 ], [ 8.466701507927155, 9.083438872971158 ], [ 8.469361666734585, 9.079581185350094 ], [ 8.47141933413269, 9.076597214322589 ], [ 8.473918914831017, 9.072973250860286 ], [ 8.47436904913684, 9.069972991821771 ], [ 8.476561545626566, 9.055354117888896 ], [ 8.479083061339793, 9.052202224747361 ], [ 8.481604971053343, 9.049050076605624 ], [ 8.486616135458178, 9.042786598349892 ], [ 8.490657806204297, 9.037734984917563 ], [ 8.493748873304526, 9.025370715516601 ], [ 8.493748929304559, 9.025370492516458 ], [ 8.494181632598611, 9.02363967934042 ], [ 8.498586654591577, 9.011305808960174 ], [ 8.504345893504706, 9.001431465251017 ], [ 8.508348465224287, 8.987790107982335 ], [ 8.509158133774406, 8.984876633002784 ], [ 8.514698981539141, 8.961095809844835 ], [ 8.515280723934438, 8.954599380430807 ], [ 8.517654418547238, 8.936203002931336 ], [ 8.517967223759797, 8.933780670285444 ], [ 8.519348144698029, 8.927104949749605 ], [ 8.520809173690736, 8.920042991951391 ], [ 8.523253441351528, 8.90823268892683 ], [ 8.524271011042913, 8.905349730967998 ], [ 8.528538703942615, 8.893256186750989 ], [ 8.530156136041569, 8.884634017892608 ], [ 8.500348090788407, 8.885327339363698 ], [ 8.46863365223993, 8.889732361356721 ], [ 8.442204475282551, 8.890612601954786 ], [ 8.405203819142343, 8.888851165757956 ], [ 8.367321968403417, 8.888851165757956 ], [ 8.335606574854296, 8.895017623947808 ], [ 8.326797484868905, 8.893256186750989 ], [ 8.303010940707111, 8.887088775560528 ], [ 8.280105591143979, 8.871232032786622 ], [ 8.265129088968138, 8.859779358005085 ], [ 8.251306533576383, 8.85344409870055 ], [ 8.250152587792343, 8.857135773208881 ], [ 8.247509955996748, 8.878279685575137 ], [ 8.241343497806952, 8.888851165757956 ], [ 8.231652260222234, 8.902946472335088 ], [ 8.219319343842585, 8.913517951517917 ], [ 8.21050929985654, 8.922327994503917 ], [ 8.206104278863563, 8.933780670285444 ], [ 8.202580452469306, 8.939947128475296 ], [ 8.199056625075002, 8.952280997855553 ], [ 8.192890166885206, 8.961090087840944 ], [ 8.189366341490938, 8.969900130826943 ], [ 8.186722754694699, 8.977828979214223 ], [ 8.185842514096635, 8.992805481390064 ], [ 8.184080123899207, 9.010424614361455 ], [ 8.184080123899207, 9.019234657347454 ], [ 8.185842514096635, 9.031567573727102 ], [ 8.178793907307465, 9.040377616713101 ], [ 8.174012301058553, 9.047072487261914 ], [ 8.191895425209339, 9.052430752902637 ], [ 8.232776338985957, 9.104816294496118 ], [ 8.253502011068065, 9.147244836324319 ], [ 8.255973879747614, 9.160197676125165 ], [ 8.258445749427153, 9.1829109355578 ], [ 8.331637031157186, 9.178693289692092 ] ] ] ] } },
{ "type": "Feature", "properties": { "fid": 483.0, "OBJECTID": 483.0, "lganame": "Nasarawa Egon", "statecode": "NA", "LGA_UID": "25_10" }, "geometry": { "type": "MultiPolygon", "coordinates": [ [ [ [ 8.530156136041569, 8.884634017892608 ], [ 8.531182288738819, 8.879159927173248 ], [ 8.525896072147077, 8.872993468983452 ], [ 8.519729613957225, 8.862421988800577 ], [ 8.515324592964248, 8.855374336012062 ], [ 8.513463973700027, 8.853699683874197 ], [ 8.506514548978203, 8.847445487624782 ], [ 8.500348090788407, 8.837755203040672 ], [ 8.50431251548207, 8.835992812843244 ], [ 8.509598732073755, 8.82454013806165 ], [ 8.52017021225663, 8.821897507266101 ], [ 8.530202866073296, 8.820613861393952 ], [ 8.533988952645814, 8.818140983713761 ], [ 8.543075561819705, 8.812206267681404 ], [ 8.552765846403815, 8.808682442287079 ], [ 8.557170868396838, 8.805158614892832 ], [ 8.570384979375206, 8.802515984097283 ], [ 8.579195023361194, 8.799873352301745 ], [ 8.592409134339562, 8.806039810491541 ], [ 8.60048580182729, 8.811631203290631 ], [ 8.602910042474434, 8.813309669431078 ], [ 8.620600700494379, 8.81661128967437 ], [ 8.632933616874027, 8.821897507266101 ], [ 8.636457443268284, 8.823658943462931 ], [ 8.639548302368382, 8.823658943462931 ], [ 8.640135764767535, 8.820510864323978 ], [ 8.640862465261307, 8.81661128967437 ], [ 8.649715424276508, 8.8145685202864 ], [ 8.652315140042845, 8.813968657878831 ], [ 8.663132668392848, 8.8039712910861 ], [ 8.667481422347635, 8.802784920280033 ], [ 8.673150063199216, 8.801239014229623 ], [ 8.681386947795772, 8.798992156703036 ], [ 8.694353103605692, 8.794670104766396 ], [ 8.697244643570343, 8.793705940111295 ], [ 8.700818061998348, 8.790957451243798 ], [ 8.70596504249545, 8.786998748554026 ], [ 8.708697319351927, 8.784896851125893 ], [ 8.711515427266704, 8.774188041849754 ], [ 8.713102341344893, 8.768157958752624 ], [ 8.711339951147465, 8.752301215978719 ], [ 8.706546782890712, 8.733104705935602 ], [ 8.704634665591527, 8.729304314353385 ], [ 8.699656487209097, 8.721481323038063 ], [ 8.694602012774794, 8.713538169641026 ], [ 8.677863121401515, 8.69151401467667 ], [ 8.670436859355732, 8.685148239351406 ], [ 8.665530205021867, 8.680942535493841 ], [ 8.661743164448751, 8.677844048388579 ], [ 8.65786552381411, 8.674672127233407 ], [ 8.655838966437159, 8.673013687106561 ], [ 8.645741462576382, 8.667167664134467 ], [ 8.642668724488601, 8.66538810692532 ], [ 8.639101028064488, 8.663322448521797 ], [ 8.626203537301251, 8.662564278006698 ], [ 8.624124526888693, 8.662442206923743 ], [ 8.596814156332584, 8.660679816726258 ], [ 8.592844962635695, 8.661274910130601 ], [ 8.584590912027465, 8.662512778971688 ], [ 8.579195023361194, 8.663322448521797 ], [ 8.576488494522209, 8.663086891361786 ], [ 8.558932303593622, 8.661561012325024 ], [ 8.552252769055201, 8.658380508163987 ], [ 8.548965453821609, 8.656814575100043 ], [ 8.540431976023513, 8.652750969339024 ], [ 8.535021782347542, 8.652750969339024 ], [ 8.521050452854695, 8.652750969339024 ], [ 8.51419639619769, 8.652781487359732 ], [ 8.50838756625086, 8.652807236377214 ], [ 8.503429412882042, 8.652829170392124 ], [ 8.499171256988802, 8.652384758090193 ], [ 8.492261887294205, 8.651662826599647 ], [ 8.485812186911915, 8.650989532142205 ], [ 8.479956626933358, 8.648859977695224 ], [ 8.476121902327861, 8.647465705747891 ], [ 8.474040030913329, 8.646127700838804 ], [ 8.469197272622864, 8.643013953723141 ], [ 8.465697289244815, 8.64076423619457 ], [ 8.463788032947548, 8.639536858360657 ], [ 8.460879325971234, 8.636263847136775 ], [ 8.454380988555897, 8.628953934170056 ], [ 8.448950767866336, 8.62460517921528 ], [ 8.435596465792742, 8.617512703396244 ], [ 8.431628227096496, 8.616719245857155 ], [ 8.426787375807351, 8.615750313198816 ], [ 8.423432349527786, 8.615246772856665 ], [ 8.40916824283596, 8.613107681403221 ], [ 8.404175758443841, 8.610611915707466 ], [ 8.400358199849961, 8.608702660410245 ], [ 8.392370224422507, 8.608702660410245 ], [ 8.388905525068424, 8.608702660410245 ], [ 8.386735915594272, 8.608847617508729 ], [ 8.379706382818028, 8.60931587182688 ], [ 8.375691414090056, 8.609583855008964 ], [ 8.373452186568613, 8.610437392588892 ], [ 8.360284804621983, 8.615452765996622 ], [ 8.357191085519958, 8.616631507797536 ], [ 8.346964835571669, 8.617909430665804 ], [ 8.344266890738538, 8.61824703189518 ], [ 8.336047173153645, 8.619274138593084 ], [ 8.331860542309016, 8.61777877757703 ], [ 8.326352118566319, 8.615811348240243 ], [ 8.319465636887287, 8.613351821569154 ], [ 8.316022872548103, 8.612122535733874 ], [ 8.311380386393751, 8.610465049607683 ], [ 8.302820205577461, 8.598576545530022 ], [ 8.29552268961919, 8.588440894643327 ], [ 8.291892052152321, 8.581542014955858 ], [ 8.286712645633145, 8.571702003270047 ], [ 8.282327651653759, 8.567754744588058 ], [ 8.2779035566478, 8.563773154882767 ], [ 8.26959991500587, 8.559621811062129 ], [ 8.267332077464971, 8.55848789229168 ], [ 8.2585325244861, 8.559296607841134 ], [ 8.248831748894872, 8.563773154882767 ], [ 8.243545532303131, 8.566415786678306 ], [ 8.24662780839742, 8.576280594380989 ], [ 8.247950554296153, 8.580512047256036 ], [ 8.248800277873499, 8.585612296721422 ], [ 8.249711990492926, 8.591083527438855 ], [ 8.249407768286233, 8.595650672542035 ], [ 8.248831748894872, 8.604297638417222 ], [ 8.250752449199922, 8.623824119684571 ], [ 8.251474379690421, 8.632489203572106 ], [ 8.256760597282153, 8.644822120951744 ], [ 8.252355576289119, 8.652750969339024 ], [ 8.242664336704422, 8.656274795733282 ], [ 8.242664336704422, 8.673013687106561 ], [ 8.252355576289119, 8.687108993683637 ], [ 8.25191497798977, 8.695919036669693 ], [ 8.254557609785309, 8.70120430026077 ], [ 8.258962630778342, 8.708251953049285 ], [ 8.258962630778342, 8.718824387232758 ], [ 8.25191497798977, 8.718824387232758 ], [ 8.242223740405052, 8.721467018028306 ], [ 8.240462303208233, 8.725872040021329 ], [ 8.238699913010748, 8.739086150999697 ], [ 8.238699913010748, 8.752301215978719 ], [ 8.242223740405052, 8.760229111365334 ], [ 8.246628761398028, 8.772562980745647 ], [ 8.246628761398028, 8.783134459928476 ], [ 8.24574756579932, 8.794587134710014 ], [ 8.249272346194232, 8.804278374294768 ], [ 8.2536764141866, 8.812206267681404 ], [ 8.252796172588489, 8.821897507266101 ], [ 8.254557609785309, 8.843040465631759 ], [ 8.251306533576383, 8.85344409870055 ], [ 8.265129088968138, 8.859779358005085 ], [ 8.280105591143979, 8.871232032786622 ], [ 8.303010940707111, 8.887088775560528 ], [ 8.326797484868905, 8.893256186750989 ], [ 8.335606574854296, 8.895017623947808 ], [ 8.367321968403417, 8.888851165757956 ], [ 8.405203819142343, 8.888851165757956 ], [ 8.442204475282551, 8.890612601954786 ], [ 8.46863365223993, 8.889732361356721 ], [ 8.500348090788407, 8.885327339363698 ], [ 8.530156136041569, 8.884634017892608 ] ] ] ] } },
{ "type": "Feature", "properties": { "fid": 490.0, "OBJECTID": 490.0, "lganame": "Lafia", "statecode": "NA", "LGA_UID": "25_08" }, "geometry": { "type": "MultiPolygon", "coordinates": [ [ [ [ 9.060153961150206, 9.020597458273414 ], [ 9.062741279908153, 9.018228530663805 ], [ 9.066963195776736, 9.00792694066439 ], [ 9.069081306215878, 8.997752189751111 ], [ 9.069753646672723, 8.995417595164838 ], [ 9.069836616729106, 8.991868972753764 ], [ 9.070737839341405, 8.9878406520167 ], [ 9.068367957731198, 8.97986984260092 ], [ 9.067069053848684, 8.966298103379529 ], [ 9.069081306215878, 8.964458466129599 ], [ 9.071182250643403, 8.960689544568766 ], [ 9.073461533192074, 8.953068733390808 ], [ 9.071894646127419, 8.945277214096848 ], [ 9.06822776763596, 8.941252708362356 ], [ 9.062547683776586, 8.939070701879814 ], [ 9.053290367486682, 8.930936813353185 ], [ 9.0459556575031, 8.922889708885577 ], [ 9.044300079378218, 8.917024611900501 ], [ 9.044477463498765, 8.913171768282666 ], [ 9.04081058500725, 8.909148215548896 ], [ 9.039065360821496, 8.905209540872704 ], [ 9.031820296898786, 8.895235062095537 ], [ 9.028508185648377, 8.883504868125442 ], [ 9.02676391646321, 8.879566193449307 ], [ 9.025197029398612, 8.871774673155301 ], [ 9.023541451273729, 8.865909576170225 ], [ 9.018040656536186, 8.859873772069193 ], [ 9.016206741290091, 8.857862472702607 ], [ 9.010616302491655, 8.853753089910469 ], [ 9.003014565326623, 8.851485252369628 ], [ 8.999079703653081, 8.85324096656251 ], [ 8.989554405181082, 8.850887298963301 ], [ 8.985619544507529, 8.852643013156239 ], [ 8.973994254608726, 8.85405731211722 ], [ 8.96639156344304, 8.851789473576332 ], [ 8.958789825278018, 8.849521637035423 ], [ 8.957044601092207, 8.845582962359288 ], [ 8.95530033090705, 8.841644286683106 ], [ 8.949798584168889, 8.83560752858142 ], [ 8.950065613350318, 8.829829215655366 ], [ 8.951099396052712, 8.827142714830018 ], [ 8.950968741963948, 8.824192046825146 ], [ 8.950596808711225, 8.815776825107378 ], [ 8.949033736649199, 8.810478209507266 ], [ 8.945146561008073, 8.799559593088532 ], [ 8.938326836374358, 8.793672562088602 ], [ 8.932709693557797, 8.785508155541265 ], [ 8.929040909065009, 8.784493445851808 ], [ 8.923966407617115, 8.782485008487185 ], [ 8.919151306345498, 8.783295631037959 ], [ 8.915580749919457, 8.783896446446192 ], [ 8.907889365693563, 8.783555031214235 ], [ 8.903882979971399, 8.779159546227675 ], [ 8.900554656709971, 8.775506972745916 ], [ 8.901088715072831, 8.763946532891168 ], [ 8.90468978851959, 8.758125304935902 ], [ 8.904410362329713, 8.755034446835793 ], [ 8.899371146905821, 8.750970840074785 ], [ 8.896033286637874, 8.74827957224619 ], [ 8.891933440852256, 8.740353583860838 ], [ 8.892136573990285, 8.732930182817029 ], [ 8.896886826217838, 8.727269172970637 ], [ 8.902836800260559, 8.719330787576837 ], [ 8.907656669535413, 8.710219383386061 ], [ 8.910737990629059, 8.70299339347639 ], [ 8.911806107354778, 8.69877147660776 ], [ 8.913947104809495, 8.686176300049965 ], [ 8.91982650780426, 8.681688309000549 ], [ 8.9257068627997, 8.6772003169512 ], [ 8.929218292185567, 8.673177719218018 ], [ 8.932219505224737, 8.671403885012751 ], [ 8.934799193977483, 8.667881011619158 ], [ 8.94024372067679, 8.667230606177213 ], [ 8.940459250823267, 8.662574768013826 ], [ 8.941023827206834, 8.659605025996029 ], [ 8.941788672726545, 8.655583382263501 ], [ 8.942276001057621, 8.652189254957364 ], [ 8.944498061567458, 8.646667480205565 ], [ 8.947323799487378, 8.639648437436449 ], [ 8.949756622140399, 8.633942603559603 ], [ 8.951176643105214, 8.621312140977807 ], [ 8.958310126952085, 8.612245559817495 ], [ 8.964166640931296, 8.608907699549547 ], [ 8.970023154910564, 8.605570793282311 ], [ 8.977794647190876, 8.605191231024378 ], [ 8.980529785049271, 8.601173401294488 ], [ 8.983431816021096, 8.59658050517379 ], [ 8.98318004585002, 8.585113525382553 ], [ 8.98102188138364, 8.578203200687312 ], [ 8.982412338328402, 8.574304581038348 ], [ 8.98322200787851, 8.572034836496186 ], [ 8.986305236973465, 8.566468238713924 ], [ 8.987382888705667, 8.564522743392047 ], [ 8.986068725812743, 8.561980246664575 ], [ 8.98409462047141, 8.558160782069422 ], [ 8.984020233420893, 8.553231238720002 ], [ 8.978455543639939, 8.549236298005667 ], [ 8.974966049269028, 8.54135894765335 ], [ 8.975144386390184, 8.537506104035515 ], [ 8.979003906012508, 8.530584335332492 ], [ 8.982460022360783, 8.527254105069801 ], [ 8.98825740829983, 8.522885323101377 ], [ 8.98572635658013, 8.518421173068191 ], [ 8.983579636121533, 8.510323523566228 ], [ 8.981432914662946, 8.502226830064899 ], [ 8.97810649940277, 8.495257378329484 ], [ 8.976010322978539, 8.484859467264585 ], [ 8.975092888355164, 8.473334312433792 ], [ 8.97644043027077, 8.46415424319639 ], [ 8.980103492759667, 8.455019950990049 ], [ 8.983693123198634, 8.449336052128103 ], [ 8.989573479194064, 8.444848061078744 ], [ 8.993069648569531, 8.443765640343315 ], [ 8.997793197778947, 8.439255714279 ], [ 9.001359940202406, 8.434721947198511 ], [ 8.998080253974024, 8.425452231900181 ], [ 9.002853394217141, 8.418641090272331 ], [ 9.005286216870104, 8.412935257395475 ], [ 9.007742881539343, 8.406078338736563 ], [ 9.00857639310567, 8.40040397588109 ], [ 9.000871657870618, 8.400875092201147 ], [ 8.995113372958144, 8.401227951440944 ], [ 8.988110542200047, 8.401656150731867 ], [ 8.981437682666183, 8.402064323009199 ], [ 8.977712631135148, 8.403197288778983 ], [ 8.972396850523353, 8.404812812876685 ], [ 8.96958160361055, 8.405686378470193 ], [ 8.967555046233599, 8.405812262555742 ], [ 8.963749885648156, 8.406049727717118 ], [ 8.959852218999856, 8.406291961881664 ], [ 8.955657005149419, 8.406209945825935 ], [ 8.952186583791445, 8.406142234779963 ], [ 8.947560309648111, 8.40605163571837 ], [ 8.945145607007419, 8.406004905686643 ], [ 8.941824912751144, 8.405554771380821 ], [ 8.935997008791389, 8.404794692864357 ], [ 8.933865547343146, 8.404516219675145 ], [ 8.930297851919079, 8.404070854372549 ], [ 8.927387237941446, 8.403707504125691 ], [ 8.922094345345158, 8.403045653675974 ], [ 8.914247513013606, 8.405497551341909 ], [ 8.911346436042436, 8.405838965573878 ], [ 8.909307479657116, 8.406078338736563 ], [ 8.905910492348994, 8.40647792800803 ], [ 8.90135002125038, 8.407048225395556 ], [ 8.894140244351661, 8.407949448007855 ], [ 8.885287285336517, 8.403330802869732 ], [ 8.882860183687399, 8.402064323009199 ], [ 8.878116608464381, 8.402977942629946 ], [ 8.874753952179617, 8.402843474538599 ], [ 8.871514319978417, 8.402959823617664 ], [ 8.866620063652988, 8.402169228080481 ], [ 8.863226891347495, 8.401620864707866 ], [ 8.856866837026132, 8.400592804009364 ], [ 8.847548484694755, 8.401083946343078 ], [ 8.841185570371465, 8.402955054614438 ], [ 8.839210510029488, 8.403535843009024 ], [ 8.836483002176294, 8.40367221810169 ], [ 8.8330249788267, 8.403844833218955 ], [ 8.829401970365041, 8.404026031342084 ], [ 8.82547855369927, 8.406969070341745 ], [ 8.818922997245068, 8.410295485601864 ], [ 8.813735961720738, 8.412927628390321 ], [ 8.809048652535921, 8.415306091006357 ], [ 8.803518294778314, 8.418992995511417 ], [ 8.80169200853743, 8.420210838338903 ], [ 8.795881270589291, 8.423183441358674 ], [ 8.78528404238898, 8.428605080042416 ], [ 8.780603409208709, 8.430999755669461 ], [ 8.775613784818518, 8.437211036889721 ], [ 8.770794867544282, 8.439337730334728 ], [ 8.763623237671482, 8.445912360801856 ], [ 8.760585784607713, 8.448696135693353 ], [ 8.759024619546949, 8.45012760166594 ], [ 8.753034592476979, 8.45491981492205 ], [ 8.749216079882501, 8.457974433997492 ], [ 8.739312172153291, 8.460886954976388 ], [ 8.732541083552633, 8.462878227329384 ], [ 8.728585242864824, 8.46807002985696 ], [ 8.72469425222107, 8.473177910327536 ], [ 8.719227790506864, 8.476342201477507 ], [ 8.715375899889693, 8.478572844993153 ], [ 8.711226463070318, 8.480101585031832 ], [ 8.706057548558306, 8.482006073325863 ], [ 8.70299339347639, 8.481449126947439 ], [ 8.7006626128927, 8.481024741659098 ], [ 8.697184562529515, 8.4804306032554 ], [ 8.693632126115801, 8.479824065843275 ], [ 8.685570716638495, 8.478447913908269 ], [ 8.6805543902301, 8.477591515326367 ], [ 8.676386833398453, 8.477847099500025 ], [ 8.672850608995759, 8.477467537242148 ], [ 8.664860724567006, 8.476611136660267 ], [ 8.657504081568504, 8.478572844993153 ], [ 8.65091705309294, 8.478751183114298 ], [ 8.647451400738191, 8.478844643177808 ], [ 8.645230293229076, 8.478904724218637 ], [ 8.64167308781208, 8.479001045284065 ], [ 8.63935756723879, 8.479063034326202 ], [ 8.636190414086855, 8.479063034326202 ], [ 8.632982253907073, 8.479063034326202 ], [ 8.62872409801389, 8.477572441313441 ], [ 8.623173714242625, 8.475629806993481 ], [ 8.617844581621739, 8.470581054563127 ], [ 8.613855361911249, 8.466801642995165 ], [ 8.611287117166285, 8.457995415011737 ], [ 8.610422133578538, 8.455031394997832 ], [ 8.609047889644785, 8.44678783439673 ], [ 8.6078586578368, 8.439653396549204 ], [ 8.607479094578878, 8.437376022001843 ], [ 8.603830338099726, 8.433105469100212 ], [ 8.601137161269833, 8.430206299130361 ], [ 8.599142074914255, 8.428057670670455 ], [ 8.59715843156647, 8.424820900471218 ], [ 8.592820167618811, 8.417742728661949 ], [ 8.589823722582878, 8.412854195340401 ], [ 8.581707954068634, 8.409303664928018 ], [ 8.576981543857244, 8.40723514552252 ], [ 8.57268619493874, 8.405356407246018 ], [ 8.566282271587568, 8.402554512342249 ], [ 8.558756828474372, 8.402554512342249 ], [ 8.555003165923949, 8.402554512342249 ], [ 8.549508095190333, 8.401675223744803 ], [ 8.544981003114344, 8.400951385252995 ], [ 8.542741775592901, 8.400592804009364 ], [ 8.535614966750586, 8.398221016397883 ], [ 8.531018256627362, 8.397133826659172 ], [ 8.524091720921092, 8.395895957818084 ], [ 8.520181656264356, 8.395197868343757 ], [ 8.51722717325697, 8.395339012439649 ], [ 8.509882927266858, 8.395689010677472 ], [ 8.502035140934652, 8.397160529677308 ], [ 8.496824265394139, 8.408722877533364 ], [ 8.495528220513506, 8.411314964294604 ], [ 8.491829872000665, 8.418712616320931 ], [ 8.489776610605588, 8.422818184110497 ], [ 8.487692833189726, 8.425848007169122 ], [ 8.480085373020813, 8.436913489687583 ], [ 8.478046416635436, 8.439389229369738 ], [ 8.473793982746145, 8.444554328879178 ], [ 8.469102858558756, 8.450250625749504 ], [ 8.467752456641222, 8.451889991863425 ], [ 8.454977988961559, 8.460700034849424 ], [ 8.44908332795643, 8.463820456969586 ], [ 8.443136214915626, 8.466969490109193 ], [ 8.440001487785707, 8.468628883236704 ], [ 8.434254645881026, 8.471240997011478 ], [ 8.430311203201654, 8.47303390522967 ], [ 8.419477462840632, 8.478670120059235 ], [ 8.413902283052551, 8.48157024402974 ], [ 8.399477005251242, 8.48272418981378 ], [ 8.392661094620166, 8.483071327049629 ], [ 8.382286071570832, 8.483600616409262 ], [ 8.369536399907986, 8.484502792022283 ], [ 8.363357543709753, 8.484486580011264 ], [ 8.331642151160622, 8.49065303820106 ], [ 8.326581000721831, 8.494116782554499 ], [ 8.320484160579326, 8.498288155388764 ], [ 8.318551064265876, 8.499610901287497 ], [ 8.314904212788008, 8.502105712982598 ], [ 8.304332732605189, 8.502986907581374 ], [ 8.288475036830619, 8.50034332278517 ], [ 8.277809142583635, 8.503711700073836 ], [ 8.271736145457339, 8.505629539376912 ], [ 8.269063949641691, 8.507077217360518 ], [ 8.255469322404792, 8.514440536363566 ], [ 8.250593185091702, 8.517082214158449 ], [ 8.24651241331901, 8.520535468504761 ], [ 8.239140511310154, 8.526772498742559 ], [ 8.237313271068615, 8.528599738984042 ], [ 8.226924896010189, 8.538988113042478 ], [ 8.221521378338764, 8.544391631713893 ], [ 8.216480254913563, 8.546779633336428 ], [ 8.204782485965438, 8.552320480101173 ], [ 8.200926781345686, 8.551970481863407 ], [ 8.190317154136949, 8.551006317208305 ], [ 8.185401916797275, 8.5505590439044 ], [ 8.179935455083069, 8.545933722761674 ], [ 8.174082756106429, 8.540981293396783 ], [ 8.17446327236496, 8.544465064763813 ], [ 8.175022124744714, 8.548382759425692 ], [ 8.175710678212511, 8.553201674699949 ], [ 8.175799370272784, 8.555518150273883 ], [ 8.176285743603273, 8.568142890851789 ], [ 8.176591872811287, 8.576107025263013 ], [ 8.180115700205533, 8.591083527438855 ], [ 8.180491447460838, 8.593461990054948 ], [ 8.181964874461983, 8.602794647396024 ], [ 8.182758331001082, 8.607821464811536 ], [ 8.186799048746536, 8.619943619047945 ], [ 8.188925743191533, 8.626321793381635 ], [ 8.189687728709259, 8.628185271647737 ], [ 8.194380759897967, 8.639656067441649 ], [ 8.196854590578823, 8.645703315550463 ], [ 8.199422836323834, 8.649556160168288 ], [ 8.205663680564214, 8.658918380529485 ], [ 8.206682205256243, 8.661770821467542 ], [ 8.21006870255718, 8.671251296909077 ], [ 8.21369743302273, 8.68058204724889 ], [ 8.216235160747033, 8.687108993683637 ], [ 8.224066734068231, 8.692143440104303 ], [ 8.228569031127279, 8.695037842070917 ], [ 8.232393264725715, 8.695037842070917 ], [ 8.239140511310154, 8.695037842070917 ], [ 8.243448257237048, 8.695334435272457 ], [ 8.246321678189418, 8.69553279940726 ], [ 8.25191497798977, 8.695919036669693 ], [ 8.252355576289119, 8.687108993683637 ], [ 8.242664336704422, 8.673013687106561 ], [ 8.242664336704422, 8.656274795733282 ], [ 8.252355576289119, 8.652750969339024 ], [ 8.256760597282153, 8.644822120951744 ], [ 8.251474379690421, 8.632489203572106 ], [ 8.250752449199922, 8.623824119684571 ], [ 8.248831748894872, 8.604297638417222 ], [ 8.249407768286233, 8.595650672542035 ], [ 8.249711990492926, 8.591083527438855 ], [ 8.248800277873499, 8.585612296721422 ], [ 8.247950554296153, 8.580512047256036 ], [ 8.24662780839742, 8.576280594380989 ], [ 8.243545532303131, 8.566415786678306 ], [ 8.248831748894872, 8.563773154882767 ], [ 8.2585325244861, 8.559296607841134 ], [ 8.267332077464971, 8.55848789229168 ], [ 8.26959991500587, 8.559621811062129 ], [ 8.2779035566478, 8.563773154882767 ], [ 8.282327651653759, 8.567754744588058 ], [ 8.286712645633145, 8.571702003270047 ], [ 8.291892052152321, 8.581542014955858 ], [ 8.29552268961919, 8.588440894643327 ], [ 8.302820205577461, 8.598576545530022 ], [ 8.311380386393751, 8.610465049607683 ], [ 8.316022872548103, 8.612122535733874 ], [ 8.319465636887287, 8.613351821569154 ], [ 8.326352118566319, 8.615811348240243 ], [ 8.331860542309016, 8.61777877757703 ], [ 8.336047173153645, 8.619274138593084 ], [ 8.344266890738538, 8.61824703189518 ], [ 8.346964835571669, 8.617909430665804 ], [ 8.357191085519958, 8.616631507797536 ], [ 8.360284804621983, 8.615452765996622 ], [ 8.373452186568613, 8.610437392588892 ], [ 8.375691414090056, 8.609583855008964 ], [ 8.379706382818028, 8.60931587182688 ], [ 8.386735915594272, 8.608847617508729 ], [ 8.388905525068424, 8.608702660410245 ], [ 8.392370224422507, 8.608702660410245 ], [ 8.400358199849961, 8.608702660410245 ], [ 8.404175758443841, 8.610611915707466 ], [ 8.40916824283596, 8.613107681403221 ], [ 8.423432349527786, 8.615246772856665 ], [ 8.426787375807351, 8.615750313198816 ], [ 8.431628227096496, 8.616719245857155 ], [ 8.435596465792742, 8.617512703396244 ], [ 8.448950767866336, 8.62460517921528 ], [ 8.454380988555897, 8.628953934170056 ], [ 8.460879325971234, 8.636263847136775 ], [ 8.463788032947548, 8.639536858360657 ], [ 8.465697289244815, 8.64076423619457 ], [ 8.469197272622864, 8.643013953723141 ], [ 8.474040030913329, 8.646127700838804 ], [ 8.476121902327861, 8.647465705747891 ], [ 8.479956626933358, 8.648859977695224 ], [ 8.485812186911915, 8.650989532142205 ], [ 8.492261887294205, 8.651662826599647 ], [ 8.499171256988802, 8.652384758090193 ], [ 8.503429412882042, 8.652829170392124 ], [ 8.50838756625086, 8.652807236377214 ], [ 8.51419639619769, 8.652781487359732 ], [ 8.521050452854695, 8.652750969339024 ], [ 8.535021782347542, 8.652750969339024 ], [ 8.540431976023513, 8.652750969339024 ], [ 8.548965453821609, 8.656814575100043 ], [ 8.552252769055201, 8.658380508163987 ], [ 8.558932303593622, 8.661561012325024 ], [ 8.576488494522209, 8.663086891361786 ], [ 8.579195023361194, 8.663322448521797 ], [ 8.584590912027465, 8.662512778971688 ], [ 8.592844962635695, 8.661274910130601 ], [ 8.596814156332584, 8.660679816726258 ], [ 8.624124526888693, 8.662442206923743 ], [ 8.626203537301251, 8.662564278006698 ], [ 8.639101028064488, 8.663322448521797 ], [ 8.642668724488601, 8.66538810692532 ], [ 8.645741462576382, 8.667167664134467 ], [ 8.655838966437159, 8.673013687106561 ], [ 8.65786552381411, 8.674672127233407 ], [ 8.661743164448751, 8.677844048388579 ], [ 8.665530205021867, 8.680942535493841 ], [ 8.670436859355732, 8.685148239351406 ], [ 8.677863121401515, 8.69151401467667 ], [ 8.694602012774794, 8.713538169641026 ], [ 8.699656487209097, 8.721481323038063 ], [ 8.704634665591527, 8.729304314353385 ], [ 8.706546782890712, 8.733104705935602 ], [ 8.711339951147465, 8.752301215978719 ], [ 8.713102341344893, 8.768157958752624 ], [ 8.711515427266704, 8.774188041849754 ], [ 8.708697319351927, 8.784896851125893 ], [ 8.70596504249545, 8.786998748554026 ], [ 8.700818061998348, 8.790957451243798 ], [ 8.697244643570343, 8.793705940111295 ], [ 8.694353103605692, 8.794670104766396 ], [ 8.681386947795772, 8.798992156703036 ], [ 8.673150063199216, 8.801239014229623 ], [ 8.667481422347635, 8.802784920280033 ], [ 8.663132668392848, 8.8039712910861 ], [ 8.652315140042845, 8.813968657878831 ], [ 8.649715424276508, 8.8145685202864 ], [ 8.640862465261307, 8.81661128967437 ], [ 8.640135764767535, 8.820510864323978 ], [ 8.639548302368382, 8.823658943462931 ], [ 8.639021873010734, 8.826942443693895 ], [ 8.642829894598094, 8.829319000308658 ], [ 8.644734382892125, 8.830507278116045 ], [ 8.651628493576311, 8.832942962770971 ], [ 8.659679413046547, 8.835401535441463 ], [ 8.666620254762506, 8.835537909534139 ], [ 8.674719810265799, 8.835696219641704 ], [ 8.684000014571268, 8.834727286983366 ], [ 8.692096710072576, 8.834885597090931 ], [ 8.699040412790509, 8.835021973183586 ], [ 8.708292961077177, 8.835202217306062 ], [ 8.712923050223083, 8.835292816367598 ], [ 8.72564697286839, 8.835541724536711 ], [ 8.732589721585668, 8.835678100629366 ], [ 8.744136810431371, 8.837054252564428 ], [ 8.753366469702485, 8.838385582469016 ], [ 8.766070366334191, 8.839784622419586 ], [ 8.769539832691521, 8.839853287466212 ], [ 8.776456833391308, 8.841138840339681 ], [ 8.785666465648831, 8.843620300025748 ], [ 8.791426658562614, 8.844883918884307 ], [ 8.799476624032195, 8.847343444555463 ], [ 8.806296348665853, 8.853230475555392 ], [ 8.814299583103661, 8.85798931078881 ], [ 8.820036888001937, 8.860403061428826 ], [ 8.824522972049976, 8.867395401179806 ], [ 8.830163001882113, 8.874410628946293 ], [ 8.834600448897163, 8.883703232260189 ], [ 8.837973595189055, 8.888372421432678 ], [ 8.846966743299504, 8.901206017152504 ], [ 8.851427078330062, 8.909347533684297 ], [ 8.858176230915831, 8.918686867029919 ], [ 8.86721706405865, 8.929220200186819 ], [ 8.873893737595097, 8.942008971876191 ], [ 8.87712287878918, 8.953579902738113 ], [ 8.886236190981208, 8.960662841550629 ], [ 8.897397040564499, 8.980443953990971 ], [ 8.902870178283251, 8.995510101227694 ], [ 8.905039786757413, 9.002457618948256 ], [ 8.909130095536568, 9.016470909469604 ], [ 8.907392502355947, 9.019323349407728 ], [ 8.916338921434601, 9.017520905183005 ], [ 8.924118995720789, 9.015935898106079 ], [ 8.929887771640438, 9.016190529279072 ], [ 8.943020820563731, 9.01558113086503 ], [ 8.951128006072167, 9.015204429609071 ], [ 8.954884528624575, 9.017301559033967 ], [ 8.96074199660444, 9.015630721898731 ], [ 8.963749885648156, 9.015764235989423 ], [ 8.966815947731391, 9.015042305498923 ], [ 8.969527244573612, 9.016020775163781 ], [ 8.974201201749338, 9.016228676304991 ], [ 8.977663040101504, 9.016536712514323 ], [ 8.983613014144225, 9.017694473300935 ], [ 8.989495277140918, 9.018838882078512 ], [ 8.992649078283762, 9.018939018146568 ], [ 8.995292664079955, 9.019022942203605 ], [ 8.998668671373821, 9.020369530118558 ], [ 9.000943183919219, 9.021277427735413 ], [ 9.004336357224759, 9.021059035587029 ], [ 9.008892059320146, 9.020766258388107 ], [ 9.012277602620429, 9.021788597082718 ], [ 9.016324997370475, 9.021977425211048 ], [ 9.020171164983765, 9.022130966315331 ], [ 9.023927688536105, 9.024228095740227 ], [ 9.027773857149441, 9.024398803856229 ], [ 9.039221763927742, 9.026837348513084 ], [ 9.044990539847333, 9.027093886687396 ], [ 9.049556731949849, 9.026164055055631 ], [ 9.052770615133568, 9.02550888061046 ], [ 9.056705474807075, 9.023753166417578 ], [ 9.060153961150206, 9.020597458273414 ] ] ] ] } },
{ "type": "Feature", "properties": { "fid": 521.0, "OBJECTID": 521.0, "lganame": "Wamba", "statecode": "NA", "LGA_UID": "25_13" }, "geometry": { "type": "MultiPolygon", "coordinates": [ [ [ [ 8.663496970640381, 9.193552970788517 ], [ 8.667521477374862, 9.189869881286029 ], [ 8.673289299293799, 9.190126419460341 ], [ 8.677312851027636, 9.186444282958519 ], [ 8.681159018640926, 9.186614990074531 ], [ 8.687015532620137, 9.184944152939238 ], [ 8.690773010173189, 9.187042236364789 ], [ 8.696332931950906, 9.187096596401716 ], [ 8.708078383931365, 9.187809943886407 ], [ 8.712013244604918, 9.186054229693525 ], [ 8.72171688119812, 9.184555053674899 ], [ 8.733431816157861, 9.181214333405023 ], [ 8.739396095210282, 9.180125236665049 ], [ 8.746224402849805, 9.178644179658704 ], [ 8.748991965730227, 9.178043365250517 ], [ 8.755027770831305, 9.172520638498042 ], [ 8.761064528932991, 9.166996955744992 ], [ 8.764998435605889, 9.165241240552064 ], [ 8.767553329341808, 9.157420158237983 ], [ 8.767710686448709, 9.149915695139043 ], [ 8.767901420578312, 9.144135475211669 ], [ 8.76752281232109, 9.1362857818782 ], [ 8.764768600449713, 9.128550528622441 ], [ 8.761279106078746, 9.120674133270768 ], [ 8.761457443199959, 9.116821288652943 ], [ 8.761635780321114, 9.112968445035165 ], [ 8.760068893256459, 9.105176925741148 ], [ 8.764093398990951, 9.101494789239325 ], [ 8.768506049989128, 9.097863196771812 ], [ 8.768846512220478, 9.095305443033965 ], [ 8.77415275582581, 9.092288016983787 ], [ 8.778176307559647, 9.088605881481953 ], [ 8.780188559926842, 9.086765289231323 ], [ 8.784123420600395, 9.085009575038384 ], [ 8.791902541885975, 9.083423614960793 ], [ 8.795664787442206, 9.075638770671389 ], [ 8.799438477006277, 9.071156501625865 ], [ 8.796550751044208, 9.066255569295947 ], [ 8.794805526858397, 9.06231784762042 ], [ 8.793061255673251, 9.058379172944285 ], [ 8.789483070242056, 9.052428245900899 ], [ 8.789750099423486, 9.04664897897419 ], [ 8.789928435544653, 9.042796135356355 ], [ 8.794041634339351, 9.037186622544937 ], [ 8.79815483113407, 9.03157806373423 ], [ 8.806030273485078, 9.032741546524733 ], [ 8.811725616354806, 9.030302047867224 ], [ 8.823241234179136, 9.030761719179509 ], [ 8.838712691691228, 9.029518127334597 ], [ 8.844481467610876, 9.029773711508255 ], [ 8.850249289529813, 9.030030250682557 ], [ 8.86196422648959, 9.026689529412693 ], [ 8.86581039410288, 9.026860236528648 ], [ 8.87551307669537, 9.025360106509368 ], [ 8.885354996382489, 9.021609305960908 ], [ 8.888392448446325, 9.022071838275167 ], [ 8.894920348881726, 9.022360802471496 ], [ 8.898164749086106, 9.021048545579902 ], [ 8.907392502355947, 9.019323349407728 ], [ 8.909130095536568, 9.016470909469604 ], [ 8.905039786757413, 9.002457618948256 ], [ 8.902870178283251, 8.995510101227694 ], [ 8.897397040564499, 8.980443953990971 ], [ 8.886236190981208, 8.960662841550629 ], [ 8.87712287878918, 8.953579902738113 ], [ 8.873893737595097, 8.942008971876191 ], [ 8.86721706405865, 8.929220200186819 ], [ 8.858176230915831, 8.918686867029919 ], [ 8.851427078330062, 8.909347533684297 ], [ 8.846966743299504, 8.901206017152504 ], [ 8.837973595189055, 8.888372421432678 ], [ 8.834600448897163, 8.883703232260189 ], [ 8.830163001882113, 8.874410628946293 ], [ 8.824522972049976, 8.867395401179806 ], [ 8.820036888001937, 8.860403061428826 ], [ 8.814299583103661, 8.85798931078881 ], [ 8.806296348665853, 8.853230475555392 ], [ 8.799476624032195, 8.847343444555463 ], [ 8.791426658562614, 8.844883918884307 ], [ 8.785666465648831, 8.843620300025748 ], [ 8.776456833391308, 8.841138840339681 ], [ 8.769539832691521, 8.839853287466212 ], [ 8.766070366334191, 8.839784622419586 ], [ 8.753366469702485, 8.838385582469016 ], [ 8.744136810431371, 8.837054252564428 ], [ 8.732589721585668, 8.835678100629366 ], [ 8.72564697286839, 8.835541724536711 ], [ 8.712923050223083, 8.835292816367598 ], [ 8.708292961077177, 8.835202217306062 ], [ 8.699040412790509, 8.835021973183586 ], [ 8.692096710072576, 8.834885597090931 ], [ 8.684000014571268, 8.834727286983366 ], [ 8.674719810265799, 8.835696219641704 ], [ 8.666620254762506, 8.835537909534139 ], [ 8.659679413046547, 8.835401535441463 ], [ 8.651628493576311, 8.832942962770971 ], [ 8.644734382892125, 8.830507278116045 ], [ 8.642829894598094, 8.829319000308658 ], [ 8.639021873010734, 8.826942443693895 ], [ 8.639548302368382, 8.823658943462931 ], [ 8.636457443268284, 8.823658943462931 ], [ 8.632933616874027, 8.821897507266101 ], [ 8.620600700494379, 8.81661128967437 ], [ 8.602910042474434, 8.813309669431078 ], [ 8.60048580182729, 8.811631203290631 ], [ 8.592409134339562, 8.806039810491541 ], [ 8.579195023361194, 8.799873352301745 ], [ 8.570384979375206, 8.802515984097283 ], [ 8.557170868396838, 8.805158614892832 ], [ 8.552765846403815, 8.808682442287079 ], [ 8.543075561819705, 8.812206267681404 ], [ 8.533988952645814, 8.818140983713761 ], [ 8.530202866073296, 8.820613861393952 ], [ 8.52017021225663, 8.821897507266101 ], [ 8.509598732073755, 8.82454013806165 ], [ 8.50431251548207, 8.835992812843244 ], [ 8.500348090788407, 8.837755203040672 ], [ 8.506514548978203, 8.847445487624782 ], [ 8.513463973700027, 8.853699683874197 ], [ 8.515324592964248, 8.855374336012062 ], [ 8.519729613957225, 8.862421988800577 ], [ 8.525896072147077, 8.872993468983452 ], [ 8.531182288738819, 8.879159927173248 ], [ 8.530156136041569, 8.884634017892608 ], [ 8.528538703942615, 8.893256186750989 ], [ 8.524271011042913, 8.905349730967998 ], [ 8.523253441351528, 8.90823268892683 ], [ 8.520809173690736, 8.920042991951391 ], [ 8.519348144698029, 8.927104949749605 ], [ 8.517967223759797, 8.933780670285444 ], [ 8.517654418547238, 8.936203002931336 ], [ 8.515280723934438, 8.954599380430807 ], [ 8.514698981539141, 8.961095809844835 ], [ 8.509158133774406, 8.984876633002784 ], [ 8.508348465224287, 8.987790107982335 ], [ 8.504345893504706, 9.001431465251017 ], [ 8.508942603627986, 9.000640868713845 ], [ 8.514039040090779, 9.000653266722281 ], [ 8.517500190442433, 9.001214082103331 ], [ 8.521719933309555, 9.001897811567858 ], [ 8.533261299151377, 9.004377365252594 ], [ 8.537016400702782, 9.007324830255243 ], [ 8.54109191947191, 9.010523796428799 ], [ 8.547574042876192, 9.014216422937807 ], [ 8.554131509331683, 9.020359039111383 ], [ 8.557604106691201, 9.02592669089438 ], [ 8.562070747726068, 9.026682906408155 ], [ 8.562242068842465, 9.030166436775062 ], [ 8.564012388045285, 9.032679148482316 ], [ 8.568181203877828, 9.034106825452398 ], [ 8.571559452173176, 9.034215540526247 ], [ 8.576347514426459, 9.034392359646404 ], [ 8.57583355107721, 9.041987598806998 ], [ 8.569608880847852, 9.04398634716506 ], [ 8.567724346567388, 9.049468624889982 ], [ 8.566467991713751, 9.05072497974362 ], [ 8.564023018052524, 9.052246093777171 ], [ 8.56683349696209, 9.060831069610231 ], [ 8.570730208609746, 9.063291550282031 ], [ 8.573298588354817, 9.066846774697638 ], [ 8.579070887276828, 9.073486605209098 ], [ 8.579985619898366, 9.074343680791458 ], [ 8.586617470404406, 9.08293819363098 ], [ 8.593629503168756, 9.090564308812588 ], [ 8.593631555170134, 9.090566538814073 ], [ 8.594523429776132, 9.091536522473177 ], [ 8.604977608879267, 9.100140572319219 ], [ 8.610223771443771, 9.105054854658249 ], [ 8.616780280898581, 9.11119842483248 ], [ 8.620715141572134, 9.114884377336921 ], [ 8.623450279430529, 9.1210184095047 ], [ 8.623954654773229, 9.122149563273297 ], [ 8.623955617773902, 9.122151723274726 ], [ 8.624419310088967, 9.123191633981321 ], [ 8.624419848089303, 9.123192840982142 ], [ 8.62618541728898, 9.127152442672525 ], [ 8.628921510148018, 9.133287429840948 ], [ 8.630307198089497, 9.136966705340853 ], [ 8.635703086755768, 9.146783829011099 ], [ 8.641136169447293, 9.157826423514052 ], [ 8.645145416171374, 9.163964271684392 ], [ 8.64715132553431, 9.167613960164203 ], [ 8.647151623534512, 9.167614502164554 ], [ 8.649804975337304, 9.173118754904465 ], [ 8.653388022771821, 9.183591843020395 ], [ 8.654774665714001, 9.187271117520311 ], [ 8.656348228783145, 9.197079659184737 ], [ 8.657807349774544, 9.207689285393485 ], [ 8.661484718273186, 9.195393562039158 ], [ 8.663496970640381, 9.193552970788517 ] ] ] ] } },
{ "type": "Feature", "properties": { "fid": 534.0, "OBJECTID": 534.0, "lganame": "Obi", "statecode": "NA", "LGA_UID": "25_11" }, "geometry": { "type": "MultiPolygon", "coordinates": [ [ [ [ 9.00857639310567, 8.40040397588109 ], [ 9.008988380385574, 8.396784782422003 ], [ 9.009392737660335, 8.393236160010872 ], [ 9.009511947741316, 8.386543274463406 ], [ 9.009737967894864, 8.373896598870544 ], [ 9.009882926993384, 8.365772247350435 ], [ 9.010179520194924, 8.363595962871784 ], [ 9.011896133361233, 8.35100936931974 ], [ 9.012825965993045, 8.34419250468801 ], [ 9.013074875162147, 8.335975647105045 ], [ 9.013316154326105, 8.328008651691846 ], [ 9.013003349113546, 8.323318480505122 ], [ 9.012825965993045, 8.320652007693354 ], [ 9.011196135885655, 8.316227912687395 ], [ 9.009392737660335, 8.311333656361967 ], [ 9.007671356490732, 8.309877396372542 ], [ 9.003016472327943, 8.305938720696361 ], [ 9.000985145947766, 8.303230285856102 ], [ 8.998602867329112, 8.300053595697705 ], [ 8.994189262330281, 8.293678284365967 ], [ 8.988329887349096, 8.289283752380129 ], [ 8.986341475998074, 8.287792206366646 ], [ 8.98160743678153, 8.285338401699448 ], [ 8.973099709000905, 8.28092670370188 ], [ 8.964762688336293, 8.28092670370188 ], [ 8.959122657504167, 8.28141689303493 ], [ 8.954709052505336, 8.28141689303493 ], [ 8.944409369507184, 8.279945374035094 ], [ 8.929696082510191, 8.276021957369323 ], [ 8.915473937846912, 8.274550438369488 ], [ 8.890952110185481, 8.273079872370317 ], [ 8.88408565452005, 8.276021957369323 ], [ 8.869863509856771, 8.277493477369148 ], [ 8.858583450192498, 8.28435993203459 ], [ 8.848773955527406, 8.286321640367476 ], [ 8.827685356198685, 8.289754867700196 ], [ 8.808068274869811, 8.288283347700371 ], [ 8.800711631871309, 8.283868789700875 ], [ 8.787469863874151, 8.277983664702219 ], [ 8.767361641211551, 8.265723228371826 ], [ 8.744801520883016, 8.259346962039444 ], [ 8.727146148887016, 8.258366585373324 ], [ 8.693305968894208, 8.259838104373159 ], [ 8.661427498234275, 8.264741897705051 ], [ 8.64230060623845, 8.263270377705226 ], [ 8.6217021942428, 8.259838104373159 ], [ 8.594728469915424, 8.252481461374657 ], [ 8.588352202583053, 8.253461838040778 ], [ 8.570206642253993, 8.253461838040778 ], [ 8.550588607924453, 8.254443168707553 ], [ 8.53832817059407, 8.254933357040613 ], [ 8.529500007595743, 8.253461838040778 ], [ 8.51527690893181, 8.259346962039444 ], [ 8.508656502433553, 8.26081848103928 ], [ 8.508166313100503, 8.278964996368984 ], [ 8.510128021433388, 8.292206764366142 ], [ 8.508166313100503, 8.311823844695027 ], [ 8.508166313100503, 8.326537131692021 ], [ 8.506694794100667, 8.343212128021889 ], [ 8.506694794100667, 8.357434272685168 ], [ 8.504978179934312, 8.386860846679156 ], [ 8.502035140934652, 8.397160529677308 ], [ 8.509882927266858, 8.395689010677472 ], [ 8.51722717325697, 8.395339012439649 ], [ 8.520181656264356, 8.395197868343757 ], [ 8.524091720921092, 8.395895957818084 ], [ 8.531018256627362, 8.397133826659172 ], [ 8.535614966750586, 8.398221016397883 ], [ 8.542741775592901, 8.400592804009364 ], [ 8.544981003114344, 8.400951385252995 ], [ 8.549508095190333, 8.401675223744803 ], [ 8.555003165923949, 8.402554512342249 ], [ 8.558756828474372, 8.402554512342249 ], [ 8.566282271587568, 8.402554512342249 ], [ 8.57268619493874, 8.405356407246018 ], [ 8.576981543857244, 8.40723514552252 ], [ 8.581707954068634, 8.409303664928018 ], [ 8.589823722582878, 8.412854195340401 ], [ 8.592820167618811, 8.417742728661949 ], [ 8.59715843156647, 8.424820900471218 ], [ 8.599142074914255, 8.428057670670455 ], [ 8.601137161269833, 8.430206299130361 ], [ 8.603830338099726, 8.433105469100212 ], [ 8.607479094578878, 8.437376022001843 ], [ 8.6078586578368, 8.439653396549204 ], [ 8.609047889644785, 8.44678783439673 ], [ 8.610422133578538, 8.455031394997832 ], [ 8.611287117166285, 8.457995415011737 ], [ 8.613855361911249, 8.466801642995165 ], [ 8.617844581621739, 8.470581054563127 ], [ 8.623173714242625, 8.475629806993481 ], [ 8.62872409801389, 8.477572441313441 ], [ 8.632982253907073, 8.479063034326202 ], [ 8.636190414086855, 8.479063034326202 ], [ 8.63935756723879, 8.479063034326202 ], [ 8.64167308781208, 8.479001045284065 ], [ 8.645230293229076, 8.478904724218637 ], [ 8.647451400738191, 8.478844643177808 ], [ 8.65091705309294, 8.478751183114298 ], [ 8.657504081568504, 8.478572844993153 ], [ 8.664860724567006, 8.476611136660267 ], [ 8.672850608995759, 8.477467537242148 ], [ 8.676386833398453, 8.477847099500025 ], [ 8.6805543902301, 8.477591515326367 ], [ 8.685570716638495, 8.478447913908269 ], [ 8.693632126115801, 8.479824065843275 ], [ 8.697184562529515, 8.4804306032554 ], [ 8.7006626128927, 8.481024741659098 ], [ 8.70299339347639, 8.481449126947439 ], [ 8.706057548558306, 8.482006073325863 ], [ 8.711226463070318, 8.480101585031832 ], [ 8.715375899889693, 8.478572844993153 ], [ 8.719227790506864, 8.476342201477507 ], [ 8.72469425222107, 8.473177910327536 ], [ 8.728585242864824, 8.46807002985696 ], [ 8.732541083552633, 8.462878227329384 ], [ 8.739312172153291, 8.460886954976388 ], [ 8.749216079882501, 8.457974433997492 ], [ 8.753034592476979, 8.45491981492205 ], [ 8.759024619546949, 8.45012760166594 ], [ 8.760585784607713, 8.448696135693353 ], [ 8.763623237671482, 8.445912360801856 ], [ 8.770794867544282, 8.439337730334728 ], [ 8.775613784818518, 8.437211036889721 ], [ 8.780603409208709, 8.430999755669461 ], [ 8.78528404238898, 8.428605080042416 ], [ 8.795881270589291, 8.423183441358674 ], [ 8.80169200853743, 8.420210838338903 ], [ 8.803518294778314, 8.418992995511417 ], [ 8.809048652535921, 8.415306091006357 ], [ 8.813735961720738, 8.412927628390321 ], [ 8.818922997245068, 8.410295485601864 ], [ 8.82547855369927, 8.406969070341745 ], [ 8.829401970365041, 8.404026031342084 ], [ 8.8330249788267, 8.403844833218955 ], [ 8.836483002176294, 8.40367221810169 ], [ 8.839210510029488, 8.403535843009024 ], [ 8.841185570371465, 8.402955054614438 ], [ 8.847548484694755, 8.401083946343078 ], [ 8.856866837026132, 8.400592804009364 ], [ 8.863226891347495, 8.401620864707866 ], [ 8.866620063652988, 8.402169228080481 ], [ 8.871514319978417, 8.402959823617664 ], [ 8.874753952179617, 8.402843474538599 ], [ 8.878116608464381, 8.402977942629946 ], [ 8.882860183687399, 8.402064323009199 ], [ 8.885287285336517, 8.403330802869732 ], [ 8.894140244351661, 8.407949448007855 ], [ 8.90135002125038, 8.407048225395556 ], [ 8.905910492348994, 8.40647792800803 ], [ 8.909307479657116, 8.406078338736563 ], [ 8.911346436042436, 8.405838965573878 ], [ 8.914247513013606, 8.405497551341909 ], [ 8.922094345345158, 8.403045653675974 ], [ 8.927387237941446, 8.403707504125691 ], [ 8.930297851919079, 8.404070854372549 ], [ 8.933865547343146, 8.404516219675145 ], [ 8.935997008791389, 8.404794692864357 ], [ 8.941824912751144, 8.405554771380821 ], [ 8.945145607007419, 8.406004905686643 ], [ 8.947560309648111, 8.40605163571837 ], [ 8.952186583791445, 8.406142234779963 ], [ 8.955657005149419, 8.406209945825935 ], [ 8.959852218999856, 8.406291961881664 ], [ 8.963749885648156, 8.406049727717118 ], [ 8.967555046233599, 8.405812262555742 ], [ 8.96958160361055, 8.405686378470193 ], [ 8.972396850523353, 8.404812812876685 ], [ 8.977712631135148, 8.403197288778983 ], [ 8.981437682666183, 8.402064323009199 ], [ 8.988110542200047, 8.401656150731867 ], [ 8.995113372958144, 8.401227951440944 ], [ 9.000871657870618, 8.400875092201147 ], [ 9.00857639310567, 8.40040397588109 ] ] ] ] } },
{ "type": "Feature", "properties": { "fid": 541.0, "OBJECTID": 541.0, "lganame": "Keana", "statecode": "NA", "LGA_UID": "25_05" }, "geometry": { "type": "MultiPolygon", "coordinates": [ [ [ [ 8.959122657504167, 8.28141689303493 ], [ 8.96165847822715, 8.270812034829419 ], [ 8.961519241132521, 8.267131805328916 ], [ 8.960839271670523, 8.26032829270622 ], [ 8.959953308068521, 8.255546570457284 ], [ 8.952501297005256, 8.252481461374657 ], [ 8.945738792410452, 8.250147819789049 ], [ 8.942127227956576, 8.243443489233812 ], [ 8.944259644405463, 8.231074332829564 ], [ 8.947597503673364, 8.22256469704763 ], [ 8.955934525337966, 8.215208054049128 ], [ 8.960119247181296, 8.210586547909031 ], [ 8.961583138175968, 8.208106041223687 ], [ 8.965497970835884, 8.20147609671892 ], [ 8.97040271816843, 8.197061538719424 ], [ 8.97601604498243, 8.193319321176773 ], [ 8.982172966165763, 8.189214706387872 ], [ 8.987715720931817, 8.182087897545557 ], [ 8.989039420831205, 8.180386543389545 ], [ 8.991969108821763, 8.175783157261776 ], [ 8.995905876496636, 8.169597626058987 ], [ 9.000862121864145, 8.166166305727586 ], [ 9.006937980992404, 8.161959647869367 ], [ 9.008656502160079, 8.16076946306066 ], [ 9.010766028593423, 8.157675742958645 ], [ 9.014914513412123, 8.151591300824578 ], [ 9.020133971958501, 8.143936156623226 ], [ 9.023369789157073, 8.13919067439889 ], [ 9.030155181767441, 8.12590122236935 ], [ 9.035140038154395, 8.11613941173664 ], [ 9.039509773123427, 8.109897614495651 ], [ 9.042006492819837, 8.106330872072192 ], [ 9.043380736753591, 8.104427337778873 ], [ 9.048381805151564, 8.097502708073876 ], [ 9.052303313816026, 8.090373039229632 ], [ 9.05377674081717, 8.087694168409428 ], [ 9.056192398458506, 8.080205917321564 ], [ 9.057020187020953, 8.077641486579125 ], [ 9.050175667370411, 8.075201987921616 ], [ 9.025375365519778, 8.062576294343046 ], [ 8.97126769975614, 8.057616233972908 ], [ 8.910846709702923, 8.056263924054065 ], [ 8.841858863828918, 8.06708526640665 ], [ 8.81976509081727, 8.070241927551479 ], [ 8.780536652163335, 8.075201987921616 ], [ 8.696668625178972, 8.096394539320954 ], [ 8.63714981073872, 8.116233825800805 ], [ 8.588001251344622, 8.12885856637871 ], [ 8.560496329656303, 8.140131950038437 ], [ 8.524424553147242, 8.157265662680004 ], [ 8.51268005416739, 8.157776833027356 ], [ 8.516013145432055, 8.165183067059502 ], [ 8.519446372764776, 8.177444458390539 ], [ 8.520916938763946, 8.184801102389031 ], [ 8.516013145432055, 8.195099831386528 ], [ 8.515522957098995, 8.202946662718091 ], [ 8.509636879099673, 8.216188430715249 ], [ 8.507675170766788, 8.237277985044614 ], [ 8.508656502433553, 8.26081848103928 ], [ 8.51527690893181, 8.259346962039444 ], [ 8.529500007595743, 8.253461838040778 ], [ 8.53832817059407, 8.254933357040613 ], [ 8.550588607924453, 8.254443168707553 ], [ 8.570206642253993, 8.253461838040778 ], [ 8.588352202583053, 8.253461838040778 ], [ 8.594728469915424, 8.252481461374657 ], [ 8.6217021942428, 8.259838104373159 ], [ 8.64230060623845, 8.263270377705226 ], [ 8.661427498234275, 8.264741897705051 ], [ 8.693305968894208, 8.259838104373159 ], [ 8.727146148887016, 8.258366585373324 ], [ 8.744801520883016, 8.259346962039444 ], [ 8.767361641211551, 8.265723228371826 ], [ 8.787469863874151, 8.277983664702219 ], [ 8.800711631871309, 8.283868789700875 ], [ 8.808068274869811, 8.288283347700371 ], [ 8.827685356198685, 8.289754867700196 ], [ 8.848773955527406, 8.286321640367476 ], [ 8.858583450192498, 8.28435993203459 ], [ 8.869863509856771, 8.277493477369148 ], [ 8.88408565452005, 8.276021957369323 ], [ 8.890952110185481, 8.273079872370317 ], [ 8.915473937846912, 8.274550438369488 ], [ 8.929696082510191, 8.276021957369323 ], [ 8.944409369507184, 8.279945374035094 ], [ 8.954709052505336, 8.28141689303493 ], [ 8.959122657504167, 8.28141689303493 ] ] ] ] } },
{ "type": "Feature", "properties": { "fid": 600.0, "OBJECTID": 600.0, "lganame": "Awe", "statecode": "NA", "LGA_UID": "25_02" }, "geometry": { "type": "MultiPolygon", "coordinates": [ [ [ [ 8.997275352427096, 8.517252922274452 ], [ 9.005145072774212, 8.51374053988792 ], [ 9.010276794261017, 8.515272140928573 ], [ 9.013636588543818, 8.512063025748148 ], [ 9.019470214507464, 8.509875298261704 ], [ 9.026385307205942, 8.512754440217918 ], [ 9.03215408312559, 8.51301097939222 ], [ 9.036776543266342, 8.512515068055279 ], [ 9.040200232592554, 8.514883994664842 ], [ 9.043380736753591, 8.518355370023528 ], [ 9.049360274816365, 8.519665717913824 ], [ 9.054130554057565, 8.51607132047161 ], [ 9.059162140476303, 8.512280463895877 ], [ 9.059518813718626, 8.504572867658965 ], [ 9.059874534960329, 8.496867180423294 ], [ 9.063793181622884, 8.493480682122311 ], [ 9.066352844362029, 8.492520332469837 ], [ 9.069934844795853, 8.487661362168353 ], [ 9.075792312775718, 8.485990524033127 ], [ 9.080109595709075, 8.488046646430178 ], [ 9.083287238868138, 8.486323357259266 ], [ 9.088303566276522, 8.483602524410571 ], [ 9.095366478075448, 8.477988242595927 ], [ 9.101412773183597, 8.473614692624324 ], [ 9.102123259666371, 8.469862938075153 ], [ 9.103188515390116, 8.464233398250144 ], [ 9.100202560361311, 8.458116531094049 ], [ 9.098458290176154, 8.454178810418568 ], [ 9.096802711051282, 8.448313713433492 ], [ 9.097158432292986, 8.440607071197178 ], [ 9.101093291966549, 8.438851357004239 ], [ 9.111243247862944, 8.438022614441195 ], [ 9.118428229744836, 8.438163756537051 ], [ 9.121526717850088, 8.438224791578534 ], [ 9.124434470825747, 8.434096335773461 ], [ 9.127536773933628, 8.433738707530438 ], [ 9.128458976560239, 8.430414200271628 ], [ 9.132393837233792, 8.428657532078034 ], [ 9.136755943197613, 8.43544578569032 ], [ 9.138598442449506, 8.438313483638808 ], [ 9.145819664355997, 8.443388939087356 ], [ 9.148897171447004, 8.44676590038182 ], [ 9.152475356878256, 8.452715874424541 ], [ 9.156231880430596, 8.454813003849438 ], [ 9.158065795676691, 8.456825256216689 ], [ 9.174925804132272, 8.467226028283505 ], [ 9.17702674855974, 8.463459014724037 ], [ 9.182617187358176, 8.46756744351552 ], [ 9.184629439725427, 8.465726852264879 ], [ 9.202290534725307, 8.458788871550894 ], [ 9.211994171318452, 8.457288741531613 ], [ 9.215840339931788, 8.457459449647615 ], [ 9.233145713689964, 8.458228111169831 ], [ 9.24468231152855, 8.458740233517801 ], [ 9.25429725606142, 8.459166526807451 ], [ 9.261898994226442, 8.461435318349004 ], [ 9.263910293593028, 8.45959472709842 ], [ 9.273346901004743, 8.463871002003941 ], [ 9.28890800457782, 8.460703849851996 ], [ 9.290740966823194, 8.462716103219236 ], [ 9.29834365798888, 8.464983939760145 ], [ 9.304949760477427, 8.466616630869453 ], [ 9.307868958460858, 8.467337608359344 ], [ 9.311624527012611, 8.46943473778424 ], [ 9.321233748541601, 8.469747542996743 ], [ 9.328753470650952, 8.474056243924338 ], [ 9.336265563755035, 8.478251456774785 ], [ 9.343868255920711, 8.480519295315673 ], [ 9.351559639146672, 8.480860709547642 ], [ 9.355316161699022, 8.482957839972528 ], [ 9.366942405598536, 8.481543541011604 ], [ 9.372799872578412, 8.479872703876367 ], [ 9.380579947864589, 8.478287696799384 ], [ 9.388538361271969, 8.472849846104623 ], [ 9.39640808061904, 8.469338416718813 ], [ 9.408212661639709, 8.464071274139997 ], [ 9.416171074047099, 8.458632469444581 ], [ 9.426897049334855, 8.45340347289175 ], [ 9.436223029671453, 8.450134276670497 ], [ 9.442103385666883, 8.445646285621081 ], [ 9.451294141911546, 8.44130211466944 ], [ 9.456130028197322, 8.439016342116361 ], [ 9.463170051980683, 8.434550285081912 ], [ 9.470183371745918, 8.431235312829529 ], [ 9.484160423242656, 8.426905631887678 ], [ 9.488836288419691, 8.424695969386335 ], [ 9.49206658361453, 8.423599587641377 ], [ 9.501660347132997, 8.420343399428987 ], [ 9.51096344045402, 8.418224334989191 ], [ 9.520290374791273, 8.41495513876788 ], [ 9.527999878029505, 8.415335655026468 ], [ 9.532260894924661, 8.414120674200944 ], [ 9.539549827877124, 8.411066055125445 ], [ 9.541556358240484, 8.409868240311596 ], [ 9.545229911736499, 8.407674788821225 ], [ 9.549492835632975, 8.405279160193516 ], [ 9.553863524602605, 8.403589249045297 ], [ 9.557150840836186, 8.402318001181584 ], [ 9.559233665251384, 8.401512145634001 ], [ 9.569181442010461, 8.399789810463801 ], [ 9.573287963800624, 8.398659705695934 ], [ 9.580995560037593, 8.397718430056386 ], [ 9.588587761196095, 8.396791458426549 ], [ 9.594533920236245, 8.393193244981717 ], [ 9.598380088849524, 8.393363953097719 ], [ 9.601553987006071, 8.392717345658355 ], [ 9.605014844357527, 8.385843001987553 ], [ 9.610956837394838, 8.378671210114703 ], [ 9.615535434505773, 8.374386779203633 ], [ 9.616835972389424, 8.371847742478451 ], [ 9.614020348476345, 8.360402106701656 ], [ 9.611920357049542, 8.350004195636814 ], [ 9.612112999180397, 8.340802193384491 ], [ 9.612330437328126, 8.330449104350009 ], [ 9.613750458292998, 8.317818641768213 ], [ 9.617529868860913, 8.302932738653965 ], [ 9.615386963404887, 8.294836044152646 ], [ 9.609673499522899, 8.291272162731161 ], [ 9.600370407201865, 8.293391228170947 ], [ 9.592200278650637, 8.29668426540843 ], [ 9.584076881131182, 8.297676086082276 ], [ 9.566650391290693, 8.300786972196022 ], [ 9.561973572113004, 8.302996634697365 ], [ 9.546886443862036, 8.305003166060715 ], [ 9.543439864520224, 8.303785324233218 ], [ 9.535340309016988, 8.303627014125652 ], [ 9.524929999943652, 8.303422927987015 ], [ 9.518010139241937, 8.302137375113546 ], [ 9.512203217296417, 8.303174018817913 ], [ 9.504056930761408, 8.305315971273217 ], [ 9.498296737847625, 8.304052353414647 ], [ 9.492509841915705, 8.303939819338211 ], [ 9.483206748594682, 8.306058883778007 ], [ 9.475036621043444, 8.309351921015491 ], [ 9.466866493492262, 8.312644005252309 ], [ 9.452839850961766, 8.319273948757029 ], [ 9.44351291662457, 8.322544097978948 ], [ 9.431823729682321, 8.328068732732675 ], [ 9.420156478754961, 8.332443236704933 ], [ 9.40844345079654, 8.339118958240761 ], [ 9.401406288015096, 8.343584061274612 ], [ 9.389717102072836, 8.349109650028993 ], [ 9.382753372341313, 8.350123404717806 ], [ 9.376966476409393, 8.350010871641302 ], [ 9.367830276201801, 8.344078063610255 ], [ 9.363276482107665, 8.340537071204324 ], [ 9.359950065847556, 8.333567619468909 ], [ 9.356623649587391, 8.326597213732839 ], [ 9.354546547176085, 8.315049170886482 ], [ 9.350183487211609, 8.302306175228239 ], [ 9.346857070951444, 8.295336723492824 ], [ 9.342466353968177, 8.283742904615337 ], [ 9.335693359366246, 8.275555611052482 ], [ 9.330030440518556, 8.269691467068071 ], [ 9.325519562453621, 8.26384925809856 ], [ 9.32342338602939, 8.253451347033661 ], [ 9.325902938714137, 8.245444297593281 ], [ 9.329566956203678, 8.23631000538694 ], [ 9.336165427686979, 8.232561110839754 ], [ 9.341457367282601, 8.229338645650216 ], [ 9.346748351877579, 8.226116180460735 ], [ 9.353749274634424, 8.222970963323689 ], [ 9.358958244173664, 8.221475601307645 ], [ 9.364250182769297, 8.218253136118165 ], [ 9.371249198524765, 8.215107917981129 ], [ 9.374833106959898, 8.211809157739765 ], [ 9.380124091554876, 8.208586692550227 ], [ 9.382139205924034, 8.205823897673042 ], [ 9.384363174435123, 8.204757689948622 ], [ 9.3904695505841, 8.201828002958052 ], [ 9.39753341738367, 8.196212769142733 ], [ 9.405823708016555, 8.187169074997996 ], [ 9.411823273092978, 8.176929474040662 ], [ 9.406276703324295, 8.165313721148266 ], [ 9.400613785476651, 8.159449577163912 ], [ 9.39142990123662, 8.155817031695733 ], [ 9.386946678190498, 8.148825644945418 ], [ 9.391909598562563, 8.132811546064602 ], [ 9.392219542773148, 8.117857932904315 ], [ 9.392556190001869, 8.101754188962559 ], [ 9.395036696687271, 8.093748092522787 ], [ 9.398653030144374, 8.086914061879384 ], [ 9.403423309385573, 8.08010292125158 ], [ 9.414026259589775, 8.071104050137251 ], [ 9.415376662507299, 8.061924933900457 ], [ 9.40414333287481, 8.04559421480451 ], [ 9.396162987452499, 8.039684295789016 ], [ 9.387053490263042, 8.032602309977108 ], [ 9.379050254825245, 8.027843474743747 ], [ 9.368829726880847, 8.018436432352075 ], [ 9.359693526673254, 8.012503624321027 ], [ 9.351713181250943, 8.006593704305487 ], [ 9.34602642138708, 8.001879692102534 ], [ 9.339323043832451, 7.990242004195295 ], [ 9.335517883247007, 7.985507964978751 ], [ 9.319115639102449, 7.97653341288094 ], [ 9.3145856860246, 7.974054813196858 ], [ 9.305362700757996, 7.969007968767755 ], [ 9.281080246259194, 7.955854892830871 ], [ 9.250726699635379, 7.944725037268654 ], [ 9.220373154011611, 7.92651319489454 ], [ 9.209753989796354, 7.921768664670878 ], [ 9.186791420194368, 7.911508559699598 ], [ 9.179125785985946, 7.908083439372433 ], [ 9.175525664539805, 7.916484356080446 ], [ 9.163802146574255, 7.936775207867129 ], [ 9.145766258319725, 7.970141887538205 ], [ 9.132690430435332, 7.991333960937197 ], [ 9.114654541180755, 8.008017540272931 ], [ 9.098422050151555, 8.027856826752782 ], [ 9.093428611758725, 8.034061431968553 ], [ 9.083541870041188, 8.046343803313846 ], [ 9.067675591260752, 8.067520141702175 ], [ 9.062466620721523, 8.074473381426571 ], [ 9.057020187020953, 8.077641486579125 ], [ 9.056192398458506, 8.080205917321564 ], [ 9.05377674081717, 8.087694168409428 ], [ 9.052303313816026, 8.090373039229632 ], [ 9.048381805151564, 8.097502708073876 ], [ 9.043380736753591, 8.104427337778873 ], [ 9.042006492819837, 8.106330872072192 ], [ 9.039509773123427, 8.109897614495651 ], [ 9.035140038154395, 8.11613941173664 ], [ 9.030155181767441, 8.12590122236935 ], [ 9.023369789157073, 8.13919067439889 ], [ 9.020133971958501, 8.143936156623226 ], [ 9.014914513412123, 8.151591300824578 ], [ 9.010766028593423, 8.157675742958645 ], [ 9.008656502160079, 8.16076946306066 ], [ 9.006937980992404, 8.161959647869367 ], [ 9.000862121864145, 8.166166305727586 ], [ 8.995905876496636, 8.169597626058987 ], [ 8.991969108821763, 8.175783157261776 ], [ 8.989039420831205, 8.180386543389545 ], [ 8.987715720931817, 8.182087897545557 ], [ 8.982172966165763, 8.189214706387872 ], [ 8.97601604498243, 8.193319321176773 ], [ 8.97040271816843, 8.197061538719424 ], [ 8.965497970835884, 8.20147609671892 ], [ 8.961583138175968, 8.208106041223687 ], [ 8.960119247181296, 8.210586547909031 ], [ 8.955934525337966, 8.215208054049128 ], [ 8.947597503673364, 8.22256469704763 ], [ 8.944259644405463, 8.231074332829564 ], [ 8.942127227956576, 8.243443489233812 ], [ 8.945738792410452, 8.250147819789049 ], [ 8.952501297005256, 8.252481461374657 ], [ 8.959953308068521, 8.255546570457284 ], [ 8.960839271670523, 8.26032829270622 ], [ 8.961519241132521, 8.267131805328916 ], [ 8.96165847822715, 8.270812034829419 ], [ 8.959122657504167, 8.28141689303493 ], [ 8.964762688336293, 8.28092670370188 ], [ 8.973099709000905, 8.28092670370188 ], [ 8.98160743678153, 8.285338401699448 ], [ 8.986341475998074, 8.287792206366646 ], [ 8.988329887349096, 8.289283752380129 ], [ 8.994189262330281, 8.293678284365967 ], [ 8.998602867329112, 8.300053595697705 ], [ 9.000985145947766, 8.303230285856102 ], [ 9.003016472327943, 8.305938720696361 ], [ 9.007671356490732, 8.309877396372542 ], [ 9.009392737660335, 8.311333656361967 ], [ 9.011196135885655, 8.316227912687395 ], [ 9.012825965993045, 8.320652007693354 ], [ 9.013003349113546, 8.323318480505122 ], [ 9.013316154326105, 8.328008651691846 ], [ 9.013074875162147, 8.335975647105045 ], [ 9.012825965993045, 8.34419250468801 ], [ 9.011896133361233, 8.35100936931974 ], [ 9.010179520194924, 8.363595962871784 ], [ 9.009882926993384, 8.365772247350435 ], [ 9.009737967894864, 8.373896598870544 ], [ 9.009511947741316, 8.386543274463406 ], [ 9.009392737660335, 8.393236160010872 ], [ 9.008988380385574, 8.396784782422003 ], [ 9.00857639310567, 8.40040397588109 ], [ 9.007742881539343, 8.406078338736563 ], [ 9.005286216870104, 8.412935257395475 ], [ 9.002853394217141, 8.418641090272331 ], [ 8.998080253974024, 8.425452231900181 ], [ 9.001359940202406, 8.434721947198511 ], [ 8.997793197778947, 8.439255714279 ], [ 8.993069648569531, 8.443765640343315 ], [ 8.989573479194064, 8.444848061078744 ], [ 8.983693123198634, 8.449336052128103 ], [ 8.980103492759667, 8.455019950990049 ], [ 8.97644043027077, 8.46415424319639 ], [ 8.975092888355164, 8.473334312433792 ], [ 8.976010322978539, 8.484859467264585 ], [ 8.97810649940277, 8.495257378329484 ], [ 8.981432914662946, 8.502226830064899 ], [ 8.983579636121533, 8.510323523566228 ], [ 8.98572635658013, 8.518421173068191 ], [ 8.98825740829983, 8.522885323101377 ], [ 8.99061870590424, 8.521105765892287 ], [ 8.994738578703505, 8.519574164851633 ], [ 8.997275352427096, 8.517252922274452 ] ] ] ] } }
]
}
