{
"type": "FeatureCollection",
"name": "Rivers",
"crs": { "type": "name", "properties": { "name": "urn:ogc:def:crs:OGC:1.3:CRS84" } },
"features": [
{ "type": "Feature", "properties": { "fid": 16.0, "OBJECTID": 16.0, "lganame": "Ahoada West", "statecode": "RI", "LGA_UID": "32_03" }, "geometry": { "type": "MultiPolygon", "coordinates": [ [ [ [ 6.592765807675903, 5.174438952989476 ], [ 6.595860003778228, 5.160429001470334 ], [ 6.595314026407266, 5.151109219137993 ], [ 6.594264983694529, 5.137132167641255 ], [ 6.593705177314121, 5.126412868357988 ], [ 6.592195988288722, 5.112440108864178 ], [ 6.59159278887887, 5.09706020441422 ], [ 6.594188212642337, 5.07885694504597 ], [ 6.595406055469823, 5.06113195400269 ], [ 6.595260143370695, 5.045281887233273 ], [ 6.591908932093702, 5.031322001748208 ], [ 6.587197780892666, 5.019704818854905 ], [ 6.580181122125168, 5.007638930656697 ], [ 6.574122906008938, 4.999762058304725 ], [ 6.563899994062922, 4.989586830391147 ], [ 6.552803992523707, 4.984547137966899 ], [ 6.540300846028401, 4.976719855648639 ], [ 6.531015872719706, 4.968401908996952 ], [ 6.525857925215121, 4.958187103056503 ], [ 6.526670932767558, 4.946525097132678 ], [ 6.536756991620507, 4.941782950910635 ], [ 6.549643040375997, 4.941215037524785 ], [ 6.546145915999887, 4.934891224228011 ], [ 6.547800064123805, 4.932685851729559 ], [ 6.565442562111002, 4.926621436609082 ], [ 6.57040405348215, 4.918351649990143 ], [ 6.565993786485535, 4.913940906993275 ], [ 6.558826446615683, 4.915595055117194 ], [ 6.563237189612607, 4.907876491872798 ], [ 6.556588173094895, 4.895472050444539 ], [ 6.543207169003153, 4.892314911299422 ], [ 6.530840873600823, 4.899405956117448 ], [ 6.522648811034685, 4.909727097130201 ], [ 6.510325908661855, 4.921480179115861 ], [ 6.503480911011025, 4.928061007587189 ], [ 6.495718955737118, 4.935114861379986 ], [ 6.488412856772982, 4.941699981854242 ], [ 6.480195045189362, 4.949223994966474 ], [ 6.469184874708446, 4.95350694687653 ], [ 6.454968929049414, 4.959681034071536 ], [ 6.440402031151848, 4.954815864765862 ], [ 6.437415123122378, 4.966485976695196 ], [ 6.430675982543448, 4.973575114511902 ], [ 6.421666145421739, 4.981634139987648 ], [ 6.410391807761357, 4.991127014437609 ], [ 6.411561011555762, 5.004581927579579 ], [ 6.417273998437452, 5.016098022404208 ], [ 6.425769806209985, 5.029424191458759 ], [ 6.429607867817765, 5.038650035727244 ], [ 6.439036846224269, 5.052887917401222 ], [ 6.443903922531263, 5.068137168762405 ], [ 6.451053143388776, 5.082880019779452 ], [ 6.460498809806666, 5.098048210085551 ], [ 6.464336872414492, 5.107274055354083 ], [ 6.472980976287715, 5.128497123774139 ], [ 6.479144096475295, 5.139541149278045 ], [ 6.485816002008505, 5.153363227669502 ], [ 6.493334770117201, 5.163454055525733 ], [ 6.511361122365258, 5.171964169307955 ], [ 6.52629852251448, 5.174164771803134 ], [ 6.534568310133409, 5.186845303418977 ], [ 6.544492244876267, 5.186294079044444 ], [ 6.553380965915721, 5.189809799433192 ], [ 6.563921928077832, 5.191916942864907 ], [ 6.571222782038433, 5.184866905074728 ], [ 6.579926967952531, 5.180136203860457 ], [ 6.592765807675903, 5.174438952989476 ] ] ] ] } },
{ "type": "Feature", "properties": { "fid": 49.0, "OBJECTID": 49.0, "lganame": "Andoni", "statecode": "RI", "LGA_UID": "32_05" }, "geometry": { "type": "MultiPolygon", "coordinates": [ [ [ [ 7.497570187447934, 4.5491213191155 ], [ 7.500806253646715, 4.54131668681265 ], [ 7.515654090735097, 4.531418129087001 ], [ 7.528322910342979, 4.540373534171806 ], [ 7.537989297910826, 4.519473234971031 ], [ 7.555882845068652, 4.503863971365263 ], [ 7.590527796608285, 4.491681131087603 ], [ 7.584055663210734, 4.479498289809953 ], [ 7.582152094917376, 4.469980446343016 ], [ 7.586720660021513, 4.449421903374457 ], [ 7.518572895718307, 4.451325471667815 ], [ 7.487354367506782, 4.448660475857082 ], [ 7.447379423345694, 4.43990405890753 ], [ 7.418445176686191, 4.431528356216631 ], [ 7.390653072802763, 4.436477634579433 ], [ 7.359166146408882, 4.432777405065281 ], [ 7.353888511823016, 4.433054924253838 ], [ 7.343054771461993, 4.436388014518514 ], [ 7.330500298931781, 4.443711197494281 ], [ 7.329358157155752, 4.454561538866585 ], [ 7.337353145587997, 4.471693657507046 ], [ 7.34649027579627, 4.488254706759506 ], [ 7.361433291949311, 4.515475741254932 ], [ 7.350963662835682, 4.532131967572013 ], [ 7.352391339805763, 4.540698027392295 ], [ 7.368095782476189, 4.538318565775569 ], [ 7.374282380679688, 4.530228399278656 ], [ 7.386179685763352, 4.509765034374766 ], [ 7.394269853260198, 4.517855201871669 ], [ 7.408546619960589, 4.52166233945843 ], [ 7.413781433517443, 4.536414998482144 ], [ 7.422347493337668, 4.542601595685653 ], [ 7.446364185655852, 4.541697401071303 ], [ 7.463115592037639, 4.549311676244827 ], [ 7.496047332413241, 4.559781305358456 ], [ 7.498712329223963, 4.558258450323763 ], [ 7.497570187447934, 4.5491213191155 ] ] ] ] } },
{ "type": "Feature", "properties": { "fid": 163.0, "OBJECTID": 163.0, "lganame": "Ikwerre", "statecode": "RI", "LGA_UID": "32_13" }, "geometry": { "type": "MultiPolygon", "coordinates": [ [ [ [ 6.971787930203618, 5.236238002979007 ], [ 6.973530769387764, 5.225501059683779 ], [ 6.972976208011005, 5.215249061717998 ], [ 6.966414927552933, 5.202713013200366 ], [ 6.963055134270064, 5.187821865082526 ], [ 6.963890075837412, 5.178491115742702 ], [ 6.963331223457658, 5.16777277046009 ], [ 6.965517043942839, 5.155168055895786 ], [ 6.967243195115657, 5.142567158334089 ], [ 6.970809936539126, 5.129950999762002 ], [ 6.972530841708362, 5.116884231883716 ], [ 6.97472095519646, 5.1047458646363 ], [ 6.976016998077057, 5.095410824293538 ], [ 6.979126930190091, 5.08326482804091 ], [ 6.980856895365548, 5.07113122879673 ], [ 6.98260021155005, 5.060393809501136 ], [ 6.98433017672545, 5.048258781255981 ], [ 6.987880230137591, 5.033779144417736 ], [ 6.993306159824215, 5.023013115102685 ], [ 7.001498222390353, 5.012691975089979 ], [ 7.005550861143945, 5.00287008341644 ], [ 7.010533809529591, 4.993971825370522 ], [ 7.017805099470138, 4.983657837362671 ], [ 7.026939868676777, 4.975659846928409 ], [ 7.035152912257161, 4.967669964499635 ], [ 7.035966872810206, 4.956007956575831 ], [ 7.039434910166563, 4.934809208172283 ], [ 7.025228023513648, 4.939775943546977 ], [ 7.015044211594216, 4.93379688348449 ], [ 7.006270884633182, 4.931068896630961 ], [ 6.992877006532638, 4.926513194535573 ], [ 6.980868816373629, 4.922411918748935 ], [ 6.976161957175577, 4.911261082172473 ], [ 6.985292912379634, 4.902797222421668 ], [ 6.994870185886896, 4.892930983718031 ], [ 6.984255790674922, 4.890217780874536 ], [ 6.975534915749506, 4.893084048822004 ], [ 6.963628768659817, 4.900172233638102 ], [ 6.953044891468608, 4.900722027011682 ], [ 6.941996097961464, 4.900808811070647 ], [ 6.931893826097451, 4.903687000026196 ], [ 6.919940947976045, 4.905645847357164 ], [ 6.910264969401624, 4.904789924775628 ], [ 6.89875602658185, 4.904881000837463 ], [ 6.888145924372793, 4.902635098311521 ], [ 6.875255107614123, 4.90273714138084 ], [ 6.861077784981262, 4.91310501142533 ], [ 6.854743957677726, 4.925277232695748 ], [ 6.851612090549793, 4.935091972364432 ], [ 6.848990916768798, 4.95049810383216 ], [ 6.847709178897958, 4.961229801123864 ], [ 6.847825049976677, 4.973816871676149 ], [ 6.849748135283278, 4.982658862683877 ], [ 6.84942102406103, 4.997114181505594 ], [ 6.844025135394816, 5.011143208037652 ], [ 6.841343879573003, 5.020021915070345 ], [ 6.836874007535926, 5.034510135914388 ], [ 6.830029010885085, 5.041090012385098 ], [ 6.82087182966319, 5.046758175236334 ], [ 6.810787200811205, 5.051498890457481 ], [ 6.802535057204238, 5.055294991036703 ], [ 6.793383120985936, 5.061428070203874 ], [ 6.783331871156577, 5.069899081959534 ], [ 6.776112080251039, 5.085806846768094 ], [ 6.77578878403142, 5.100728034906354 ], [ 6.781877041168059, 5.111867905475378 ], [ 6.792582035441626, 5.124371051970684 ], [ 6.80374622302719, 5.136869907463051 ], [ 6.812565804019641, 5.144724845800113 ], [ 6.823700904585451, 5.153961182075761 ], [ 6.829332829412067, 5.165572165964875 ], [ 6.832236767385155, 5.180932999401875 ], [ 6.832390785489793, 5.19771480580431 ], [ 6.832520007577614, 5.211699963306557 ], [ 6.831688881012894, 5.221497058963223 ], [ 6.834993839258459, 5.230329036964122 ], [ 6.843806267246066, 5.242591858296123 ], [ 6.848985194764907, 5.24979782119226 ], [ 6.866418838610286, 5.243133067663848 ], [ 6.875578879834109, 5.237932205130107 ], [ 6.881956100167088, 5.230422020027333 ], [ 6.887593745997606, 5.225611209758597 ], [ 6.891583442708452, 5.223822116542976 ], [ 6.894636630782941, 5.222761630822447 ], [ 6.897809981939076, 5.221659660073726 ], [ 6.903954983114318, 5.219525813623875 ], [ 6.91804265968625, 5.222954272953302 ], [ 6.921226500849514, 5.224175452783072 ], [ 6.923666953507677, 5.225111961419373 ], [ 6.926602839502493, 5.226238251184611 ], [ 6.928905010066671, 5.22647953034857 ], [ 6.93118095361308, 5.226303101228723 ], [ 6.934500216868344, 5.226929187654093 ], [ 6.938544749616426, 5.227691650172176 ], [ 6.941577910677324, 5.228263377560609 ], [ 6.944733619821477, 5.228858470964951 ], [ 6.947784900894703, 5.229434013356013 ], [ 6.951506615423398, 5.230127810827412 ], [ 6.954387665380921, 5.230665207192544 ], [ 6.956932068109722, 5.231139659514895 ], [ 6.959775925042038, 5.231669902875183 ], [ 6.963143349330039, 5.232950686745426 ], [ 6.965338706821683, 5.233785629312706 ], [ 6.967782974482418, 5.234714984944162 ], [ 6.971787930203618, 5.236238002979007 ] ] ] ] } },
{ "type": "Feature", "properties": { "fid": 214.0, "OBJECTID": 214.0, "lganame": "Ogba\/Egbema\/Ndoni", "statecode": "RI", "LGA_UID": "32_16" }, "geometry": { "type": "MultiPolygon", "coordinates": [ [ [ [ 6.668275832981408, 5.721829413915543 ], [ 6.67384147576297, 5.720951080318741 ], [ 6.668868065383776, 5.689925194238128 ], [ 6.658436298295896, 5.624850273022787 ], [ 6.639080048144251, 5.493445872739642 ], [ 6.645450115472386, 5.492535591121168 ], [ 6.652729511418386, 5.490715980884829 ], [ 6.712041854718336, 5.489194869851303 ], [ 6.715590477129467, 5.489103793789411 ], [ 6.719904423060598, 5.490441321698199 ], [ 6.722477912809154, 5.491322041296598 ], [ 6.726963042856596, 5.491978644742744 ], [ 6.729844092814119, 5.493106841509302 ], [ 6.733294964158858, 5.493944168078201 ], [ 6.738784789888939, 5.493746280943753 ], [ 6.741359710638449, 5.49405384115272 ], [ 6.744967937090109, 5.484471797642186 ], [ 6.749948978474492, 5.476490021218979 ], [ 6.751194000320424, 5.464835167300009 ], [ 6.743738174254531, 5.45888280925567 ], [ 6.744081974488097, 5.449101924610034 ], [ 6.74903488185339, 5.438793181605718 ], [ 6.753319262764421, 5.433492184003967 ], [ 6.754459857539416, 5.42940902722961 ], [ 6.758967875602366, 5.420503139178493 ], [ 6.762536049026778, 5.41021299418685 ], [ 6.760583877700356, 5.401392937194032 ], [ 6.758138180038657, 5.389788151309119 ], [ 6.758449078249896, 5.377213000764868 ], [ 6.759709835106491, 5.366953849794299 ], [ 6.760469912622966, 5.353443145614392 ], [ 6.757574080655388, 5.342773914365125 ], [ 6.755795002446575, 5.323452950237481 ], [ 6.763694762814112, 5.312908649073108 ], [ 6.765624046124913, 5.308510303084631 ], [ 6.770724772590654, 5.300767898824006 ], [ 6.777565956238902, 5.293721199036156 ], [ 6.786231995127082, 5.284793853970427 ], [ 6.794449805710713, 5.277269839858207 ], [ 6.778754234046289, 5.272731780774791 ], [ 6.768187045866398, 5.275146961415828 ], [ 6.756681919049186, 5.275703906794206 ], [ 6.740542889083486, 5.273035048980887 ], [ 6.731263160778326, 5.265182971645743 ], [ 6.727502823223347, 5.256822108964911 ], [ 6.720468998444233, 5.242890835499281 ], [ 6.717160225196039, 5.233592987181851 ], [ 6.710107803404242, 5.21779918745068 ], [ 6.715517044079604, 5.20516776986824 ], [ 6.701193810347604, 5.199687004144323 ], [ 6.690148829843054, 5.200241088520784 ], [ 6.678184031713556, 5.20080184890179 ], [ 6.667100906183123, 5.197159767427195 ], [ 6.65376281712048, 5.198665142450011 ], [ 6.63954305645882, 5.204371929327522 ], [ 6.633019924026655, 5.196032046660946 ], [ 6.626481055583838, 5.185826777726959 ], [ 6.617634772573183, 5.175175190489711 ], [ 6.604710101791454, 5.17154693602447 ], [ 6.592765807675903, 5.174438952989476 ], [ 6.579926967952531, 5.180136203860457 ], [ 6.571222782038433, 5.184866905074728 ], [ 6.563921928077832, 5.191916942864907 ], [ 6.553380965915721, 5.189809799433192 ], [ 6.558826446615683, 5.198422909285398 ], [ 6.549230099095439, 5.212652205953532 ], [ 6.552762032495195, 5.226540565390053 ], [ 6.566636085921971, 5.236972809478289 ], [ 6.547786236114405, 5.257751941596723 ], [ 6.537384987047233, 5.26490593045753 ], [ 6.532513141737013, 5.273820876514776 ], [ 6.530881881628659, 5.284537791796424 ], [ 6.541174888622265, 5.29597282356599 ], [ 6.548624038683613, 5.302347182897108 ], [ 6.55565023445763, 5.310586929495628 ], [ 6.563159942560105, 5.320212841035982 ], [ 6.567076206221031, 5.33362007114556 ], [ 6.568703175326448, 5.347066879282011 ], [ 6.56945800783933, 5.362853050007971 ], [ 6.569632052957616, 5.372142792319892 ], [ 6.561977862756919, 5.379249096148328 ], [ 6.552827834539926, 5.379875182573699 ], [ 6.540015220834334, 5.38056612004317 ], [ 6.528549194043705, 5.3798389425491 ], [ 6.518475056198838, 5.380016803669946 ], [ 6.500597954052182, 5.379403114252966 ], [ 6.485476970778166, 5.379205227118518 ], [ 6.476556777717292, 5.404050826999935 ], [ 6.483125210180276, 5.420644283274385 ], [ 6.489347935408318, 5.422718524683773 ], [ 6.494187354696464, 5.425137997327681 ], [ 6.499718666454726, 5.426520824267243 ], [ 6.505941390682779, 5.425829410797462 ], [ 6.508820533639039, 5.425673961691814 ], [ 6.512404442074114, 5.428660392720985 ], [ 6.517558097575773, 5.434420108634413 ], [ 6.524530411313151, 5.438663959517896 ], [ 6.534836769315859, 5.458974361317871 ], [ 6.536655902551843, 5.469583987526619 ], [ 6.538163661576277, 5.475804328753043 ], [ 6.537696838259137, 5.478425025533681 ], [ 6.536935805742019, 5.491936206713888 ], [ 6.533251286238567, 5.50983381287449 ], [ 6.530831336594304, 5.531958579907212 ], [ 6.542584895580319, 5.549243449651499 ], [ 6.555376053271289, 5.552354812765543 ], [ 6.56885814743174, 5.553391457469843 ], [ 6.579228878478204, 5.559268475463 ], [ 6.584760189236476, 5.561688423107285 ], [ 6.587871552350464, 5.567911148335327 ], [ 6.591673850933944, 5.574479102797909 ], [ 6.593402386108437, 5.580010413556181 ], [ 6.59616804098755, 5.587615489723476 ], [ 6.601007938276041, 5.596949577065573 ], [ 6.602045058980707, 5.607666016346855 ], [ 6.603773594155143, 5.61492586127963 ], [ 6.608144760125185, 5.621254920579929 ], [ 6.613107204496941, 5.626679420265589 ], [ 6.617601394550491, 5.63151931755408 ], [ 6.621345997094807, 5.64256477405894 ], [ 6.617293835341513, 5.651000022790299 ], [ 6.612325190965578, 5.659912108845617 ], [ 6.608761310544082, 5.666173458099934 ], [ 6.60645008097373, 5.670234202859035 ], [ 6.606566906053104, 5.680008887500435 ], [ 6.614049435137133, 5.690699576764302 ], [ 6.61345291073178, 5.702041149470347 ], [ 6.618292809020261, 5.71690607057036 ], [ 6.63362026243459, 5.73003578249137 ], [ 6.650887489166848, 5.725108624143616 ], [ 6.664922713703106, 5.722358704275166 ], [ 6.668275832981408, 5.721829413915543 ] ] ] ] } },
{ "type": "Feature", "properties": { "fid": 251.0, "OBJECTID": 251.0, "lganame": "Ogu Bolo", "statecode": "RI", "LGA_UID": "32_17" }, "geometry": { "type": "MultiPolygon", "coordinates": [ [ [ [ 7.234645843803207, 4.702348232225972 ], [ 7.245337963067982, 4.693743229379322 ], [ 7.252626896020502, 4.685294150638526 ], [ 7.248405933152526, 4.676936149959658 ], [ 7.241861819706116, 4.666265010709139 ], [ 7.24074506794733, 4.641889095146837 ], [ 7.223616123309057, 4.634707928267574 ], [ 7.215291022652536, 4.630578041461547 ], [ 7.206961154992769, 4.625981808338622 ], [ 7.204237592142249, 4.622820441190584 ], [ 7.194337245415397, 4.611434556454412 ], [ 7.179721832484915, 4.627222061181271 ], [ 7.152780442179505, 4.659988712444715 ], [ 7.158416427008888, 4.676755438836892 ], [ 7.158934116360626, 4.678874016276382 ], [ 7.15997552906822, 4.681738377222587 ], [ 7.160235882245161, 4.684602261168436 ], [ 7.160235882245161, 4.687466621114652 ], [ 7.160235882245161, 4.690070151883617 ], [ 7.161537647129649, 4.693455219183591 ], [ 7.163360119367894, 4.696579456306381 ], [ 7.168046950552366, 4.695538043598788 ], [ 7.171432017852396, 4.695277691421893 ], [ 7.17455625497513, 4.695017338245009 ], [ 7.180544853044125, 4.697100162660149 ], [ 7.18340921399033, 4.700224875783249 ], [ 7.189397812059326, 4.700745583137063 ], [ 7.194536208550574, 4.703588963069024 ], [ 7.193042754535838, 4.70595312067536 ], [ 7.196167468658984, 4.709598064151919 ], [ 7.199291705781718, 4.71142101339052 ], [ 7.20137500819726, 4.713764190982602 ], [ 7.199291705781718, 4.715847015397799 ], [ 7.194794177725896, 4.715727806316806 ], [ 7.193042754535838, 4.718971728520899 ], [ 7.194921969812697, 4.72179698944052 ], [ 7.197729587720346, 4.724439621236058 ], [ 7.198510647251055, 4.727043152005024 ], [ 7.194344521420362, 4.728866100243636 ], [ 7.192001342828291, 4.727563858358849 ], [ 7.188550949483897, 4.726129055383922 ], [ 7.186725140243368, 4.72709989504358 ], [ 7.184436797688534, 4.728079795709391 ], [ 7.182168961147624, 4.729993820009895 ], [ 7.178536891679812, 4.732869147963527 ], [ 7.175617217696015, 4.735705852890931 ], [ 7.183183192836736, 4.743652821290539 ], [ 7.195190906995435, 4.74775409707712 ], [ 7.200164795374974, 4.737924099398128 ], [ 7.202381133880863, 4.728581905050532 ], [ 7.202754974134848, 4.719254970713337 ], [ 7.206347941576098, 4.70943689304238 ], [ 7.214109897849994, 4.70238208824901 ], [ 7.224216937717244, 4.699971198610911 ], [ 7.234645843803207, 4.702348232225972 ] ] ] ] } },
{ "type": "Feature", "properties": { "fid": 271.0, "OBJECTID": 271.0, "lganame": "Emuoha", "statecode": "RI", "LGA_UID": "32_10" }, "geometry": { "type": "MultiPolygon", "coordinates": [ [ [ [ 6.848985194764907, 5.24979782119226 ], [ 6.843806267246066, 5.242591858296123 ], [ 6.834993839258459, 5.230329036964122 ], [ 6.831688881012894, 5.221497058963223 ], [ 6.832520007577614, 5.211699963306557 ], [ 6.832390785489793, 5.19771480580431 ], [ 6.832236767385155, 5.180932999401875 ], [ 6.829332829412067, 5.165572165964875 ], [ 6.823700904585451, 5.153961182075761 ], [ 6.812565804019641, 5.144724845800113 ], [ 6.80374622302719, 5.136869907463051 ], [ 6.792582035441626, 5.124371051970684 ], [ 6.781877041168059, 5.111867905475378 ], [ 6.77578878403142, 5.100728034906354 ], [ 6.776112080251039, 5.085806846768094 ], [ 6.783331871156577, 5.069899081959534 ], [ 6.793383120985936, 5.061428070203874 ], [ 6.802535057204238, 5.055294991036703 ], [ 6.810787200811205, 5.051498890457481 ], [ 6.82087182966319, 5.046758175236334 ], [ 6.830029010885085, 5.041090012385098 ], [ 6.836874007535926, 5.034510135914388 ], [ 6.841343879573003, 5.020021915070345 ], [ 6.844025135394816, 5.011143208037652 ], [ 6.84942102406103, 4.997114181505594 ], [ 6.849748135283278, 4.982658862683877 ], [ 6.847825049976677, 4.973816871676149 ], [ 6.847709178897958, 4.961229801123864 ], [ 6.848990916768798, 4.95049810383216 ], [ 6.851612090549793, 4.935091972364432 ], [ 6.854743957677726, 4.925277232695748 ], [ 6.861077784981262, 4.91310501142533 ], [ 6.875255107614123, 4.90273714138084 ], [ 6.888145924372793, 4.902635098311521 ], [ 6.89875602658185, 4.904881000837463 ], [ 6.898253441240399, 4.898471355482457 ], [ 6.900824069986982, 4.894031048465479 ], [ 6.898720740557906, 4.88912296313066 ], [ 6.893246173838179, 4.885918616953461 ], [ 6.895215034175919, 4.881644726049558 ], [ 6.899845123321882, 4.87654113758191 ], [ 6.903628348892369, 4.868790627315775 ], [ 6.903507232810114, 4.858153343088247 ], [ 6.908068656909336, 4.8491597179775 ], [ 6.917884349578685, 4.848225117342452 ], [ 6.925830363977582, 4.839577675466955 ], [ 6.921011447703393, 4.829784392812883 ], [ 6.921857357278157, 4.824620724304395 ], [ 6.930737972312102, 4.81690836006419 ], [ 6.928400992724221, 4.80919647182435 ], [ 6.921156405801867, 4.806859493236459 ], [ 6.919987679007761, 4.800783157107901 ], [ 6.924427986024739, 4.794706820979286 ], [ 6.925128936501039, 4.788864136009465 ], [ 6.918585300054929, 4.784891129309983 ], [ 6.912041663608818, 4.7919020650736 ], [ 6.906433104798055, 4.793538094185237 ], [ 6.893345355905581, 4.791668414914852 ], [ 6.887269019776966, 4.797744751043467 ], [ 6.883296013077484, 4.802185059060434 ], [ 6.878855705060516, 4.802185059060434 ], [ 6.864366055215498, 4.805690765442364 ], [ 6.854083061228664, 4.807093143395264 ], [ 6.845436096353467, 4.814104080158813 ], [ 6.840762138177752, 4.81924581465239 ], [ 6.830245495032159, 4.82415342298691 ], [ 6.825103759538592, 4.82415342298691 ], [ 6.823000431109506, 4.818544388175837 ], [ 6.823229313265017, 4.810469626689382 ], [ 6.82253313079201, 4.800315856790405 ], [ 6.819027901410323, 4.79494047213808 ], [ 6.812717438122661, 4.790967464438609 ], [ 6.805706501359111, 4.791434764756104 ], [ 6.803836823088716, 4.79494047213808 ], [ 6.803603171929979, 4.79914712899631 ], [ 6.801499843500835, 4.802419186219481 ], [ 6.794255256578481, 4.796810150408419 ], [ 6.790055751725163, 4.797391414803371 ], [ 6.787945271291164, 4.798212528361262 ], [ 6.783532619292998, 4.802808762484176 ], [ 6.775325297716506, 4.804288387489521 ], [ 6.765509605047157, 4.804756164807372 ], [ 6.753824234107526, 4.805457115283616 ], [ 6.747280597661415, 4.81270170220597 ], [ 6.737761021193307, 4.820843219737753 ], [ 6.726285934396515, 4.824663162333252 ], [ 6.720369816376831, 4.832170010433799 ], [ 6.721845150379238, 4.842413902394014 ], [ 6.72011899920642, 4.855014800955757 ], [ 6.710920810956679, 4.856019973638695 ], [ 6.702690125364313, 4.862145900801011 ], [ 6.702170372011153, 4.868181228901733 ], [ 6.693087100839477, 4.869215011604126 ], [ 6.682873725899981, 4.870937823774682 ], [ 6.676809310779504, 4.877553940270047 ], [ 6.677111148984579, 4.884261130827269 ], [ 6.687284469896895, 4.888580321761935 ], [ 6.693900108391915, 4.892439365384007 ], [ 6.698310852388772, 4.901260853377778 ], [ 6.690041064769844, 4.902914523501352 ], [ 6.677360535154037, 4.897401332755408 ], [ 6.669201850610591, 4.905181885041941 ], [ 6.685242175509245, 4.91729593327284 ], [ 6.67793989154768, 4.924346924063684 ], [ 6.667884826715749, 4.93235301950341 ], [ 6.67625808740496, 4.941609858793015 ], [ 6.679565906652499, 4.950908184110801 ], [ 6.681063174669816, 4.963482856654707 ], [ 6.679333210494349, 4.975617885899851 ], [ 6.672953129159396, 4.98266220068615 ], [ 6.668887138396769, 4.991086006409716 ], [ 6.678205012727801, 5.00313281959501 ], [ 6.684774876191739, 5.016601085746061 ], [ 6.689030170083015, 5.028687953958524 ], [ 6.690530777102595, 5.041729926819926 ], [ 6.690660000190405, 5.055715084322173 ], [ 6.696355820060433, 5.0743179319619 ], [ 6.698338985407929, 5.08968687140441 ], [ 6.697516917849327, 5.10041618269446 ], [ 6.696308136028051, 5.119072914370804 ], [ 6.701035976240405, 5.132555007531266 ], [ 6.705283165126161, 5.14371109011131 ], [ 6.712777138217973, 5.157638072574059 ], [ 6.718430996059453, 5.171578884046141 ], [ 6.717604160497672, 5.181841850019396 ], [ 6.715847969304434, 5.191180229364363 ], [ 6.715517044079604, 5.20516776986824 ], [ 6.710107803404242, 5.21779918745068 ], [ 6.717160225196039, 5.233592987181851 ], [ 6.720468998444233, 5.242890835499281 ], [ 6.727502823223347, 5.256822108964911 ], [ 6.731263160778326, 5.265182971645743 ], [ 6.740542889083486, 5.273035048980887 ], [ 6.756681919049186, 5.275703906794206 ], [ 6.768187045866398, 5.275146961415828 ], [ 6.778754234046289, 5.272731780774791 ], [ 6.794449805710713, 5.277269839858207 ], [ 6.803584098916986, 5.269271851423923 ], [ 6.811363220202566, 5.264081954897676 ], [ 6.818212985856633, 5.257966994742844 ], [ 6.824282168980403, 5.254179478169362 ], [ 6.82709264788997, 5.252425670977743 ], [ 6.830335617093397, 5.251515865359579 ], [ 6.833809376453644, 5.25054120969736 ], [ 6.836094856006525, 5.249899864261579 ], [ 6.848985194764907, 5.24979782119226 ] ] ] ] } },
{ "type": "Feature", "properties": { "fid": 275.0, "OBJECTID": 275.0, "lganame": "Abua\/Odual", "statecode": "RI", "LGA_UID": "32_01" }, "geometry": { "type": "MultiPolygon", "coordinates": [ [ [ [ 6.669201850610591, 4.905181885041941 ], [ 6.677360535154037, 4.897401332755408 ], [ 6.690041064769844, 4.902914523501352 ], [ 6.698310852388772, 4.901260853377778 ], [ 6.693900108391915, 4.892439365384007 ], [ 6.687284469896895, 4.888580321761935 ], [ 6.677111148984579, 4.884261130827269 ], [ 6.676809310779504, 4.877553940270047 ], [ 6.682873725899981, 4.870937823774682 ], [ 6.693087100839477, 4.869215011604126 ], [ 6.702170372011153, 4.868181228901733 ], [ 6.702690125364313, 4.862145900801011 ], [ 6.710920810956679, 4.856019973638695 ], [ 6.72011899920642, 4.855014800955757 ], [ 6.721845150379238, 4.842413902394014 ], [ 6.720369816376831, 4.832170010433799 ], [ 6.726285934396515, 4.824663162333252 ], [ 6.737761021193307, 4.820843219737753 ], [ 6.740419864999865, 4.809632778120772 ], [ 6.742170811189567, 4.799829006459618 ], [ 6.742139339168205, 4.793070792867695 ], [ 6.745410919391077, 4.790266513962308 ], [ 6.755596349311588, 4.784738796206511 ], [ 6.763313612555123, 4.77187718146763 ], [ 6.751388550452589, 4.764721869605921 ], [ 6.753073181597244, 4.756375330934873 ], [ 6.737628947103588, 4.757077638412056 ], [ 6.727970122540853, 4.757516860710496 ], [ 6.715075015779234, 4.757153034463272 ], [ 6.702562809277822, 4.748394011511948 ], [ 6.692409992379453, 4.745677947666479 ], [ 6.683222771137139, 4.748082161300033 ], [ 6.67080593070051, 4.749577999316386 ], [ 6.660247802526726, 4.752925872591106 ], [ 6.649202824022211, 4.753479003966959 ], [ 6.638588904810547, 4.750765800123474 ], [ 6.629915236917157, 4.758759974555119 ], [ 6.620207787321419, 4.754642009757163 ], [ 6.607241153511211, 4.746353149125241 ], [ 6.5983099944429, 4.752677917422659 ], [ 6.58873701093853, 4.75517082211644 ], [ 6.579172134439602, 4.758128166125857 ], [ 6.563601970860418, 4.758402824312441 ], [ 6.55261182839314, 4.758596897444306 ], [ 6.537438869083815, 4.755611897416145 ], [ 6.527311802202973, 4.753003119643608 ], [ 6.517581939591992, 4.74713420865595 ], [ 6.51060008984814, 4.741216182634957 ], [ 6.498985766956764, 4.732592105775268 ], [ 6.489644050609513, 4.722999096257297 ], [ 6.478478909023295, 4.713901997076221 ], [ 6.461060047188028, 4.713280200653742 ], [ 6.459428787079673, 4.72399711593539 ], [ 6.445941924915985, 4.730044842044549 ], [ 6.441421985844897, 4.745329857429965 ], [ 6.444090842658227, 4.760978222062306 ], [ 6.444660187045088, 4.775567054974715 ], [ 6.429982185072049, 4.765873909388688 ], [ 6.422863960235588, 4.777152061051652 ], [ 6.412812233405873, 4.802886962537343 ], [ 6.40886497472394, 4.812250136899195 ], [ 6.402275085246401, 4.827237129082107 ], [ 6.399279118210757, 4.838441848695197 ], [ 6.398606776753979, 4.851465224543972 ], [ 6.398394107609477, 4.864480019386917 ], [ 6.400884151301341, 4.875123977619012 ], [ 6.406606197189205, 4.887104033758874 ], [ 6.414566039597503, 4.89625692397783 ], [ 6.420719146778254, 4.906836987166514 ], [ 6.425559998067399, 4.920691012579653 ], [ 6.433986186792595, 4.930301189109286 ], [ 6.440640926314188, 4.943194865869941 ], [ 6.440402031151848, 4.954815864765862 ], [ 6.454968929049414, 4.959681034071536 ], [ 6.469184874708446, 4.95350694687653 ], [ 6.480195045189362, 4.949223994966474 ], [ 6.488412856772982, 4.941699981854242 ], [ 6.495718955737118, 4.935114861379986 ], [ 6.503480911011025, 4.928061007587189 ], [ 6.510325908661855, 4.921480179115861 ], [ 6.522648811034685, 4.909727097130201 ], [ 6.530840873600823, 4.899405956117448 ], [ 6.543207169003153, 4.892314911299422 ], [ 6.556588173094895, 4.895472050444539 ], [ 6.563237189612607, 4.907876491872798 ], [ 6.558826446615683, 4.915595055117194 ], [ 6.565993786485535, 4.913940906993275 ], [ 6.57040405348215, 4.918351649990143 ], [ 6.565442562111002, 4.926621436609082 ], [ 6.547800064123805, 4.932685851729559 ], [ 6.546145915999887, 4.934891224228011 ], [ 6.549643040375997, 4.941215037524785 ], [ 6.56077814094175, 4.95044994379947 ], [ 6.565948963455128, 4.962065219691453 ], [ 6.570669173662282, 4.974615097218532 ], [ 6.582703113838761, 4.981512069904682 ], [ 6.596508980219198, 4.980937003513986 ], [ 6.606552124043048, 4.971532822124288 ], [ 6.611083031121609, 4.96357202471529 ], [ 6.616517066813742, 4.953739166034325 ], [ 6.621951102505932, 4.943904877352395 ], [ 6.629692077765583, 4.934519767975644 ], [ 6.641110896524083, 4.924639225262297 ], [ 6.649763107402862, 4.914313793246606 ], [ 6.669201850610591, 4.905181885041941 ] ] ] ] } },
{ "type": "Feature", "properties": { "fid": 289.0, "OBJECTID": 289.0, "lganame": "Degema", "statecode": "RI", "LGA_UID": "32_08" }, "geometry": { "type": "MultiPolygon", "coordinates": [ [ [ [ 6.795415878367066, 4.782156944452254 ], [ 6.793492794060455, 4.773314953444526 ], [ 6.790648937128196, 4.76448011444171 ], [ 6.796057223802848, 4.751849173859569 ], [ 6.804233074357967, 4.739664077580358 ], [ 6.811021804970608, 4.727022170990779 ], [ 6.821998119428486, 4.719009875546817 ], [ 6.831653117988594, 4.717535018544709 ], [ 6.838016987312528, 4.708625793491308 ], [ 6.849543095143986, 4.710400104696873 ], [ 6.860639094683222, 4.715439796121075 ], [ 6.865133761737127, 4.712789536320372 ], [ 6.870254993216747, 4.709770203268874 ], [ 6.880817890393757, 4.706889153311351 ], [ 6.888601779682517, 4.70216512710158 ], [ 6.896358966953187, 4.694643973991333 ], [ 6.897101499457676, 4.693879232471716 ], [ 6.907617031602513, 4.683049173113204 ], [ 6.899722099238261, 4.676943778964869 ], [ 6.903610228880041, 4.661110878207126 ], [ 6.909166335655186, 4.646666527392881 ], [ 6.978888512028107, 4.47833252001783 ], [ 6.987499236878705, 4.459444046183989 ], [ 6.998610497428274, 4.43722152708483 ], [ 7.00805473284521, 4.419721603194489 ], [ 7.015555380941521, 4.406944274512909 ], [ 7.023055076037224, 4.394443512019222 ], [ 7.024999618358436, 4.389444350622512 ], [ 7.024722099169878, 4.38416576403597 ], [ 7.022499084659444, 4.379444122827806 ], [ 7.019443511583347, 4.375555039185372 ], [ 7.011110305921306, 4.370554923788006 ], [ 7.005555153146872, 4.369443893033122 ], [ 6.998610497428274, 4.369721413221725 ], [ 6.990520918931793, 4.370264862590943 ], [ 6.961388588137766, 4.372221946920718 ], [ 6.875277518629332, 4.389444350622512 ], [ 6.87055492442056, 4.39166641313227 ], [ 6.865554810023184, 4.399999617794322 ], [ 6.821665763202645, 4.524166107159601 ], [ 6.812153846739761, 4.542799963820414 ], [ 6.814152595097823, 4.578206342877422 ], [ 6.840421843946501, 4.602476846368063 ], [ 6.838137562394479, 4.618752359426537 ], [ 6.814152595097823, 4.645307144469257 ], [ 6.786926490598944, 4.665625853274889 ], [ 6.768761808256897, 4.739271556313668 ], [ 6.766144400478481, 4.742007936172911 ], [ 6.763408019619249, 4.749146319023112 ], [ 6.763289046538432, 4.755689837469106 ], [ 6.763883912942617, 4.758426217328349 ], [ 6.765311588912652, 4.759853893298384 ], [ 6.765555382078276, 4.763333319662479 ], [ 6.768054961776613, 4.774722099400606 ], [ 6.763313612555123, 4.77187718146763 ], [ 6.755596349311588, 4.784738796206511 ], [ 6.745410919391077, 4.790266513962308 ], [ 6.742139339168205, 4.793070792867695 ], [ 6.742170811189567, 4.799829006459618 ], [ 6.740419864999865, 4.809632778120772 ], [ 6.737761021193307, 4.820843219737753 ], [ 6.747280597661415, 4.81270170220597 ], [ 6.753824234107526, 4.805457115283616 ], [ 6.765509605047157, 4.804756164807372 ], [ 6.775325297716506, 4.804288387489521 ], [ 6.783532619292998, 4.802808762484176 ], [ 6.787945271291164, 4.798212528361262 ], [ 6.790055751725163, 4.797391414803371 ], [ 6.789521217361937, 4.791995049136801 ], [ 6.795415878367066, 4.782156944452254 ] ] ], [ [ [ 7.081503459750138, 4.437843426507413 ], [ 7.073055268010023, 4.434721947386493 ], [ 7.044444083570056, 4.436388014518514 ], [ 7.041110992305391, 4.439722060783879 ], [ 7.021110533716012, 4.492499350643527 ], [ 7.018332481828452, 4.503054617815337 ], [ 7.003610610825604, 4.569166182735046 ], [ 7.00305461944788, 4.58138847303951 ], [ 7.02749919905682, 4.623055458350279 ], [ 7.041388512493938, 4.63805484654165 ], [ 7.040277480739064, 4.643610954316785 ], [ 7.034166335586804, 4.657499312753259 ], [ 7.025218227506969, 4.673908089902227 ], [ 7.055820557299853, 4.642380149480516 ], [ 7.059288978656468, 4.638806820052594 ], [ 7.05817508689961, 4.617836951804577 ], [ 7.059000969460783, 4.607573985831323 ], [ 7.052930832336415, 4.598299025529457 ], [ 7.05930709766875, 4.590788841426615 ], [ 7.060085773197841, 4.575397967969252 ], [ 7.051704883503419, 4.565207958045619 ], [ 7.04974794417376, 4.552636146503687 ], [ 7.05149507536089, 4.542366027525588 ], [ 7.05550479908527, 4.527882098684472 ], [ 7.063216209324821, 4.515233040090038 ], [ 7.072209358435259, 4.504900455069503 ], [ 7.06162405024304, 4.492402076577434 ], [ 7.058772087305272, 4.482635020941188 ], [ 7.058677197240797, 4.472379207972836 ], [ 7.065028190556006, 4.46207189596953 ], [ 7.072338103522725, 4.455954074812723 ], [ 7.077326752912256, 4.452291344324067 ], [ 7.091815450756656, 4.441653554096206 ], [ 7.081503459750138, 4.437843426507413 ] ] ], [ [ [ 6.887269019776966, 4.797744751043467 ], [ 6.893345355905581, 4.791668414914852 ], [ 6.906433104798055, 4.793538094185237 ], [ 6.912041663608818, 4.7919020650736 ], [ 6.918585300054929, 4.784891129309983 ], [ 6.925128936501039, 4.788864136009465 ], [ 6.924427986024739, 4.794706820979286 ], [ 6.929569720518316, 4.794005393502744 ], [ 6.940553664981394, 4.794005393502744 ], [ 6.944293021522128, 4.785826205945341 ], [ 6.944993972998361, 4.77998352097552 ], [ 6.949200629856591, 4.772738457052867 ], [ 6.954809665667653, 4.773673533688168 ], [ 6.958081244890536, 4.775075435640701 ], [ 6.964624882336636, 4.77110242794123 ], [ 6.966072083319943, 4.765419960080294 ], [ 6.963653563676701, 4.75880908958851 ], [ 6.963923930860403, 4.754275798508331 ], [ 6.976310253276324, 4.755911826619922 ], [ 6.984723567992773, 4.763156890542632 ], [ 6.992669582391727, 4.768298149035843 ], [ 7.002859116314994, 4.773252964402445 ], [ 7.008841991380109, 4.772504806894062 ], [ 7.008177756928774, 4.768442631134008 ], [ 7.002769470254123, 4.757153034463272 ], [ 7.002251624902271, 4.754977225984931 ], [ 7.00178384758442, 4.747732162062221 ], [ 7.002087115790459, 4.743642330283365 ], [ 6.992082118992585, 4.748951911891027 ], [ 6.982152939246134, 4.740253924981118 ], [ 6.984792340039519, 4.733727950547063 ], [ 6.992228773092222, 4.715341212054113 ], [ 6.965555190968757, 4.724444389239295 ], [ 6.962222098704103, 4.725276946804968 ], [ 6.931460710803151, 4.701488221641682 ], [ 6.925034511436877, 4.715480687148897 ], [ 6.924643993171514, 4.716331004726612 ], [ 6.918272017842071, 4.724308014146629 ], [ 6.912827969143109, 4.733208179193866 ], [ 6.90460205055399, 4.739799975672668 ], [ 6.893136023763361, 4.744553088902194 ], [ 6.881657123963976, 4.747908115181815 ], [ 6.87527990263095, 4.755416870283625 ], [ 6.866937159962447, 4.764091492177613 ], [ 6.863431453580461, 4.77414083500571 ], [ 6.867170811121184, 4.782320498563365 ], [ 6.874882698361034, 4.788163184533232 ], [ 6.881625174942258, 4.794528007857821 ], [ 6.887269019776966, 4.797744751043467 ] ] ] ] } },
{ "type": "Feature", "properties": { "fid": 294.0, "OBJECTID": 294.0, "lganame": "Asari-Toru", "statecode": "RI", "LGA_UID": "32_06" }, "geometry": { "type": "MultiPolygon", "coordinates": [ [ [ [ 6.887269019776966, 4.797744751043467 ], [ 6.881625174942258, 4.794528007857821 ], [ 6.874882698361034, 4.788163184533232 ], [ 6.867170811121184, 4.782320498563365 ], [ 6.863431453580461, 4.77414083500571 ], [ 6.866937159962447, 4.764091492177613 ], [ 6.87527990263095, 4.755416870283625 ], [ 6.881657123963976, 4.747908115181815 ], [ 6.893136023763361, 4.744553088902194 ], [ 6.90460205055399, 4.739799975672668 ], [ 6.912827969143109, 4.733208179193866 ], [ 6.918272017842071, 4.724308014146629 ], [ 6.924643993171514, 4.716331004726612 ], [ 6.925034511436877, 4.715480687148897 ], [ 6.931460710803151, 4.701488221641682 ], [ 6.907617031602513, 4.683049173113204 ], [ 6.897101499457676, 4.693879232471716 ], [ 6.896358966953187, 4.694643973991333 ], [ 6.888601779682517, 4.70216512710158 ], [ 6.880817890393757, 4.706889153311351 ], [ 6.870254993216747, 4.709770203268874 ], [ 6.865133761737127, 4.712789536320372 ], [ 6.860639094683222, 4.715439796121075 ], [ 6.849543095143986, 4.710400104696873 ], [ 6.838016987312528, 4.708625793491308 ], [ 6.831653117988594, 4.717535018544709 ], [ 6.821998119428486, 4.719009875546817 ], [ 6.811021804970608, 4.727022170990779 ], [ 6.804233074357967, 4.739664077580358 ], [ 6.796057223802848, 4.751849173859569 ], [ 6.790648937128196, 4.76448011444171 ], [ 6.793492794060455, 4.773314953444526 ], [ 6.795415878367066, 4.782156944452254 ], [ 6.789521217361937, 4.791995049136801 ], [ 6.790055751725163, 4.797391414803371 ], [ 6.794255256578481, 4.796810150408419 ], [ 6.801499843500835, 4.802419186219481 ], [ 6.803603171929979, 4.79914712899631 ], [ 6.803836823088716, 4.79494047213808 ], [ 6.805706501359111, 4.791434764756104 ], [ 6.812717438122661, 4.790967464438609 ], [ 6.819027901410323, 4.79494047213808 ], [ 6.82253313079201, 4.800315856790405 ], [ 6.823229313265017, 4.810469626689382 ], [ 6.823000431109506, 4.818544388175837 ], [ 6.825103759538592, 4.82415342298691 ], [ 6.830245495032159, 4.82415342298691 ], [ 6.840762138177752, 4.81924581465239 ], [ 6.845436096353467, 4.814104080158813 ], [ 6.854083061228664, 4.807093143395264 ], [ 6.864366055215498, 4.805690765442364 ], [ 6.878855705060516, 4.802185059060434 ], [ 6.883296013077484, 4.802185059060434 ], [ 6.887269019776966, 4.797744751043467 ] ] ] ] } },
{ "type": "Feature", "properties": { "fid": 304.0, "OBJECTID": 304.0, "lganame": "Etche", "statecode": "RI", "LGA_UID": "32_11" }, "geometry": { "type": "MultiPolygon", "coordinates": [ [ [ [ 7.242135047891793, 5.195867061548824 ], [ 7.242690086268908, 5.192757607436135 ], [ 7.243885994081438, 5.18606185888666 ], [ 7.241043091149834, 5.177227019883787 ], [ 7.234924792992729, 5.16282320009708 ], [ 7.224689007038023, 5.151248932232932 ], [ 7.221358775775286, 5.139620781332155 ], [ 7.215253829627272, 5.126616001496018 ], [ 7.213769912619, 5.115437983901074 ], [ 7.20905876241801, 5.103820801007714 ], [ 7.207106113091243, 5.091714858782325 ], [ 7.206095219404403, 5.081933022136013 ], [ 7.204145908079909, 5.070292950227156 ], [ 7.1985101702507, 5.058217049022119 ], [ 7.190628051895203, 5.052217959946006 ], [ 7.185482979399353, 5.043402194956116 ], [ 7.182157040139543, 5.032238960371217 ], [ 7.176064013999621, 5.020631790484686 ], [ 7.164929867434466, 5.011396885210047 ], [ 7.162504195786369, 4.997896194036969 ], [ 7.16791200646071, 4.98526620945546 ], [ 7.173611641333309, 4.984169482710286 ], [ 7.183078765765799, 4.982347965472627 ], [ 7.192286015021693, 4.982275009423063 ], [ 7.207005024022578, 4.980760098393773 ], [ 7.218953133140758, 4.97833394974532 ], [ 7.228350162525601, 4.970958232733835 ], [ 7.217877865410173, 4.961559772348039 ], [ 7.209084034435136, 4.956501006910855 ], [ 7.199394225851393, 4.954246998379347 ], [ 7.181393146620508, 4.949262141992392 ], [ 7.168517112871825, 4.944752215928133 ], [ 7.159626006830763, 4.935448169606445 ], [ 7.150316237505194, 4.924333096054283 ], [ 7.143767834055893, 4.913196087487222 ], [ 7.131286143575153, 4.90770101475357 ], [ 7.126119137064393, 4.896553040179015 ], [ 7.104446888339112, 4.892994880761421 ], [ 7.097636222711628, 4.903306006767366 ], [ 7.086643219242376, 4.90945291494387 ], [ 7.075163841442702, 4.912806988222826 ], [ 7.062798023040671, 4.919898987041506 ], [ 7.053143024480562, 4.921373844043615 ], [ 7.039434910166563, 4.934809208172283 ], [ 7.035966872810206, 4.956007956575831 ], [ 7.035152912257161, 4.967669964499635 ], [ 7.026939868676777, 4.975659846928409 ], [ 7.017805099470138, 4.983657837362671 ], [ 7.010533809529591, 4.993971825370522 ], [ 7.005550861143945, 5.00287008341644 ], [ 7.001498222390353, 5.012691975089979 ], [ 6.993306159824215, 5.023013115102685 ], [ 6.987880230137591, 5.033779144417736 ], [ 6.98433017672545, 5.048258781255981 ], [ 6.98260021155005, 5.060393809501136 ], [ 6.980856895365548, 5.07113122879673 ], [ 6.979126930190091, 5.08326482804091 ], [ 6.976016998077057, 5.095410824293538 ], [ 6.97472095519646, 5.1047458646363 ], [ 6.972530841708362, 5.116884231883716 ], [ 6.970809936539126, 5.129950999762002 ], [ 6.967243195115657, 5.142567158334089 ], [ 6.965517043942839, 5.155168055895786 ], [ 6.963331223457658, 5.16777277046009 ], [ 6.963890075837412, 5.178491115742702 ], [ 6.963055134270064, 5.187821865082526 ], [ 6.966414927552933, 5.202713013200366 ], [ 6.972976208011005, 5.215249061717998 ], [ 6.973530769387764, 5.225501059683779 ], [ 6.971787930203618, 5.236238002979007 ], [ 6.975482940714187, 5.235740184640747 ], [ 6.978500842764731, 5.235333920364724 ], [ 6.980701447259946, 5.235037327163184 ], [ 6.98293113677488, 5.234736918959072 ], [ 6.986503124201874, 5.234255790632176 ], [ 6.990743637083142, 5.23601055082446 ], [ 6.993147372716351, 5.23700475749996 ], [ 6.998440266312628, 5.239194392987713 ], [ 7.001007557056994, 5.239575863246898 ], [ 7.00373268090857, 5.239980697521958 ], [ 7.006873608042667, 5.240621089957074 ], [ 7.008833408374301, 5.241290569412001 ], [ 7.012022971541455, 5.242380142152285 ], [ 7.014990329557634, 5.241863250801089 ], [ 7.019309998492645, 5.243878841170613 ], [ 7.021244525807049, 5.244569301639729 ], [ 7.023335457227745, 5.245316029147091 ], [ 7.028792380935442, 5.246750355121662 ], [ 7.03223800727659, 5.247610568706136 ], [ 7.035687922620639, 5.248759747486929 ], [ 7.039992331545307, 5.249618053070094 ], [ 7.042693615380699, 5.249077796703034 ], [ 7.045132160037554, 5.248737812472029 ], [ 7.047133923397666, 5.247860908876191 ], [ 7.049116134744509, 5.246992588286219 ], [ 7.053144932481871, 5.245570660320084 ], [ 7.055966377398931, 5.244066715298231 ], [ 7.057805060648207, 5.242176533013946 ], [ 7.05990028407183, 5.240023135550814 ], [ 7.062163352609446, 5.240469455854054 ], [ 7.064420700143216, 5.239266396036669 ], [ 7.066473960538303, 5.237781525027742 ], [ 7.070062636976672, 5.236258983993253 ], [ 7.071746349120644, 5.235067844183959 ], [ 7.07486343423858, 5.233847141354545 ], [ 7.076833724577284, 5.232649802541005 ], [ 7.081119537489315, 5.230340480971904 ], [ 7.083796024307844, 5.228972435042408 ], [ 7.08732223470372, 5.228674411839904 ], [ 7.089570045231028, 5.227182387826133 ], [ 7.092122554965329, 5.22626256920114 ], [ 7.094953059888553, 5.225047588375617 ], [ 7.096863270186418, 5.223843574557577 ], [ 7.099493979973886, 5.223507881329454 ], [ 7.101769446519938, 5.222882270904392 ], [ 7.104058743075427, 5.221520423979086 ], [ 7.108289718950175, 5.220434666241374 ], [ 7.110287189307371, 5.220104218016843 ], [ 7.112276076658702, 5.219484805595982 ], [ 7.115069865556961, 5.218716621074066 ], [ 7.117270947052475, 5.218141078683004 ], [ 7.122664927717437, 5.216292381426911 ], [ 7.124798298166979, 5.216333866455102 ], [ 7.127115249741223, 5.215978146213388 ], [ 7.129712581505999, 5.215579509942529 ], [ 7.135630130526692, 5.21496391252424 ], [ 7.137703895935715, 5.214959144521004 ], [ 7.141417027458601, 5.214371681121861 ], [ 7.144279003403199, 5.214365005117315 ], [ 7.148297310133444, 5.213676928649818 ], [ 7.151132584059894, 5.213191509319984 ], [ 7.155135631779785, 5.212893009117181 ], [ 7.15827989591611, 5.212596415915641 ], [ 7.161118506844844, 5.212475299833386 ], [ 7.16543102277501, 5.212290763707983 ], [ 7.168567656906191, 5.211415291113155 ], [ 7.171414374840424, 5.210251331322297 ], [ 7.174276351784954, 5.210244656317741 ], [ 7.179408550272058, 5.208786011326652 ], [ 7.182541847401012, 5.207621573535505 ], [ 7.185384750332616, 5.20616817454794 ], [ 7.188223839261639, 5.204425335363794 ], [ 7.190780639998877, 5.202972412376596 ], [ 7.193909645124904, 5.201518536388733 ], [ 7.196079730599365, 5.200654506801698 ], [ 7.198286057098471, 5.199775696204597 ], [ 7.200284004455966, 5.199445247980066 ], [ 7.206140518435177, 5.197731494815628 ], [ 7.210087776117177, 5.196576595030933 ], [ 7.21282529797719, 5.196224212791492 ], [ 7.215114593532633, 5.195929526591271 ], [ 7.21773099931039, 5.19559288036254 ], [ 7.220254898025246, 5.195402622233303 ], [ 7.222278595400269, 5.195250034129629 ], [ 7.22428941676651, 5.195098400026552 ], [ 7.226599216335899, 5.194924354908323 ], [ 7.2291936870987, 5.194728373775149 ], [ 7.231534003688864, 5.194551944655302 ], [ 7.242135047891793, 5.195867061548824 ] ] ] ] } },
{ "type": "Feature", "properties": { "fid": 315.0, "OBJECTID": 315.0, "lganame": "Okrika", "statecode": "RI", "LGA_UID": "32_18" }, "geometry": { "type": "MultiPolygon", "coordinates": [ [ [ [ 7.175617217696015, 4.735705852890931 ], [ 7.178536891679812, 4.732869147963527 ], [ 7.182168961147624, 4.729993820009895 ], [ 7.184436797688534, 4.728079795709391 ], [ 7.186725140243368, 4.72709989504358 ], [ 7.188550949483897, 4.726129055383922 ], [ 7.192001342828291, 4.727563858358849 ], [ 7.194344521420362, 4.728866100243636 ], [ 7.198510647251055, 4.727043152005024 ], [ 7.197729587720346, 4.724439621236058 ], [ 7.194921969812697, 4.72179698944052 ], [ 7.193042754535838, 4.718971728520899 ], [ 7.194794177725896, 4.715727806316806 ], [ 7.199291705781718, 4.715847015397799 ], [ 7.20137500819726, 4.713764190982602 ], [ 7.199291705781718, 4.71142101339052 ], [ 7.196167468658984, 4.709598064151919 ], [ 7.193042754535838, 4.70595312067536 ], [ 7.194536208550574, 4.703588963069024 ], [ 7.189397812059326, 4.700745583137063 ], [ 7.18340921399033, 4.700224875783249 ], [ 7.180544853044125, 4.697100162660149 ], [ 7.17455625497513, 4.695017338245009 ], [ 7.171432017852396, 4.695277691421893 ], [ 7.168046950552366, 4.695538043598788 ], [ 7.163360119367894, 4.696579456306381 ], [ 7.161537647129649, 4.693455219183591 ], [ 7.160235882245161, 4.690070151883617 ], [ 7.160235882245161, 4.687466621114652 ], [ 7.160235882245161, 4.684602261168436 ], [ 7.15997552906822, 4.681738377222587 ], [ 7.158934116360626, 4.678874016276382 ], [ 7.158416427008888, 4.676755438836892 ], [ 7.152780442179505, 4.659988712444715 ], [ 7.094674419699231, 4.730658402461415 ], [ 7.076986890681383, 4.728552157030322 ], [ 7.074897647261821, 4.728303367861315 ], [ 7.05667269787881, 4.726122169379266 ], [ 7.061499595158466, 4.713444232765198 ], [ 7.063166142290811, 4.710777282953131 ], [ 7.084166525559567, 4.676943778964869 ], [ 7.093333243787924, 4.665555000226732 ], [ 7.101110458072185, 4.659721374263029 ], [ 7.1105546954891, 4.655277252243479 ], [ 7.126111031058883, 4.649722099468988 ], [ 7.139999390495404, 4.642777442750457 ], [ 7.143888474137839, 4.639999388862861 ], [ 7.151110649044995, 4.633333206333532 ], [ 7.156944275008641, 4.625555038048617 ], [ 7.169721602690231, 4.604443549704342 ], [ 7.171173625676829, 4.599898040615926 ], [ 7.176110268031039, 4.584444046115664 ], [ 7.179999350673484, 4.509999274533925 ], [ 7.178888320918588, 4.503888130381654 ], [ 7.173888205521223, 4.48777771043541 ], [ 7.167777062368998, 4.473054886431953 ], [ 7.164166449915797, 4.469999314355846 ], [ 7.154999732687429, 4.464999198958481 ], [ 7.119739801729963, 4.451971183106537 ], [ 7.091815450756656, 4.441653554096206 ], [ 7.077326752912256, 4.452291344324067 ], [ 7.072338103522725, 4.455954074812723 ], [ 7.065028190556006, 4.46207189596953 ], [ 7.058677197240797, 4.472379207972836 ], [ 7.058772087305272, 4.482635020941188 ], [ 7.06162405024304, 4.492402076577434 ], [ 7.072209358435259, 4.504900455069503 ], [ 7.063216209324821, 4.515233040090038 ], [ 7.05550479908527, 4.527882098684472 ], [ 7.05149507536089, 4.542366027525588 ], [ 7.04974794417376, 4.552636146503687 ], [ 7.051704883503419, 4.565207958045619 ], [ 7.060085773197841, 4.575397967969252 ], [ 7.05930709766875, 4.590788841426615 ], [ 7.052930832336415, 4.598299025529457 ], [ 7.059000969460783, 4.607573985831323 ], [ 7.05817508689961, 4.617836951804577 ], [ 7.059288978656468, 4.638806820052594 ], [ 7.055820557299853, 4.642380149480516 ], [ 7.025218227506969, 4.673908089902227 ], [ 7.013443946506925, 4.69549941957257 ], [ 7.009610652902381, 4.699666023403552 ], [ 7.000555038749496, 4.712499618123388 ], [ 6.992228773092222, 4.715341212054113 ], [ 6.984792340039519, 4.733727950547063 ], [ 6.982152939246134, 4.740253924981118 ], [ 6.992082118992585, 4.748951911891027 ], [ 7.002087115790459, 4.743642330283365 ], [ 7.005523205125144, 4.737215518916685 ], [ 7.011833191412506, 4.731840611264658 ], [ 7.019545554652666, 4.724361897183257 ], [ 7.025621890781281, 4.713144301561385 ], [ 7.031464576751091, 4.712442875084832 ], [ 7.042446431212738, 4.721337466128261 ], [ 7.063138870272269, 4.738097003515577 ], [ 7.070512308282161, 4.75175202079356 ], [ 7.071665764065926, 4.753888130244945 ], [ 7.067243156060954, 4.768221326983678 ], [ 7.067870140486946, 4.770674228650307 ], [ 7.071187972741257, 4.776774882795394 ], [ 7.069231033411597, 4.779609679721489 ], [ 7.063376904433994, 4.788491725756444 ], [ 7.065865517124905, 4.793444633121737 ], [ 7.076148510111693, 4.795688151646061 ], [ 7.07708358774704, 4.797931671170431 ], [ 7.075774669857708, 4.801110268330149 ], [ 7.076466084327478, 4.804172993411157 ], [ 7.083724022258934, 4.792459965452679 ], [ 7.093306064769479, 4.783060074065872 ], [ 7.099184035763301, 4.771358013114877 ], [ 7.103244780522346, 4.76246786107447 ], [ 7.106851100972676, 4.754047871353464 ], [ 7.11184597036646, 4.746550083259081 ], [ 7.117301941073549, 4.739047050161105 ], [ 7.136040210805334, 4.723979949923717 ], [ 7.145238876055373, 4.722974777240779 ], [ 7.155385016949197, 4.724759102453106 ], [ 7.165070056529714, 4.726546763667784 ], [ 7.175617217696015, 4.735705852890931 ] ] ] ] } },
{ "type": "Feature", "properties": { "fid": 317.0, "OBJECTID": 317.0, "lganame": "Opobo\/Nkoro", "statecode": "RI", "LGA_UID": "32_20" }, "geometry": { "type": "MultiPolygon", "coordinates": [ [ [ [ 7.473252564925247, 4.557516136819402 ], [ 7.447221756238548, 4.550277709901195 ], [ 7.422295122302103, 4.551347645628198 ], [ 7.422715666587806, 4.566343406817111 ], [ 7.422804831648421, 4.569522857977404 ], [ 7.428831099742979, 4.571076870033266 ], [ 7.445114612806833, 4.573476790663904 ], [ 7.457040309909814, 4.571820258538366 ], [ 7.459835232808814, 4.569354289862872 ], [ 7.473252564925247, 4.557516136819402 ] ] ] ] } },
{ "type": "Feature", "properties": { "fid": 320.0, "OBJECTID": 320.0, "lganame": "Tai", "statecode": "RI", "LGA_UID": "32_23" }, "geometry": { "type": "MultiPolygon", "coordinates": [ [ [ [ 7.321207046617474, 4.783119202106093 ], [ 7.323874950430195, 4.772840977122485 ], [ 7.325122833278044, 4.758378983296268 ], [ 7.328729152728386, 4.749958991575284 ], [ 7.339686871173626, 4.740081786864152 ], [ 7.344653129547964, 4.729320048552097 ], [ 7.328457831544029, 4.720590114620506 ], [ 7.316945075721662, 4.720214844365501 ], [ 7.304935931561999, 4.716114997579837 ], [ 7.2952470779789, 4.713860989048385 ], [ 7.285574913407117, 4.713470935783334 ], [ 7.274508952888311, 4.711693763575852 ], [ 7.257001876993058, 4.710433959719865 ], [ 7.246848106094092, 4.707716941873798 ], [ 7.234645843803207, 4.702348232225972 ], [ 7.224216937717244, 4.699971198610911 ], [ 7.214109897849994, 4.70238208824901 ], [ 7.206347941576098, 4.70943689304238 ], [ 7.202754974134848, 4.719254970713337 ], [ 7.202381133880863, 4.728581905050532 ], [ 7.200164795374974, 4.737924099398128 ], [ 7.195190906995435, 4.74775409707712 ], [ 7.193439006805079, 4.757557868738331 ], [ 7.197207928365913, 4.76685190205319 ], [ 7.20325803847669, 4.773797034772087 ], [ 7.20754289638802, 4.78914785420227 ], [ 7.20581293121262, 4.801281929446816 ], [ 7.197113037301449, 4.806478976977928 ], [ 7.18841695839285, 4.812142848826284 ], [ 7.180681229136781, 4.821993827519577 ], [ 7.181752204864495, 4.838303088600924 ], [ 7.195076941917989, 4.835400104628491 ], [ 7.20837211595142, 4.829234123438994 ], [ 7.220324993072893, 4.827274799107727 ], [ 7.232273102191016, 4.824849129459608 ], [ 7.240954876089916, 4.817787169661301 ], [ 7.256552218687546, 4.811603069459522 ], [ 7.266169071221782, 4.805932998606977 ], [ 7.275788783757889, 4.800727844070309 ], [ 7.285886764619022, 4.797385215799181 ], [ 7.298726082342739, 4.791687964928144 ], [ 7.312029839381978, 4.786455154372675 ], [ 7.321207046617474, 4.783119202106093 ] ] ] ] } },
{ "type": "Feature", "properties": { "fid": 322.0, "OBJECTID": 322.0, "lganame": "Obio\/Akpor", "statecode": "RI", "LGA_UID": "32_15" }, "geometry": { "type": "MultiPolygon", "coordinates": [ [ [ [ 7.039434910166563, 4.934809208172283 ], [ 7.053143024480562, 4.921373844043615 ], [ 7.062798023040671, 4.919898987041506 ], [ 7.075163841442702, 4.912806988222826 ], [ 7.086643219242376, 4.90945291494387 ], [ 7.097636222711628, 4.903306006767366 ], [ 7.104446888339112, 4.892994880761421 ], [ 7.126119137064393, 4.896553040179015 ], [ 7.125968932962337, 4.880237103093123 ], [ 7.137341021689167, 4.865228175895254 ], [ 7.146018981585428, 4.857699870780152 ], [ 7.152400016921035, 4.850656985994817 ], [ 7.138498783475825, 4.840977192417881 ], [ 7.128375052597221, 4.841523169788843 ], [ 7.117330074092649, 4.842076778164994 ], [ 7.103980064021926, 4.84218311323724 ], [ 7.093821049119356, 4.839000225074585 ], [ 7.084094047510348, 4.832550048691985 ], [ 7.078478812695039, 4.822803974069984 ], [ 7.076556206388716, 4.813961983062313 ], [ 7.065491675870931, 4.81924581465239 ], [ 7.056143283519134, 4.822423934811809 ], [ 7.046982288294657, 4.823732852701141 ], [ 7.037054061548872, 4.824065207926935 ], [ 7.021555424018288, 4.821489334176761 ], [ 7.009776592015101, 4.820554255541424 ], [ 7.0047287935854, 4.819058894525426 ], [ 6.998558998393321, 4.820180416287428 ], [ 6.987340926771139, 4.822984695192815 ], [ 6.982293129341372, 4.81494569773065 ], [ 6.982536792506949, 4.803517817965997 ], [ 6.980597019188963, 4.79281091669111 ], [ 6.968630791058501, 4.793372154072472 ], [ 6.958489895168213, 4.792054176176975 ], [ 6.952004909761968, 4.796576500249671 ], [ 6.944654941768022, 4.797827721099793 ], [ 6.941020966298879, 4.79844617752002 ], [ 6.940553664981394, 4.794005393502744 ], [ 6.929569720518316, 4.794005393502744 ], [ 6.924427986024739, 4.794706820979286 ], [ 6.919987679007761, 4.800783157107901 ], [ 6.921156405801867, 4.806859493236459 ], [ 6.928400992724221, 4.80919647182435 ], [ 6.930737972312102, 4.81690836006419 ], [ 6.921857357278157, 4.824620724304395 ], [ 6.921011447703393, 4.829784392812883 ], [ 6.925830363977582, 4.839577675466955 ], [ 6.917884349578685, 4.848225117342452 ], [ 6.908068656909336, 4.8491597179775 ], [ 6.903507232810114, 4.858153343088247 ], [ 6.903628348892369, 4.868790627315775 ], [ 6.899845123321882, 4.87654113758191 ], [ 6.895215034175919, 4.881644726049558 ], [ 6.893246173838179, 4.885918616953461 ], [ 6.898720740557906, 4.88912296313066 ], [ 6.900824069986982, 4.894031048465479 ], [ 6.898253441240399, 4.898471355482457 ], [ 6.89875602658185, 4.904881000837463 ], [ 6.910264969401624, 4.904789924775628 ], [ 6.919940947976045, 4.905645847357164 ], [ 6.931893826097451, 4.903687000026196 ], [ 6.941996097961464, 4.900808811070647 ], [ 6.953044891468608, 4.900722027011682 ], [ 6.963628768659817, 4.900172233638102 ], [ 6.975534915749506, 4.893084048822004 ], [ 6.984255790674922, 4.890217780874536 ], [ 6.994870185886896, 4.892930983718031 ], [ 6.985292912379634, 4.902797222421668 ], [ 6.976161957175577, 4.911261082172473 ], [ 6.980868816373629, 4.922411918748935 ], [ 6.992877006532638, 4.926513194535573 ], [ 7.006270884633182, 4.931068896630961 ], [ 7.015044211594216, 4.93379688348449 ], [ 7.025228023513648, 4.939775943546977 ], [ 7.039434910166563, 4.934809208172283 ] ] ] ] } },
{ "type": "Feature", "properties": { "fid": 329.0, "OBJECTID": 329.0, "lganame": "Oyigbo", "statecode": "RI", "LGA_UID": "32_21" }, "geometry": { "type": "MultiPolygon", "coordinates": [ [ [ [ 7.326064586917937, 4.876126766300331 ], [ 7.330787182126755, 4.873486041506112 ], [ 7.334217072457193, 4.87331342738878 ], [ 7.340910912005313, 4.872939110134496 ], [ 7.352412223819954, 4.871914864438565 ], [ 7.360141277071477, 4.866603850829961 ], [ 7.362020016347969, 4.865313052952956 ], [ 7.373507023152854, 4.86289119730742 ], [ 7.392834187284734, 4.861804961569362 ], [ 7.406683921694992, 4.865890980345625 ], [ 7.416359901269345, 4.866746901927172 ], [ 7.429212093001809, 4.86244916900705 ], [ 7.436501025954328, 4.85400009226629 ], [ 7.446667670862098, 4.845414639432875 ], [ 7.455207824664683, 4.845066071196072 ], [ 7.460362911167351, 4.845418930435812 ], [ 7.466188431125488, 4.845414639432875 ], [ 7.471591472796604, 4.84227705030105 ], [ 7.474380015691338, 4.836699962511659 ], [ 7.478563308533637, 4.833039761024736 ], [ 7.486754894099477, 4.82763671935362 ], [ 7.487277985454853, 4.824673653340369 ], [ 7.488712311429424, 4.821804523390938 ], [ 7.490066528349587, 4.81909608755069 ], [ 7.492273807849301, 4.815780163297632 ], [ 7.494010925029613, 4.814063072130978 ], [ 7.496282100572728, 4.812717915216979 ], [ 7.498609543154146, 4.810249328539726 ], [ 7.501562119160269, 4.807817935887726 ], [ 7.488966941602428, 4.801836013823277 ], [ 7.473779202283083, 4.802422047221455 ], [ 7.453966140821024, 4.800714016060908 ], [ 7.441062927053906, 4.799417973180311 ], [ 7.430521010891198, 4.804629802721536 ], [ 7.418578147776543, 4.807521819686485 ], [ 7.407067775955795, 4.807612895748377 ], [ 7.397869109705766, 4.808618069431361 ], [ 7.382664204374748, 4.807340144563057 ], [ 7.377974987188622, 4.798052788252733 ], [ 7.370932102403344, 4.783191204155003 ], [ 7.360764980495219, 4.779076099358974 ], [ 7.346488952795369, 4.778721809118224 ], [ 7.335913180609623, 4.780204773125831 ], [ 7.321207046617474, 4.783119202106093 ], [ 7.312029839381978, 4.786455154372675 ], [ 7.298726082342739, 4.791687964928144 ], [ 7.285886764619022, 4.797385215799181 ], [ 7.275788783757889, 4.800727844070309 ], [ 7.266169071221782, 4.805932998606977 ], [ 7.256552218687546, 4.811603069459522 ], [ 7.240954876089916, 4.817787169661301 ], [ 7.232273102191016, 4.824849129459608 ], [ 7.220324993072893, 4.827274799107727 ], [ 7.20837211595142, 4.829234123438994 ], [ 7.195076941917989, 4.835400104628491 ], [ 7.181752204864495, 4.838303088600924 ], [ 7.171194076690711, 4.841650008874979 ], [ 7.162012100451989, 4.844520091825075 ], [ 7.152400016921035, 4.850656985994817 ], [ 7.146018981585428, 4.857699870780152 ], [ 7.137341021689167, 4.865228175895254 ], [ 7.125968932962337, 4.880237103093123 ], [ 7.126119137064393, 4.896553040179015 ], [ 7.131286143575153, 4.90770101475357 ], [ 7.143767834055893, 4.913196087487222 ], [ 7.140429019787291, 4.900634765952361 ], [ 7.143746853041591, 4.895613193540441 ], [ 7.147241116415785, 4.890325068947391 ], [ 7.15592813531822, 4.883728981465708 ], [ 7.164652824246218, 4.881329059835025 ], [ 7.173842907490496, 4.879391192518369 ], [ 7.185287952266833, 4.872307776705497 ], [ 7.191195965281054, 4.863869189971865 ], [ 7.205420016945652, 4.858627796410588 ], [ 7.215075015505761, 4.857152939408536 ], [ 7.230735779146528, 4.857962131958345 ], [ 7.240856171022813, 4.856948853269841 ], [ 7.257046223023224, 4.865211963884235 ], [ 7.271389960769113, 4.873023987192141 ], [ 7.281527995657427, 4.873876094771106 ], [ 7.294890880736887, 4.87516879964943 ], [ 7.307785988498495, 4.875533103896998 ], [ 7.319794177657514, 4.879632949682616 ], [ 7.326064586917937, 4.876126766300331 ] ] ] ] } },
{ "type": "Feature", "properties": { "fid": 333.0, "OBJECTID": 333.0, "lganame": "Bonny", "statecode": "RI", "LGA_UID": "32_07" }, "geometry": { "type": "MultiPolygon", "coordinates": [ [ [ [ 7.26232243960817, 4.501877276015421 ], [ 7.276321812120045, 4.495612272758649 ], [ 7.301155243993207, 4.503019416791403 ], [ 7.327138957647946, 4.50473262895548 ], [ 7.335419482274176, 4.497308710911284 ], [ 7.31666660253245, 4.472499847054792 ], [ 7.311787266217209, 4.413677923088073 ], [ 7.311666488135131, 4.412221908098786 ], [ 7.308054923681254, 4.408888816834121 ], [ 7.298888207452876, 4.404443740813917 ], [ 7.214444161077097, 4.382777214092528 ], [ 7.203610419716085, 4.380555152582701 ], [ 7.180276869862041, 4.377777099695152 ], [ 7.166666030614124, 4.378333092072921 ], [ 7.148332596157388, 4.381388665149075 ], [ 7.142777443382954, 4.383054733281085 ], [ 7.138054848174193, 4.38527774779152 ], [ 7.134999275098039, 4.388888359244731 ], [ 7.133888245343144, 4.394443512019222 ], [ 7.133496949077312, 4.403874261426949 ], [ 7.136452818085672, 4.410837020157828 ], [ 7.226110459003792, 4.519999504328609 ], [ 7.237195331535474, 4.538425796848401 ], [ 7.247189068325724, 4.530430808416156 ], [ 7.255184056757969, 4.512727618387714 ], [ 7.26232243960817, 4.501877276015421 ] ] ] ] } },
{ "type": "Feature", "properties": { "fid": 336.0, "OBJECTID": 336.0, "lganame": "Omumma", "statecode": "RI", "LGA_UID": "32_19" }, "geometry": { "type": "MultiPolygon", "coordinates": [ [ [ [ 7.271354197744813, 5.103509902796475 ], [ 7.264222144898895, 5.094525813692201 ], [ 7.256930827944814, 5.079692363613617 ], [ 7.255775928160119, 5.077342987017289 ], [ 7.252893925201931, 5.064311981163371 ], [ 7.251376152170678, 5.049406052035465 ], [ 7.251686096381263, 5.0330867769473 ], [ 7.248316765091943, 5.017261982195066 ], [ 7.245464802154174, 5.007494925558831 ], [ 7.241197109254472, 4.994009018395786 ], [ 7.235092163106458, 4.981004237559659 ], [ 7.228350162525601, 4.970958232733835 ], [ 7.218953133140758, 4.97833394974532 ], [ 7.207005024022578, 4.980760098393773 ], [ 7.192286015021693, 4.982275009423063 ], [ 7.183078765765799, 4.982347965472627 ], [ 7.173611641333309, 4.984169482710286 ], [ 7.16791200646071, 4.98526620945546 ], [ 7.162504195786369, 4.997896194036969 ], [ 7.164929867434466, 5.011396885210047 ], [ 7.176064013999621, 5.020631790484686 ], [ 7.182157040139543, 5.032238960371217 ], [ 7.185482979399353, 5.043402194956116 ], [ 7.190628051895203, 5.052217959946006 ], [ 7.1985101702507, 5.058217049022119 ], [ 7.204145908079909, 5.070292950227156 ], [ 7.206095219404403, 5.081933022136013 ], [ 7.207106113091243, 5.091714858782325 ], [ 7.20905876241801, 5.103820801007714 ], [ 7.213769912619, 5.115437983901074 ], [ 7.215253829627272, 5.126616001496018 ], [ 7.221358775775286, 5.139620781332155 ], [ 7.224689007038023, 5.151248932232932 ], [ 7.234924792992729, 5.16282320009708 ], [ 7.241043091149834, 5.177227019883787 ], [ 7.243885994081438, 5.18606185888666 ], [ 7.242690086268908, 5.192757607436135 ], [ 7.242135047891793, 5.195867061548824 ], [ 7.251398087185578, 5.201854228616867 ], [ 7.252560615975483, 5.204720019564036 ], [ 7.256109238386557, 5.213470935509861 ], [ 7.260108948104175, 5.21332740841234 ], [ 7.263917445691902, 5.215610503963603 ], [ 7.274950027188027, 5.209591865874188 ], [ 7.281322001517481, 5.201615810454825 ], [ 7.286756992210314, 5.19178295077387 ], [ 7.290813922966777, 5.18242692941692 ], [ 7.292564869156479, 5.172623157755709 ], [ 7.291069031140125, 5.160048008211504 ], [ 7.287724971867988, 5.147019863359446 ], [ 7.28021812376744, 5.131694793946792 ], [ 7.278979300925698, 5.119540690688666 ], [ 7.278698920735224, 5.116788863818897 ], [ 7.271354197744813, 5.103509902796475 ] ] ] ] } },
{ "type": "Feature", "properties": { "fid": 339.0, "OBJECTID": 339.0, "lganame": "Port-Harcourt", "statecode": "RI", "LGA_UID": "32_22" }, "geometry": { "type": "MultiPolygon", "coordinates": [ [ [ [ 7.076556206388716, 4.813961983062313 ], [ 7.076466084327478, 4.804172993411157 ], [ 7.075774669857708, 4.801110268330149 ], [ 7.07708358774704, 4.797931671170431 ], [ 7.076148510111693, 4.795688151646061 ], [ 7.065865517124905, 4.793444633121737 ], [ 7.063376904433994, 4.788491725756444 ], [ 7.069231033411597, 4.779609679721489 ], [ 7.071187972741257, 4.776774882795394 ], [ 7.067870140486946, 4.770674228650307 ], [ 7.067243156060954, 4.768221326983678 ], [ 7.071665764065926, 4.753888130244945 ], [ 7.070512308282161, 4.75175202079356 ], [ 7.063138870272269, 4.738097003515577 ], [ 7.042446431212738, 4.721337466128261 ], [ 7.031464576751091, 4.712442875084832 ], [ 7.025621890781281, 4.713144301561385 ], [ 7.019545554652666, 4.724361897183257 ], [ 7.011833191412506, 4.731840611264658 ], [ 7.005523205125144, 4.737215518916685 ], [ 7.002087115790459, 4.743642330283365 ], [ 7.00178384758442, 4.747732162062221 ], [ 7.002251624902271, 4.754977225984931 ], [ 7.002769470254123, 4.757153034463272 ], [ 7.008177756928774, 4.768442631134008 ], [ 7.008841991380109, 4.772504806894062 ], [ 7.002859116314994, 4.773252964402445 ], [ 6.992669582391727, 4.768298149035843 ], [ 6.984723567992773, 4.763156890542632 ], [ 6.976310253276324, 4.755911826619922 ], [ 6.963923930860403, 4.754275798508331 ], [ 6.963653563676701, 4.75880908958851 ], [ 6.966072083319943, 4.765419960080294 ], [ 6.964624882336636, 4.77110242794123 ], [ 6.958081244890536, 4.775075435640701 ], [ 6.954809665667653, 4.773673533688168 ], [ 6.949200629856591, 4.772738457052867 ], [ 6.944993972998361, 4.77998352097552 ], [ 6.944293021522128, 4.785826205945341 ], [ 6.940553664981394, 4.794005393502744 ], [ 6.941020966298879, 4.79844617752002 ], [ 6.944654941768022, 4.797827721099793 ], [ 6.952004909761968, 4.796576500249671 ], [ 6.958489895168213, 4.792054176176975 ], [ 6.968630791058501, 4.793372154072472 ], [ 6.980597019188963, 4.79281091669111 ], [ 6.982536792506949, 4.803517817965997 ], [ 6.982293129341372, 4.81494569773065 ], [ 6.987340926771139, 4.822984695192815 ], [ 6.998558998393321, 4.820180416287428 ], [ 7.0047287935854, 4.819058894525426 ], [ 7.009776592015101, 4.820554255541424 ], [ 7.021555424018288, 4.821489334176761 ], [ 7.037054061548872, 4.824065207926935 ], [ 7.046982288294657, 4.823732852701141 ], [ 7.056143283519134, 4.822423934811809 ], [ 7.065491675870931, 4.81924581465239 ], [ 7.076556206388716, 4.813961983062313 ] ] ] ] } },
{ "type": "Feature", "properties": { "fid": 438.0, "OBJECTID": 438.0, "lganame": "Gokana", "statecode": "RI", "LGA_UID": "32_12" }, "geometry": { "type": "MultiPolygon", "coordinates": [ [ [ [ 7.299116162607788, 4.556634909220634 ], [ 7.272499083522689, 4.557777404996898 ], [ 7.238610268496871, 4.563611030960601 ], [ 7.194337245415397, 4.611434556454412 ], [ 7.204237592142249, 4.622820441190584 ], [ 7.206961154992769, 4.625981808338622 ], [ 7.215291022652536, 4.630578041461547 ], [ 7.223616123309057, 4.634707928267574 ], [ 7.24074506794733, 4.641889095146837 ], [ 7.241861819706116, 4.666265010709139 ], [ 7.248405933152526, 4.676936149959658 ], [ 7.252626896020502, 4.685294150638526 ], [ 7.245337963067982, 4.693743229379322 ], [ 7.234645843803207, 4.702348232225972 ], [ 7.246848106094092, 4.707716941873798 ], [ 7.257001876993058, 4.710433959719865 ], [ 7.274508952888311, 4.711693763575852 ], [ 7.285574913407117, 4.713470935783334 ], [ 7.2952470779789, 4.713860989048385 ], [ 7.304935931561999, 4.716114997579837 ], [ 7.316945075721662, 4.720214844365501 ], [ 7.328457831544029, 4.720590114620506 ], [ 7.344653129547964, 4.729320048552097 ], [ 7.345461845097475, 4.71719217331173 ], [ 7.347191811272921, 4.705057144066586 ], [ 7.348899841433422, 4.690590858237385 ], [ 7.34786415072972, 4.678011893690609 ], [ 7.344056129142359, 4.664523124525601 ], [ 7.338901996640345, 4.654773234901029 ], [ 7.330491065925514, 4.641320228760321 ], [ 7.328555106610168, 4.631079196802034 ], [ 7.324765205035078, 4.619453906903175 ], [ 7.320522785152548, 4.608765124640684 ], [ 7.315354823641144, 4.597617149066139 ], [ 7.321276187664466, 4.590577126282767 ], [ 7.308760166160425, 4.581352234014901 ], [ 7.301790237424655, 4.574415207301513 ], [ 7.301359687132106, 4.571552421356387 ], [ 7.299116162607788, 4.556634909220634 ] ] ] ] } },
{ "type": "Feature", "properties": { "fid": 645.0, "OBJECTID": 645.0, "lganame": "Khana", "statecode": "RI", "LGA_UID": "32_14" }, "geometry": { "type": "MultiPolygon", "coordinates": [ [ [ [ 7.501562119160269, 4.807817935887726 ], [ 7.506598472582255, 4.804257393468504 ], [ 7.510680199355591, 4.800349711813396 ], [ 7.516999244649071, 4.793008326825259 ], [ 7.521463393682268, 4.788544177792062 ], [ 7.525195599218137, 4.779658317754581 ], [ 7.525195599218137, 4.769351481751528 ], [ 7.524229526561726, 4.763231753593459 ], [ 7.523907185342694, 4.756148814780943 ], [ 7.523907185342694, 4.753246783809175 ], [ 7.526484013093523, 4.748737334745215 ], [ 7.530993462157483, 4.743906021462578 ], [ 7.536468982877864, 4.739396572398618 ], [ 7.5413222311754, 4.736161232200345 ], [ 7.543748855824163, 4.734041213759895 ], [ 7.545487404005428, 4.732310771584139 ], [ 7.547098160099893, 4.726191044426059 ], [ 7.545640741109651, 4.720847175795143 ], [ 7.540788327812663, 4.703054994706179 ], [ 7.537426742528623, 4.701476147633457 ], [ 7.527777671972501, 4.696944235554213 ], [ 7.521944046008855, 4.689166069269334 ], [ 7.517499922989259, 4.679721832852408 ], [ 7.513888358535382, 4.626111030426387 ], [ 7.515832900856594, 4.621110916029068 ], [ 7.522221566197402, 4.614166260310469 ], [ 7.526110648839847, 4.611110688234362 ], [ 7.528888701727396, 4.60694408540337 ], [ 7.530554771859443, 4.602221489194562 ], [ 7.529443741104501, 4.596110344042359 ], [ 7.510555268270707, 4.573888778943854 ], [ 7.504166603929889, 4.566666603036708 ], [ 7.49916648853258, 4.564722060715496 ], [ 7.473252564925247, 4.557516136819402 ], [ 7.459835232808814, 4.569354289862872 ], [ 7.457040309909814, 4.571820258538366 ], [ 7.445114612806833, 4.573476790663904 ], [ 7.428831099742979, 4.571076870033266 ], [ 7.422804831648421, 4.569522857977404 ], [ 7.422715666587806, 4.566343406817111 ], [ 7.422295122302103, 4.551347645628198 ], [ 7.408806712137334, 4.551926615021557 ], [ 7.405770590074439, 4.552056936110148 ], [ 7.370290855967596, 4.553579848144864 ], [ 7.356598153664095, 4.554167584544189 ], [ 7.299116162607788, 4.556634909220634 ], [ 7.301359687132106, 4.571552421356387 ], [ 7.301790237424655, 4.574415207301513 ], [ 7.308760166160425, 4.581352234014901 ], [ 7.321276187664466, 4.590577126282767 ], [ 7.315354823641144, 4.597617149066139 ], [ 7.320522785152548, 4.608765124640684 ], [ 7.324765205035078, 4.619453906903175 ], [ 7.328555106610168, 4.631079196802034 ], [ 7.330491065925514, 4.641320228760321 ], [ 7.338901996640345, 4.654773234901029 ], [ 7.344056129142359, 4.664523124525601 ], [ 7.34786415072972, 4.678011893690609 ], [ 7.348899841433422, 4.690590858237385 ], [ 7.347191811272921, 4.705057144066586 ], [ 7.345461845097475, 4.71719217331173 ], [ 7.344653129547964, 4.729320048552097 ], [ 7.339686871173626, 4.740081786864152 ], [ 7.328729152728386, 4.749958991575284 ], [ 7.325122833278044, 4.758378983296268 ], [ 7.323874950430195, 4.772840977122485 ], [ 7.321207046617474, 4.783119202106093 ], [ 7.335913180609623, 4.780204773125831 ], [ 7.346488952795369, 4.778721809118224 ], [ 7.360764980495219, 4.779076099358974 ], [ 7.370932102403344, 4.783191204155003 ], [ 7.377974987188622, 4.798052788252733 ], [ 7.382664204374748, 4.807340144563057 ], [ 7.397869109705766, 4.808618069431361 ], [ 7.407067775955795, 4.807612895748377 ], [ 7.418578147776543, 4.807521819686485 ], [ 7.430521010891198, 4.804629802721536 ], [ 7.441062927053906, 4.799417973180311 ], [ 7.453966140821024, 4.800714016060908 ], [ 7.473779202283083, 4.802422047221455 ], [ 7.488966941602428, 4.801836013823277 ], [ 7.501562119160269, 4.807817935887726 ] ] ] ] } },
{ "type": "Feature", "properties": { "fid": 729.0, "OBJECTID": 729.0, "lganame": "Akuku Toru", "statecode": "RI", "LGA_UID": "32_04" }, "geometry": { "type": "MultiPolygon", "coordinates": [ [ [ [ 6.629915236917157, 4.758759974555119 ], [ 6.638588904810547, 4.750765800123474 ], [ 6.649202824022211, 4.753479003966959 ], [ 6.660247802526726, 4.752925872591106 ], [ 6.67080593070051, 4.749577999316386 ], [ 6.683222771137139, 4.748082161300033 ], [ 6.692409992379453, 4.745677947666479 ], [ 6.702562809277822, 4.748394011511948 ], [ 6.715075015779234, 4.757153034463272 ], [ 6.727970122540853, 4.757516860710496 ], [ 6.737628947103588, 4.757077638412056 ], [ 6.753073181597244, 4.756375330934873 ], [ 6.758511219292131, 4.729432472628446 ], [ 6.76589712531046, 4.718118650941278 ], [ 6.772178901578684, 4.690707260316515 ], [ 6.772749972966665, 4.673004070288016 ], [ 6.786455668279075, 4.655300880259517 ], [ 6.814723665485815, 4.627318419246762 ], [ 6.827287219022196, 4.610757369994303 ], [ 6.825859543052104, 4.597337209875946 ], [ 6.812439382933746, 4.582774908981548 ], [ 6.797020475457316, 4.57335224257929 ], [ 6.796877708360341, 4.552565272455524 ], [ 6.810583402672705, 4.493459460295867 ], [ 6.822004816433036, 4.462621646343052 ], [ 6.834999084261995, 4.414999961986325 ], [ 6.841670441794918, 4.399199737250854 ], [ 6.850832939020393, 4.377499580506594 ], [ 6.848610877510566, 4.348332405688893 ], [ 6.794166564518264, 4.336666106762152 ], [ 6.738332747581808, 4.336666106762152 ], [ 6.732221603429537, 4.337499618328479 ], [ 6.720276833313619, 4.346388817368279 ], [ 6.716943741048965, 4.349999427821558 ], [ 6.712499619029415, 4.358888625861312 ], [ 6.709166526764704, 4.45722198467422 ], [ 6.711388588274474, 4.490554809322305 ], [ 6.713333129595696, 4.50277709862678 ], [ 6.719999314125062, 4.524166107159601 ], [ 6.731388091863209, 4.547499656013656 ], [ 6.737221717826912, 4.555276871297906 ], [ 6.743332862979116, 4.569999695301362 ], [ 6.741110802469336, 4.581110953850953 ], [ 6.735277175505644, 4.601943970006005 ], [ 6.731944084240979, 4.605277062270716 ], [ 6.727221489032218, 4.604999542082112 ], [ 6.656944275282171, 4.507499694835587 ], [ 6.662499427056616, 4.440277100160984 ], [ 6.664166450189271, 4.428610802234289 ], [ 6.665277480944155, 4.423333167648366 ], [ 6.667777060642493, 4.419166564817374 ], [ 6.686388015287775, 4.396944045718215 ], [ 6.688332557608987, 4.392221450509396 ], [ 6.689443588363872, 4.386666297734962 ], [ 6.69638824508246, 4.334444046252372 ], [ 6.69416618357269, 4.329999923232833 ], [ 6.682499885645996, 4.328332901100168 ], [ 6.630555153351963, 4.325554848212619 ], [ 6.57444381722695, 4.326665878967503 ], [ 6.549243264104348, 4.325280384026087 ], [ 6.548255736433362, 4.340248743196412 ], [ 6.548027039277997, 4.343715190551677 ], [ 6.544572829931042, 4.354928017170266 ], [ 6.535923958054525, 4.357870102169272 ], [ 6.520407199511624, 4.360930920248961 ], [ 6.514143944256034, 4.36894178369198 ], [ 6.512063979842765, 4.38013076829435 ], [ 6.511841773691799, 4.392681121821738 ], [ 6.512516975150561, 4.404285907706651 ], [ 6.511864184707065, 4.418239117187227 ], [ 6.512575150190116, 4.431702137334696 ], [ 6.516438006814724, 4.442320823549608 ], [ 6.519386767818276, 4.452957152776492 ], [ 6.52289295220055, 4.462992190594832 ], [ 6.525196074765461, 4.469583035072958 ], [ 6.53178215024036, 4.478759766308144 ], [ 6.534255027920551, 4.488474845909082 ], [ 6.537251471956495, 4.494982719330892 ], [ 6.539985179813925, 4.500919819364867 ], [ 6.549862384525056, 4.510221480684891 ], [ 6.542593955586483, 4.52185106258662 ], [ 6.545016766232663, 4.533480167488051 ], [ 6.553039073683465, 4.53739976915125 ], [ 6.560038090438923, 4.541233062755794 ], [ 6.566337108718812, 4.553831577315918 ], [ 6.560038090438923, 4.554316520645386 ], [ 6.551316260512863, 4.558192730279131 ], [ 6.543078422915642, 4.568368435193008 ], [ 6.540171145940292, 4.57660579678992 ], [ 6.545501231561843, 4.580966948753087 ], [ 6.548893451866661, 4.586297035374685 ], [ 6.544047831574289, 4.590173721008682 ], [ 6.538109778539706, 4.596213818112631 ], [ 6.535140990522564, 4.60881185467241 ], [ 6.526094913376141, 4.615013122885898 ], [ 6.51661777493689, 4.62261486105092 ], [ 6.515436172134059, 4.632859230011491 ], [ 6.51196479777542, 4.643144130999588 ], [ 6.528808117219626, 4.661898135742035 ], [ 6.537717819273382, 4.672893047212597 ], [ 6.546593189303792, 4.682030201420844 ], [ 6.553585052054416, 4.688412188757127 ], [ 6.562364101019341, 4.692440033493824 ], [ 6.560522555768102, 4.697745323098559 ], [ 6.5675749775599, 4.701641082745539 ], [ 6.573121071328217, 4.701622008732556 ], [ 6.574090480986911, 4.709374905000288 ], [ 6.578935623278937, 4.715189456951009 ], [ 6.586215019224937, 4.718504906203691 ], [ 6.593472481156027, 4.722457885889582 ], [ 6.600249766760896, 4.73405599576995 ], [ 6.607241153511211, 4.746353149125241 ], [ 6.620207787321419, 4.754642009757163 ], [ 6.629915236917157, 4.758759974555119 ] ] ] ] } },
{ "type": "Feature", "properties": { "fid": 734.0, "OBJECTID": 734.0, "lganame": "Eleme", "statecode": "RI", "LGA_UID": "32_09" }, "geometry": { "type": "MultiPolygon", "coordinates": [ [ [ [ 7.181752204864495, 4.838303088600924 ], [ 7.180681229136781, 4.821993827519577 ], [ 7.18841695839285, 4.812142848826284 ], [ 7.197113037301449, 4.806478976977928 ], [ 7.20581293121262, 4.801281929446816 ], [ 7.20754289638802, 4.78914785420227 ], [ 7.20325803847669, 4.773797034772087 ], [ 7.197207928365913, 4.76685190205319 ], [ 7.193439006805079, 4.757557868738331 ], [ 7.195190906995435, 4.74775409707712 ], [ 7.183183192836736, 4.743652821290539 ], [ 7.175617217696015, 4.735705852890931 ], [ 7.165070056529714, 4.726546763667784 ], [ 7.155385016949197, 4.724759102453106 ], [ 7.145238876055373, 4.722974777240779 ], [ 7.136040210805334, 4.723979949923717 ], [ 7.117301941073549, 4.739047050161105 ], [ 7.11184597036646, 4.746550083259081 ], [ 7.106851100972676, 4.754047871353464 ], [ 7.103244780522346, 4.76246786107447 ], [ 7.099184035763301, 4.771358013114877 ], [ 7.093306064769479, 4.783060074065872 ], [ 7.083724022258934, 4.792459965452679 ], [ 7.076466084327478, 4.804172993411157 ], [ 7.076556206388716, 4.813961983062313 ], [ 7.078478812695039, 4.822803974069984 ], [ 7.084094047510348, 4.832550048691985 ], [ 7.093821049119356, 4.839000225074585 ], [ 7.103980064021926, 4.84218311323724 ], [ 7.117330074092649, 4.842076778164994 ], [ 7.128375052597221, 4.841523169788843 ], [ 7.138498783475825, 4.840977192417881 ], [ 7.152400016921035, 4.850656985994817 ], [ 7.162012100451989, 4.844520091825075 ], [ 7.171194076690711, 4.841650008874979 ], [ 7.181752204864495, 4.838303088600924 ] ] ] ] } },
{ "type": "Feature", "properties": { "fid": 741.0, "OBJECTID": 741.0, "lganame": "Ahoada East", "statecode": "RI", "LGA_UID": "32_02" }, "geometry": { "type": "MultiPolygon", "coordinates": [ [ [ [ 6.669201850610591, 4.905181885041941 ], [ 6.649763107402862, 4.914313793246606 ], [ 6.641110896524083, 4.924639225262297 ], [ 6.629692077765583, 4.934519767975644 ], [ 6.621951102505932, 4.943904877352395 ], [ 6.616517066813742, 4.953739166034325 ], [ 6.611083031121609, 4.96357202471529 ], [ 6.606552124043048, 4.971532822124288 ], [ 6.596508980219198, 4.980937003513986 ], [ 6.582703113838761, 4.981512069904682 ], [ 6.570669173662282, 4.974615097218532 ], [ 6.565948963455128, 4.962065219691453 ], [ 6.56077814094175, 4.95044994379947 ], [ 6.549643040375997, 4.941215037524785 ], [ 6.536756991620507, 4.941782950910635 ], [ 6.526670932767558, 4.946525097132678 ], [ 6.525857925215121, 4.958187103056503 ], [ 6.531015872719706, 4.968401908996952 ], [ 6.540300846028401, 4.976719855648639 ], [ 6.552803992523707, 4.984547137966899 ], [ 6.563899994062922, 4.989586830391147 ], [ 6.574122906008938, 4.999762058304725 ], [ 6.580181122125168, 5.007638930656697 ], [ 6.587197780892666, 5.019704818854905 ], [ 6.591908932093702, 5.031322001748208 ], [ 6.595260143370695, 5.045281887233273 ], [ 6.595406055469823, 5.06113195400269 ], [ 6.594188212642337, 5.07885694504597 ], [ 6.59159278887887, 5.09706020441422 ], [ 6.592195988288722, 5.112440108864178 ], [ 6.593705177314121, 5.126412868357988 ], [ 6.594264983694529, 5.137132167641255 ], [ 6.595314026407266, 5.151109219137993 ], [ 6.595860003778228, 5.160429001470334 ], [ 6.592765807675903, 5.174438952989476 ], [ 6.604710101791454, 5.17154693602447 ], [ 6.617634772573183, 5.175175190489711 ], [ 6.626481055583838, 5.185826777726959 ], [ 6.633019924026655, 5.196032046660946 ], [ 6.63954305645882, 5.204371929327522 ], [ 6.65376281712048, 5.198665142450011 ], [ 6.667100906183123, 5.197159767427195 ], [ 6.678184031713556, 5.20080184890179 ], [ 6.690148829843054, 5.200241088520784 ], [ 6.701193810347604, 5.199687004144323 ], [ 6.715517044079604, 5.20516776986824 ], [ 6.715847969304434, 5.191180229364363 ], [ 6.717604160497672, 5.181841850019396 ], [ 6.718430996059453, 5.171578884046141 ], [ 6.712777138217973, 5.157638072574059 ], [ 6.705283165126161, 5.14371109011131 ], [ 6.701035976240405, 5.132555007531266 ], [ 6.696308136028051, 5.119072914370804 ], [ 6.697516917849327, 5.10041618269446 ], [ 6.698338985407929, 5.08968687140441 ], [ 6.696355820060433, 5.0743179319619 ], [ 6.690660000190405, 5.055715084322173 ], [ 6.690530777102595, 5.041729926819926 ], [ 6.689030170083015, 5.028687953958524 ], [ 6.684774876191739, 5.016601085746061 ], [ 6.678205012727801, 5.00313281959501 ], [ 6.668887138396769, 4.991086006409716 ], [ 6.672953129159396, 4.98266220068615 ], [ 6.679333210494349, 4.975617885899851 ], [ 6.681063174669816, 4.963482856654707 ], [ 6.679565906652499, 4.950908184110801 ], [ 6.67625808740496, 4.941609858793015 ], [ 6.667884826715749, 4.93235301950341 ], [ 6.67793989154768, 4.924346924063684 ], [ 6.685242175509245, 4.91729593327284 ], [ 6.669201850610591, 4.905181885041941 ] ] ] ] } }
]
}
